{"type":"FeatureCollection","features":[{"type":"Feature","geometry":{"type":"LineString","coordinates":[[-46.586228,-23.58424102],[-46.586444,-23.58395702],[-46.58649,-23.58367002],[-46.586481,-23.58308002],[-46.586499,-23.58249802],[-46.586563,-23.58199302],[-46.5866,-23.58151202],[-46.586684,-23.58100902],[-46.586799,-23.58004902],[-46.586857,-23.57943902],[-46.58691,-23.57863302],[-46.586981,-23.57771002],[-46.587075,-23.57690402],[-46.587181,-23.57596002],[-46.587266,-23.57528402],[-46.587412,-23.57398602],[-46.587474,-23.57335902],[-46.587519,-23.57286302],[-46.587527,-23.57238202],[-46.587474,-23.57153602],[-46.58743,-23.57096702],[-46.587452,-23.57053902],[-46.587505,-23.57030702],[-46.587691,-23.56976602],[-46.58798,-23.56929802],[-46.58838,-23.56893202],[-46.588695,-23.56870402],[-46.590018,-23.56800002],[-46.591715,-23.56712902],[-46.593415,-23.56623402],[-46.594628,-23.56559102],[-46.595076,-23.56534302],[-46.595484,-23.56507402],[-46.596004,-23.56467102],[-46.596386,-23.56432102],[-46.597305,-23.56332402],[-46.597674,-23.56284402],[-46.598308,-23.56201802],[-46.598819,-23.56133402],[-46.599334,-23.56061002],[-46.599623,-23.56019002],[-46.599934,-23.55969802],[-46.600191,-23.55912802],[-46.600307,-23.55872602],[-46.600315,-23.55836802],[-46.60022,-23.55736802],[-46.60016,-23.55663802],[-46.600111,-23.55581102],[-46.60008,-23.55554302]]},"properties":{"id":"sp_geosampa_corredor_onibus:corredor_onibus.1","source_id":"sp_geosampa_corredor_onibus","name":"CORREDOR PAES DE BARROS","type":"SPtrans"}},{"type":"Feature","geometry":{"type":"LineString","coordinates":[[-46.640531,-23.54910002],[-46.64107,-23.54918602],[-46.641647,-23.54940002],[-46.642236,-23.54969502],[-46.643052,-23.55010802],[-46.644447,-23.55068402],[-46.646136,-23.55130502],[-46.646624,-23.55152902],[-46.646935,-23.55174302],[-46.647113,-23.55192602],[-46.647524,-23.55269002],[-46.647767,-23.55323302],[-46.647912,-23.55348502],[-46.648233,-23.55400902],[-46.648667,-23.55476902],[-46.648876,-23.55503902],[-46.649409,-23.55549602],[-46.650059,-23.55596002],[-46.651088,-23.55651002],[-46.652195,-23.55718402],[-46.652642,-23.55751002],[-46.653309,-23.55807502],[-46.653647,-23.55842002],[-46.65402,-23.55894002],[-46.654197,-23.55917902],[-46.654374,-23.55944402],[-46.654609,-23.55981202],[-46.655145,-23.56054802],[-46.655453,-23.56098802],[-46.655742,-23.56147702],[-46.655933,-23.56186402],[-46.656319,-23.56271402],[-46.656631,-23.56354902],[-46.65682,-23.56397402],[-46.657009,-23.56453002],[-46.657147,-23.56492602],[-46.657294,-23.56520402],[-46.657531,-23.56555002],[-46.658235,-23.56630102],[-46.658987,-23.56707002],[-46.660527,-23.56868902],[-46.661097,-23.56924902],[-46.661963,-23.57014802],[-46.662458,-23.57062702],[-46.663427,-23.57131002],[-46.664642,-23.57220802],[-46.664963,-23.57242702],[-46.667082,-23.57399702],[-46.668518,-23.57502302],[-46.669743,-23.57586302],[-46.670784,-23.57663002],[-46.671184,-23.57689202],[-46.671201,-23.57693502],[-46.670962,-23.57866102],[-46.670933,-23.57881602],[-46.670772,-23.57976602],[-46.670572,-23.58095902],[-46.670467,-23.58146402],[-46.670303,-23.58249302],[-46.670163,-23.58325802],[-46.670157,-23.58338802],[-46.670221,-23.58404102],[-46.67042,-23.58462902],[-46.670701,-23.58524002],[-46.670865,-23.58553802],[-46.671103,-23.58613602],[-46.671423,-23.58693202],[-46.671608,-23.58757802],[-46.671798,-23.58826902],[-46.671967,-23.58881202],[-46.67204,-23.58903502],[-46.672256,-23.58971502],[-46.672426,-23.59027002],[-46.672551,-23.59096002],[-46.67265,-23.59160202],[-46.672728,-23.59220502],[-46.672833,-23.59281802],[-46.672925,-23.59380102],[-46.673025,-23.59472302],[-46.673083,-23.59510002],[-46.673161,-23.59550502],[-46.673325,-23.59617202],[-46.673583,-23.59671702],[-46.673833,-23.59725102],[-46.67391,-23.59772702],[-46.673894,-23.59820702],[-46.6739,-23.59941202],[-46.673908,-23.60005102],[-46.673972,-23.60059602],[-46.674114,-23.60148302],[-46.674178,-23.60183102],[-46.674234,-23.60217502],[-46.674431,-23.60270702],[-46.674603,-23.60315502],[-46.674911,-23.60406402],[-46.674931,-23.60419602],[-46.675061,-23.60460902],[-46.675283,-23.60512802],[-46.6756,-23.60588902],[-46.675732,-23.60619602],[-46.675941,-23.60674202],[-46.676125,-23.60722302],[-46.676497,-23.60814302],[-46.676702,-23.60870202],[-46.676861,-23.60918902],[-46.676999,-23.60970102],[-46.67715,-23.61014002],[-46.67733,-23.61069302],[-46.677503,-23.61121002],[-46.677816,-23.61200902],[-46.678066,-23.61271002],[-46.678185,-23.61303302],[-46.67863,-23.61392902],[-46.679286,-23.61485002],[-46.679927,-23.61570602],[-46.680535,-23.61662502],[-46.681027,-23.61730002],[-46.681757,-23.61828502],[-46.682557,-23.61939702],[-46.682924,-23.61999302],[-46.68359,-23.62094302],[-46.684052,-23.62158902],[-46.684512,-23.62236002],[-46.684958,-23.62301902],[-46.686387,-23.62501802],[-46.687337,-23.62635002],[-46.688476,-23.62793602],[-46.6895,-23.62935902],[-46.690484,-23.63077702],[-46.691334,-23.63170302],[-46.69142,-23.63183002]]},"properties":{"id":"sp_geosampa_corredor_onibus:corredor_onibus.2","source_id":"sp_geosampa_corredor_onibus","name":"CORREDOR SANTO AMARO / 9 DE JULHO / CENTRO","type":"SPtrans"}},{"type":"Feature","geometry":{"type":"LineString","coordinates":[[-46.69142,-23.63183002],[-46.691637,-23.63198702],[-46.691885,-23.63221402],[-46.692213,-23.63249702],[-46.692693,-23.63295102],[-46.693077,-23.63334502],[-46.693724,-23.63402402],[-46.694385,-23.63484102],[-46.695037,-23.63557602],[-46.69566,-23.63625302],[-46.696082,-23.63673302],[-46.696199,-23.63688202],[-46.696549,-23.63753502],[-46.697029,-23.63831102],[-46.697967,-23.63981202],[-46.698872,-23.64126102],[-46.699651,-23.64255702],[-46.699781,-23.64270002],[-46.700181,-23.64302502],[-46.701106,-23.64369202],[-46.701117,-23.64377802],[-46.701045,-23.64388502],[-46.700775,-23.64404202],[-46.700477,-23.64421602],[-46.70013,-23.64440302]]},"properties":{"id":"sp_geosampa_corredor_onibus:corredor_onibus.3","source_id":"sp_geosampa_corredor_onibus","name":"CORREDOR SANTO AMARO / 9 DE JULHO / CENTRO","type":"SPtrans"}},{"type":"Feature","geometry":{"type":"LineString","coordinates":[[-46.69142,-23.63183002],[-46.692293,-23.63312202],[-46.692777,-23.63381902],[-46.693322,-23.63452202],[-46.694307,-23.63595702],[-46.695241,-23.63734002],[-46.69622,-23.63875402],[-46.697255,-23.64022502],[-46.69826,-23.64163302],[-46.69913,-23.64294802],[-46.699604,-23.64362502],[-46.703365,-23.64907302],[-46.704477,-23.65072202],[-46.705028,-23.65152802],[-46.705668,-23.65238702],[-46.706352,-23.65327402],[-46.706743,-23.65384802],[-46.706862,-23.65420302]]},"properties":{"id":"sp_geosampa_corredor_onibus:corredor_onibus.4","source_id":"sp_geosampa_corredor_onibus","name":"CORREDOR SANTO AMARO / 9 DE JULHO / CENTRO","type":"SPtrans"}},{"type":"Feature","geometry":{"type":"LineString","coordinates":[[-46.671223,-23.57691202],[-46.671836,-23.57707602],[-46.672002,-23.57709102],[-46.672261,-23.57708802],[-46.672683,-23.57706902],[-46.673208,-23.57714502],[-46.673683,-23.57737602],[-46.674322,-23.57776502],[-46.675962,-23.57878702],[-46.677006,-23.57938902],[-46.677788,-23.57984102],[-46.678291,-23.58015902],[-46.678552,-23.58029302],[-46.678849,-23.58040902],[-46.679183,-23.58045702],[-46.67958,-23.58055602],[-46.68018,-23.58054902],[-46.681253,-23.58050202],[-46.682899,-23.58034302],[-46.683371,-23.58033802],[-46.683733,-23.58065202],[-46.68832,-23.58499302],[-46.689145,-23.58590502]]},"properties":{"id":"sp_geosampa_corredor_onibus:corredor_onibus.5","source_id":"sp_geosampa_corredor_onibus","name":"CORREDOR SANTO AMARO / 9 DE JULHO / CENTRO - TRECHO CIDADE JARDIM","type":"SPtrans"}},{"type":"Feature","geometry":{"type":"LineString","coordinates":[[-46.63797,-23.54246702],[-46.638043,-23.54242802],[-46.638947,-23.54119702],[-46.63902,-23.54109902],[-46.63946,-23.54056002],[-46.640028,-23.53978402],[-46.640602,-23.53906202],[-46.641239,-23.53821402],[-46.641715,-23.53757202],[-46.642451,-23.53646902],[-46.643259,-23.53524302],[-46.644571,-23.53363302],[-46.645504,-23.53218102],[-46.646617,-23.53072402],[-46.647748,-23.52924302],[-46.648065,-23.52878402],[-46.648098,-23.52821402],[-46.648152,-23.52770302],[-46.648233,-23.52724202],[-46.648305,-23.52699502],[-46.648628,-23.52638602],[-46.649498,-23.52488802],[-46.650567,-23.52298702],[-46.652425,-23.52308602],[-46.653467,-23.52311002],[-46.6544,-23.52313502],[-46.655289,-23.52317602],[-46.656501,-23.52313502],[-46.657484,-23.52295802],[-46.658817,-23.52276102],[-46.659432,-23.52264502],[-46.659876,-23.52256702],[-46.660787,-23.52243102],[-46.662901,-23.52209002],[-46.664239,-23.52190002],[-46.665954,-23.52164502],[-46.666986,-23.52152902],[-46.667704,-23.52129502],[-46.668543,-23.52104802],[-46.669131,-23.52088802],[-46.669634,-23.52074802],[-46.670658,-23.52046802],[-46.672251,-23.52001502],[-46.674024,-23.51954602],[-46.675151,-23.51922902],[-46.677772,-23.51850102],[-46.680241,-23.51786202],[-46.680498,-23.51775002],[-46.682788,-23.51711602],[-46.68475,-23.51659102],[-46.687848,-23.51571002],[-46.688674,-23.51545102],[-46.689339,-23.51530302],[-46.689572,-23.51527002],[-46.689823,-23.51527402],[-46.690124,-23.51529802],[-46.690497,-23.51531902],[-46.690694,-23.51544202],[-46.690892,-23.51538502],[-46.691043,-23.51525902],[-46.691009,-23.51506002],[-46.690955,-23.51482902],[-46.690905,-23.51466402],[-46.690842,-23.51434302],[-46.690789,-23.51390302],[-46.690645,-23.51337702],[-46.690515,-23.51274202],[-46.690322,-23.51201402],[-46.690116,-23.51102602],[-46.689985,-23.51036402],[-46.689944,-23.51018702],[-46.689886,-23.50997302],[-46.68981,-23.50968902],[-46.689716,-23.50917002],[-46.689576,-23.50857302],[-46.689509,-23.50826902],[-46.689388,-23.50783202],[-46.689173,-23.50703802],[-46.688989,-23.50611202],[-46.688711,-23.50491002],[-46.68859,-23.50469602],[-46.688446,-23.50437902],[-46.688199,-23.50396002],[-46.687908,-23.50335502],[-46.687625,-23.50272902],[-46.687293,-23.50197102],[-46.686956,-23.50146602],[-46.686525,-23.50064602],[-46.686193,-23.49995502],[-46.685856,-23.49935002],[-46.685039,-23.49822602],[-46.684609,-23.49747302],[-46.684501,-23.49667402],[-46.684478,-23.49595802],[-46.684631,-23.49530802],[-46.684851,-23.49423802],[-46.685035,-23.49343102],[-46.685232,-23.49278502],[-46.685317,-23.49223802],[-46.685335,-23.49169002],[-46.6853,-23.49107202],[-46.685156,-23.49054602],[-46.684833,-23.48988702],[-46.684402,-23.48929802],[-46.684079,-23.48884602],[-46.683433,-23.48819602],[-46.683107,-23.48786402],[-46.682555,-23.48725902],[-46.680779,-23.48533402],[-46.680406,-23.48495002],[-46.67993,-23.48441502],[-46.679432,-23.48392102],[-46.679127,-23.48362402],[-46.678825,-23.48335102],[-46.678675,-23.48327602],[-46.678188,-23.48305402],[-46.677966,-23.48295302],[-46.677747,-23.48285002],[-46.677606,-23.48278302],[-46.676805,-23.48242202],[-46.676081,-23.48207202],[-46.675477,-23.48175802],[-46.674774,-23.48144402],[-46.67432,-23.48122902],[-46.673719,-23.48063302],[-46.673553,-23.48025002],[-46.673404,-23.47986602],[-46.673342,-23.47933602],[-46.673241,-23.47894602],[-46.673082,-23.47850802],[-46.6729,-23.47790102],[-46.672759,-23.47746002],[-46.672599,-23.47690502],[-46.672486,-23.47664402],[-46.672364,-23.47641302],[-46.672091,-23.47610902],[-46.671822,-23.47591202],[-46.671454,-23.47571402],[-46.671059,-23.47550802],[-46.670655,-23.47534402],[-46.670359,-23.47501402],[-46.670179,-23.47470202],[-46.670081,-23.47414202]]},"properties":{"id":"sp_geosampa_corredor_onibus:corredor_onibus.6","source_id":"sp_geosampa_corredor_onibus","name":"CORREDOR INAJAR / RIO BRANCO / CENTRO","type":"SPtrans"}},{"type":"Feature","geometry":{"type":"LineString","coordinates":[[-46.665831,-23.50940002],[-46.666295,-23.51203102],[-46.666592,-23.51388102],[-46.666837,-23.51588702],[-46.667156,-23.51785302],[-46.667393,-23.51970302],[-46.667185,-23.52111802],[-46.666986,-23.52152902]]},"properties":{"id":"sp_geosampa_corredor_onibus:corredor_onibus.7","source_id":"sp_geosampa_corredor_onibus","name":"CORREDOR INAJAR - TRECHO ORDEM E PROGRESSO","type":"SPtrans"}},{"type":"Feature","geometry":{"type":"LineString","coordinates":[[-46.650567,-23.52298702],[-46.651384,-23.52170502],[-46.652092,-23.52058902],[-46.652664,-23.51945402],[-46.653007,-23.51891002]]},"properties":{"id":"sp_geosampa_corredor_onibus:corredor_onibus.8","source_id":"sp_geosampa_corredor_onibus","name":"CORREDOR INAJAR / RIO BRANCO / CENTRO - TRECHO RUDGE","type":"SPtrans"}},{"type":"Feature","geometry":{"type":"LineString","coordinates":[[-46.701135,-23.64371502],[-46.701685,-23.64396302],[-46.702415,-23.64442002],[-46.702953,-23.64471902],[-46.70397,-23.64537002],[-46.705296,-23.64622402],[-46.705699,-23.64644302],[-46.706237,-23.64652302],[-46.707032,-23.64642202],[-46.70835,-23.64630302],[-46.708831,-23.64618902],[-46.711288,-23.64563402],[-46.711845,-23.64555502],[-46.712719,-23.64543202],[-46.713245,-23.64532802],[-46.713699,-23.64524702],[-46.714285,-23.64516802],[-46.71512,-23.64508902],[-46.716402,-23.64494402],[-46.717752,-23.64486902],[-46.719029,-23.64487802],[-46.720835,-23.64484302],[-46.72273,-23.64478602],[-46.723485,-23.64479002],[-46.724577,-23.64475102],[-46.725409,-23.64475502],[-46.725935,-23.64467602],[-46.726665,-23.64459602],[-46.727951,-23.64445602],[-46.728797,-23.64439402],[-46.729824,-23.64432402],[-46.730679,-23.64415702],[-46.731457,-23.64396302],[-46.732158,-23.64385702],[-46.733887,-23.64361102],[-46.735001,-23.64351402],[-46.736023,-23.64305002],[-46.736432,-23.64297302],[-46.737527,-23.64275702],[-46.738885,-23.64250702],[-46.73963,-23.64238802],[-46.740081,-23.64237902],[-46.740696,-23.64242802],[-46.741157,-23.64253302],[-46.741608,-23.64269602],[-46.742055,-23.64295602],[-46.742252,-23.64328502],[-46.742449,-23.64367702],[-46.742636,-23.64395002],[-46.742982,-23.64415202],[-46.743337,-23.64418302],[-46.743813,-23.64418702],[-46.744213,-23.64417402],[-46.744792,-23.64435002],[-46.745071,-23.64446002],[-46.745277,-23.64459202],[-46.745565,-23.64485102]]},"properties":{"id":"sp_geosampa_corredor_onibus:corredor_onibus.9","source_id":"sp_geosampa_corredor_onibus","name":"CORREDOR ITAPECERICA / JOÃO DIAS / SANTO AMARO","type":"SPtrans"}},{"type":"Feature","geometry":{"type":"LineString","coordinates":[[-46.745596,-23.64487502],[-46.745701,-23.64496702],[-46.746026,-23.64523002],[-46.746281,-23.64548002],[-46.746463,-23.64567002],[-46.74667,-23.64595102],[-46.74679,-23.64617102],[-46.746933,-23.64652702],[-46.747034,-23.64680402],[-46.747183,-23.64716902],[-46.747298,-23.64737102],[-46.747567,-23.64766602],[-46.747822,-23.64786602],[-46.748206,-23.64800902],[-46.748979,-23.64832602],[-46.749733,-23.64862502],[-46.75018,-23.64890702],[-46.750598,-23.64920202],[-46.75102,-23.64944402],[-46.75151,-23.64954502],[-46.752077,-23.64932902],[-46.752528,-23.64912202],[-46.752994,-23.64898602],[-46.753503,-23.64892502],[-46.754166,-23.64896002],[-46.754713,-23.64912702],[-46.755155,-23.64936002],[-46.75623,-23.65021302],[-46.757048,-23.65087402],[-46.757499,-23.65132402],[-46.757743,-23.65161602],[-46.757957,-23.65185202],[-46.758531,-23.65253102],[-46.759107,-23.65324802],[-46.75948,-23.65361302],[-46.759712,-23.65387302],[-46.759994,-23.65420302],[-46.760182,-23.65445602],[-46.760432,-23.65474402],[-46.760879,-23.65508202],[-46.761906,-23.65568902]]},"properties":{"id":"sp_geosampa_corredor_onibus:corredor_onibus.10","source_id":"sp_geosampa_corredor_onibus","name":"CORREDOR ITAPECERICA / JOÃO DIAS / SANTO AMARO","type":"SPtrans"}},{"type":"Feature","geometry":{"type":"LineString","coordinates":[[-46.698296,-23.51510902],[-46.698598,-23.51495302],[-46.698906,-23.51487502],[-46.699361,-23.51473602],[-46.699792,-23.51468802],[-46.700675,-23.51452902],[-46.701313,-23.51437902],[-46.701839,-23.51423402],[-46.702452,-23.51391502],[-46.703666,-23.51330202],[-46.704768,-23.51272102],[-46.705105,-23.51248702],[-46.705289,-23.51217402],[-46.70536,-23.51179902],[-46.705427,-23.51148102],[-46.705554,-23.50995902],[-46.705682,-23.50882202],[-46.705723,-23.50814802],[-46.705794,-23.50758602],[-46.705846,-23.50690302],[-46.706019,-23.50616302],[-46.706136,-23.50565702],[-46.706157,-23.50514302],[-46.70631,-23.50345302],[-46.706407,-23.50234302],[-46.706519,-23.50138802],[-46.706672,-23.50038202],[-46.706759,-23.49975002],[-46.70681,-23.49903802],[-46.706861,-23.49842002],[-46.706902,-23.49789102],[-46.707035,-23.49748402],[-46.707162,-23.49710902],[-46.707336,-23.49677202],[-46.707668,-23.49624302],[-46.707933,-23.49580302],[-46.708331,-23.49527902],[-46.708612,-23.49484302],[-46.708995,-23.49431902],[-46.709332,-23.49376602],[-46.709704,-23.49300802],[-46.709801,-23.49269002],[-46.709836,-23.49244202],[-46.709928,-23.49195502],[-46.710102,-23.49090202],[-46.710242,-23.48987402],[-46.71027,-23.48946502],[-46.710413,-23.48909002],[-46.710661,-23.48883902],[-46.711072,-23.48875302],[-46.711669,-23.48868702],[-46.712512,-23.48858902],[-46.712797,-23.48856102],[-46.713063,-23.48848602],[-46.713272,-23.48838802],[-46.713492,-23.48816802],[-46.713798,-23.48792902],[-46.714099,-23.48757302],[-46.714453,-23.48735602],[-46.714785,-23.48722202],[-46.715704,-23.48570202],[-46.715807,-23.48544102],[-46.71585,-23.48532202],[-46.715984,-23.48511902],[-46.716035,-23.48455002],[-46.7161,-23.48439302],[-46.716304,-23.48420802],[-46.717094,-23.48357402],[-46.717299,-23.48334602],[-46.717534,-23.48299002],[-46.717486,-23.48264202],[-46.717517,-23.48219102],[-46.717784,-23.48204902],[-46.717993,-23.48208702],[-46.7185,-23.48213502],[-46.719392,-23.48214102],[-46.719652,-23.48214302],[-46.720207,-23.48219602],[-46.72052,-23.48228602],[-46.721029,-23.48262402],[-46.721512,-23.48306402],[-46.721773,-23.48336002],[-46.722133,-23.48351002],[-46.722317,-23.48350502],[-46.722444,-23.48363602],[-46.72248,-23.48401002],[-46.722628,-23.48429102],[-46.722842,-23.48451102],[-46.723312,-23.48479702],[-46.723868,-23.48513402],[-46.72422,-23.48537702],[-46.724807,-23.48575702]]},"properties":{"id":"sp_geosampa_corredor_onibus:corredor_onibus.11","source_id":"sp_geosampa_corredor_onibus","name":"CORREDOR PIRITUBA / LAPA / CENTRO","type":"SPtrans"}},{"type":"Feature","geometry":{"type":"LineString","coordinates":[[-46.698296,-23.51510902],[-46.698223,-23.51539702],[-46.698243,-23.51561802],[-46.698313,-23.51589602],[-46.698512,-23.51636202],[-46.69891,-23.51702602],[-46.69937,-23.51789102],[-46.699934,-23.51874202],[-46.700073,-23.51893202],[-46.700243,-23.51911602],[-46.700606,-23.51955902],[-46.7009,-23.51987802],[-46.701113,-23.52003302],[-46.701369,-23.52021002]]},"properties":{"id":"sp_geosampa_corredor_onibus:corredor_onibus.12","source_id":"sp_geosampa_corredor_onibus","name":"CORREDOR PIRITUBA / LAPA / CENTRO","type":"SPtrans"}},{"type":"Feature","geometry":{"type":"LineString","coordinates":[[-46.691043,-23.51525902],[-46.691663,-23.51528202],[-46.692935,-23.51528202],[-46.69506,-23.51530102],[-46.696497,-23.51530102],[-46.697276,-23.51527102],[-46.697859,-23.51517102],[-46.698296,-23.51510902]]},"properties":{"id":"sp_geosampa_corredor_onibus:corredor_onibus.13","source_id":"sp_geosampa_corredor_onibus","name":"CORREDOR PIRITUBA / LAPA / CENTRO","type":"SPtrans"}},{"type":"Feature","geometry":{"type":"LineString","coordinates":[[-46.681193,-23.52559002],[-46.682478,-23.52554002],[-46.683956,-23.52503502],[-46.685392,-23.52501402],[-46.687239,-23.52500702],[-46.688511,-23.52496202],[-46.689758,-23.52497902],[-46.690844,-23.52497502],[-46.693151,-23.52497102],[-46.694325,-23.52496602],[-46.695528,-23.52495802],[-46.696641,-23.52497002],[-46.697779,-23.52494102],[-46.699237,-23.52491602],[-46.700585,-23.52486202],[-46.702119,-23.52482602],[-46.703056,-23.52481502],[-46.703,-23.52374402],[-46.702965,-23.52268102],[-46.702931,-23.52164102],[-46.702939,-23.52149202],[-46.701658,-23.52039802],[-46.701369,-23.52021002]]},"properties":{"id":"sp_geosampa_corredor_onibus:corredor_onibus.14","source_id":"sp_geosampa_corredor_onibus","name":"CORREDOR PIRITUBA / LAPA / CENTRO","type":"SPtrans"}},{"type":"Feature","geometry":{"type":"LineString","coordinates":[[-46.681193,-23.52559002],[-46.68185,-23.52544302],[-46.682034,-23.52536102],[-46.682587,-23.52501102],[-46.682712,-23.52490902],[-46.683015,-23.52469202],[-46.683565,-23.52435902],[-46.683716,-23.52430102],[-46.684065,-23.52416602],[-46.68452,-23.52402902],[-46.685149,-23.52381802],[-46.685806,-23.52365802],[-46.686901,-23.52319902],[-46.688486,-23.52297402],[-46.689709,-23.52278302],[-46.689983,-23.52273902],[-46.690812,-23.52274202],[-46.693137,-23.52277102],[-46.693741,-23.52278602],[-46.694319,-23.52277902],[-46.694704,-23.52269702],[-46.69548,-23.52255602],[-46.696017,-23.52245102],[-46.69655,-23.52234502],[-46.696771,-23.52230102],[-46.697013,-23.52221502],[-46.697618,-23.52184002],[-46.697896,-23.52166002],[-46.699068,-23.52126002],[-46.700335,-23.52081302],[-46.701045,-23.52060202],[-46.701201,-23.52055002],[-46.701296,-23.52046002],[-46.701369,-23.52021002]]},"properties":{"id":"sp_geosampa_corredor_onibus:corredor_onibus.15","source_id":"sp_geosampa_corredor_onibus","name":"CORREDOR PIRITUBA / LAPA / CENTRO","type":"SPtrans"}},{"type":"Feature","geometry":{"type":"LineString","coordinates":[[-46.644842,-23.53972002],[-46.646082,-23.53909002],[-46.647865,-23.53809002],[-46.648575,-23.53763302],[-46.649008,-23.53742902],[-46.649293,-23.53730002],[-46.650192,-23.53680602],[-46.651562,-23.53603002],[-46.653108,-23.53519002],[-46.653647,-23.53486202],[-46.655208,-23.53397102],[-46.656658,-23.53312602],[-46.657666,-23.53255802],[-46.658657,-23.53204002],[-46.659242,-23.53193402],[-46.659876,-23.53192002],[-46.660939,-23.53199002],[-46.662505,-23.53211402],[-46.663109,-23.53205902],[-46.663492,-23.53197102],[-46.66396,-23.53175002],[-46.666332,-23.53044302],[-46.668775,-23.52911802],[-46.671051,-23.52788502],[-46.672642,-23.52697102],[-46.673654,-23.52644002],[-46.674037,-23.52626002],[-46.674536,-23.52616702],[-46.676147,-23.52612102],[-46.676822,-23.52604702],[-46.677889,-23.52591802],[-46.680161,-23.52563602],[-46.681193,-23.52559002]]},"properties":{"id":"sp_geosampa_corredor_onibus:corredor_onibus.16","source_id":"sp_geosampa_corredor_onibus","name":"CORREDOR PIRITUBA / LAPA / CENTRO","type":"SPtrans"}},{"type":"Feature","geometry":{"type":"LineString","coordinates":[[-46.642659,-23.54792602],[-46.643897,-23.54764702],[-46.645236,-23.54737502],[-46.645801,-23.54727602],[-46.646221,-23.54720302],[-46.646547,-23.54719002],[-46.646706,-23.54720902],[-46.647234,-23.54738202],[-46.64764,-23.54747502],[-46.64785,-23.54756102],[-46.64895,-23.54790002],[-46.650274,-23.54832402],[-46.651498,-23.54871602],[-46.652388,-23.54902102],[-46.653749,-23.54980402],[-46.656999,-23.55161502],[-46.658925,-23.55269702],[-46.659859,-23.55333402],[-46.660735,-23.55394502],[-46.662682,-23.55553402],[-46.663311,-23.55599302],[-46.663798,-23.55629102],[-46.664462,-23.55650202],[-46.665274,-23.55664102],[-46.665694,-23.55684302],[-46.666005,-23.55704202],[-46.666357,-23.55720902],[-46.66696,-23.55761202],[-46.667447,-23.55797202],[-46.668828,-23.55880402],[-46.670337,-23.55961002],[-46.671741,-23.56037302],[-46.672937,-23.56106802],[-46.673526,-23.56154002],[-46.673911,-23.56171602],[-46.674066,-23.56182202],[-46.674974,-23.56242902],[-46.675818,-23.56307302],[-46.676723,-23.56369302],[-46.67729,-23.56397802],[-46.677892,-23.56426402],[-46.678251,-23.56443102],[-46.678752,-23.56468602],[-46.679666,-23.56519402],[-46.683138,-23.56702502],[-46.684614,-23.56779402],[-46.685663,-23.56837702],[-46.686387,-23.56878702],[-46.687437,-23.56935202],[-46.688186,-23.56976202],[-46.689684,-23.57054902],[-46.690338,-23.57087802],[-46.690657,-23.57106202],[-46.690864,-23.57110002],[-46.691174,-23.57112502],[-46.691394,-23.57114602],[-46.691727,-23.57117802],[-46.693495,-23.57128102],[-46.69472,-23.57143602],[-46.695715,-23.57157902],[-46.697441,-23.57178302],[-46.698579,-23.57188902],[-46.699103,-23.57201502],[-46.699328,-23.57205002],[-46.701043,-23.57227302],[-46.701632,-23.57231702],[-46.702221,-23.57234802],[-46.702837,-23.57235402],[-46.703913,-23.57257302],[-46.704269,-23.57262302],[-46.70451,-23.57269402],[-46.704821,-23.57280402],[-46.705608,-23.57320402],[-46.706132,-23.57352702],[-46.706484,-23.57412402],[-46.706837,-23.57483802],[-46.707018,-23.57523002],[-46.707627,-23.57657102],[-46.708084,-23.57762402],[-46.708582,-23.57825902],[-46.709048,-23.57854802],[-46.709785,-23.57898902],[-46.710437,-23.57939002],[-46.710661,-23.57961502],[-46.711142,-23.58042802],[-46.711665,-23.58127002],[-46.711975,-23.58163202],[-46.712295,-23.58192502],[-46.712776,-23.58226802],[-46.713545,-23.58266002],[-46.71425,-23.58297302],[-46.715094,-23.58330602],[-46.716013,-23.58366802],[-46.71675,-23.58396202],[-46.717113,-23.58414802],[-46.717658,-23.58452002],[-46.718203,-23.58472502],[-46.718598,-23.58480402],[-46.719078,-23.58485302],[-46.719431,-23.58491102],[-46.719954,-23.58500902],[-46.720606,-23.58520502],[-46.721674,-23.58557702],[-46.722689,-23.58598802],[-46.723725,-23.58637002],[-46.724323,-23.58657602],[-46.725178,-23.58691802],[-46.725669,-23.58710402],[-46.726107,-23.58735902],[-46.726716,-23.58777002],[-46.727699,-23.58838702],[-46.7285,-23.58888602],[-46.729216,-23.58937602],[-46.729985,-23.59020802],[-46.730417,-23.59072102],[-46.731721,-23.59211102],[-46.731923,-23.59223802],[-46.733494,-23.59291402],[-46.735021,-23.59357002],[-46.736335,-23.59414702],[-46.73766,-23.59473502],[-46.738738,-23.59520502],[-46.739443,-23.59615402],[-46.740821,-23.59819002],[-46.741793,-23.59966802],[-46.742269,-23.60030002],[-46.744021,-23.60229702],[-46.744683,-23.60339302],[-46.745601,-23.60472402],[-46.7462,-23.60523302],[-46.747311,-23.60595802],[-46.748293,-23.60634902],[-46.749425,-23.60670102],[-46.750558,-23.60701402],[-46.751348,-23.60721002],[-46.751532,-23.60752102],[-46.75155,-23.60797002],[-46.751765,-23.60878002],[-46.752278,-23.60969802],[-46.752394,-23.61040202]]},"properties":{"id":"sp_geosampa_corredor_onibus:corredor_onibus.17","source_id":"sp_geosampa_corredor_onibus","name":"CORREDOR CAMPO LIMPO / REBOUÇAS / CENTRO","type":"SPtrans"}},{"type":"Feature","geometry":{"type":"LineString","coordinates":[[-46.705718,-23.65875702],[-46.706088,-23.65877002],[-46.706203,-23.65878202],[-46.706314,-23.65867302],[-46.706432,-23.65851802],[-46.706514,-23.65843402],[-46.706647,-23.65831702],[-46.706947,-23.65758702],[-46.707568,-23.65628702],[-46.707735,-23.65576602],[-46.707853,-23.65539802],[-46.707254,-23.65465802],[-46.706939,-23.65430102],[-46.706862,-23.65420302],[-46.70679,-23.65431102],[-46.706734,-23.65442502],[-46.706802,-23.65497502],[-46.706809,-23.65509002],[-46.706545,-23.65597702],[-46.706348,-23.65672102],[-46.706179,-23.65742602],[-46.705933,-23.65813402],[-46.705846,-23.65838302],[-46.705774,-23.65857202],[-46.705725,-23.65872402],[-46.705599,-23.65887902],[-46.705148,-23.65957802],[-46.705023,-23.65987302],[-46.704879,-23.66028802],[-46.704766,-23.66055502],[-46.704776,-23.66078302],[-46.704822,-23.66093302],[-46.704872,-23.66104502],[-46.704955,-23.66119502],[-46.705056,-23.66127702],[-46.705367,-23.66142702],[-46.705907,-23.66167402],[-46.706087,-23.66184302],[-46.706343,-23.66207302],[-46.706609,-23.66232302],[-46.70694,-23.66267902],[-46.707251,-23.66301302],[-46.707393,-23.66317202],[-46.707741,-23.66350802],[-46.708063,-23.66380502],[-46.708435,-23.66407802],[-46.708826,-23.66436502],[-46.709277,-23.66452602],[-46.709875,-23.66480802],[-46.710732,-23.66523802],[-46.710928,-23.66533802],[-46.711308,-23.66553702],[-46.711697,-23.66573702],[-46.711784,-23.66580602],[-46.711869,-23.66593002],[-46.7119,-23.66602902],[-46.711914,-23.66616302],[-46.711926,-23.66633202],[-46.711933,-23.66669802],[-46.711953,-23.66696802],[-46.712017,-23.66798902],[-46.712046,-23.66862302],[-46.712077,-23.66914702],[-46.71211,-23.66984102],[-46.712181,-23.67106902],[-46.712219,-23.67218402],[-46.712261,-23.67332502],[-46.712299,-23.67436202],[-46.71238,-23.67582402],[-46.712455,-23.67733802],[-46.712479,-23.67855302],[-46.712593,-23.67899102],[-46.712987,-23.67984602],[-46.713105,-23.68018002],[-46.71328,-23.68055302],[-46.713503,-23.68107302],[-46.713726,-23.68162402],[-46.713948,-23.68213702],[-46.714171,-23.68266602],[-46.714375,-23.68317802],[-46.714408,-23.68345102],[-46.714427,-23.68369002],[-46.714484,-23.68464802],[-46.714493,-23.68543802],[-46.714522,-23.68588902],[-46.714579,-23.68666602],[-46.714654,-23.68906102],[-46.714673,-23.68979402],[-46.714697,-23.69033202],[-46.714735,-23.69115202],[-46.714778,-23.69207602],[-46.714806,-23.69269202],[-46.714806,-23.69323002],[-46.714825,-23.69371102],[-46.714858,-23.69438402],[-46.714896,-23.69498202],[-46.714901,-23.69540702],[-46.714929,-23.69581502],[-46.714939,-23.69635802],[-46.714958,-23.69689602],[-46.714991,-23.69759802],[-46.715,-23.69808902],[-46.715024,-23.69840602],[-46.715052,-23.69890902],[-46.715038,-23.69929502],[-46.715052,-23.69972002],[-46.715071,-23.70017602],[-46.715071,-23.70057102],[-46.715081,-23.70085702],[-46.715095,-23.70149102],[-46.715081,-23.70201602],[-46.715,-23.70279602],[-46.71492,-23.70303502],[-46.714595,-23.70390002],[-46.714022,-23.70504502],[-46.713044,-23.70703502],[-46.712422,-23.70832202],[-46.711718,-23.70968902],[-46.71157,-23.71004502],[-46.711376,-23.71044902],[-46.711019,-23.71120802],[-46.710949,-23.71134802],[-46.710891,-23.71143702],[-46.710839,-23.71153102],[-46.710667,-23.71181002],[-46.710614,-23.71189102],[-46.710524,-23.71203802],[-46.710427,-23.71217502],[-46.710285,-23.71231802],[-46.710105,-23.71251302],[-46.709963,-23.71262602],[-46.709764,-23.71279302],[-46.708541,-23.71379002],[-46.708186,-23.71407702],[-46.707975,-23.71426402],[-46.707582,-23.71459102],[-46.707222,-23.71490502],[-46.706928,-23.71513902],[-46.706772,-23.71527802],[-46.706461,-23.71554602],[-46.706239,-23.71573002],[-46.706035,-23.71590402],[-46.705805,-23.71610702],[-46.705352,-23.71648102],[-46.705094,-23.71670202],[-46.704897,-23.71687302],[-46.704722,-23.71701902],[-46.703839,-23.71772302],[-46.703413,-23.71801802],[-46.702797,-23.71803502],[-46.701489,-23.71787902],[-46.699097,-23.71775402],[-46.699158,-23.71785302],[-46.699082,-23.71810002],[-46.698947,-23.71846002],[-46.698761,-23.71887202],[-46.698674,-23.71909802],[-46.698481,-23.71974602],[-46.698083,-23.72073002],[-46.697921,-23.72126302],[-46.697897,-23.72159402],[-46.697892,-23.72201002],[-46.697967,-23.72244902],[-46.698163,-23.72288502],[-46.698286,-23.72305502],[-46.698523,-23.72336302],[-46.698879,-23.72378802],[-46.699305,-23.72437302],[-46.699499,-23.72470702],[-46.699623,-23.72515802],[-46.699585,-23.72559202],[-46.699476,-23.72637302],[-46.699381,-23.72694502],[-46.699188,-23.72776002],[-46.699144,-23.72803002],[-46.699087,-23.72833302],[-46.699021,-23.72862402],[-46.698869,-23.72903202],[-46.698599,-23.72955702],[-46.698201,-23.73036802],[-46.69804,-23.73069802],[-46.697855,-23.73108802],[-46.697741,-23.73143902],[-46.697689,-23.73175202],[-46.697708,-23.73198202],[-46.697794,-23.73224202],[-46.697898,-23.73247602],[-46.69803,-23.73271502],[-46.698144,-23.73298802],[-46.698277,-23.73324402],[-46.698433,-23.73356002],[-46.698632,-23.73385102],[-46.69876,-23.73408102],[-46.698936,-23.73450202],[-46.699139,-23.73535202],[-46.699158,-23.73581602],[-46.699163,-23.73631802],[-46.699258,-23.73677902],[-46.699338,-23.73701702],[-46.69958,-23.73739502],[-46.699826,-23.73773302],[-46.700627,-23.73857002],[-46.70103,-23.73894702],[-46.701601,-23.73937902],[-46.702081,-23.73962002],[-46.702617,-23.73988002],[-46.703361,-23.74022702],[-46.704257,-23.74059102],[-46.705546,-23.74115102],[-46.705801,-23.74134602],[-46.706024,-23.74155902],[-46.706266,-23.74186702],[-46.706399,-23.74210102],[-46.706474,-23.74228702],[-46.706579,-23.74281602],[-46.706688,-23.74339302],[-46.706953,-23.74452902],[-46.707119,-23.74524102],[-46.70723,-23.74580202],[-46.70731,-23.74611302],[-46.707429,-23.74640102],[-46.707732,-23.74693302],[-46.707978,-23.74726802],[-46.70841,-23.74792402],[-46.709011,-23.74878702],[-46.709622,-23.74965702],[-46.709757,-23.74983202],[-46.709977,-23.75015502],[-46.710304,-23.75060802],[-46.710423,-23.75082302],[-46.710501,-23.75103802],[-46.710629,-23.75141702],[-46.710779,-23.75193102],[-46.71084,-23.75216602],[-46.710965,-23.75256002],[-46.711157,-23.75323202],[-46.711278,-23.75354702],[-46.71146,-23.75380602],[-46.712191,-23.75467002],[-46.713014,-23.75563302],[-46.713743,-23.75649602],[-46.714213,-23.75712502],[-46.714729,-23.75796602],[-46.715013,-23.75873802],[-46.715148,-23.75951902],[-46.715187,-23.75979702],[-46.71523,-23.76011302],[-46.715258,-23.76044402],[-46.715438,-23.76199102],[-46.715644,-23.76261402],[-46.71583,-23.76303902],[-46.716016,-23.76345302],[-46.716155,-23.76376102],[-46.716267,-23.76395402],[-46.716371,-23.76422202],[-46.716523,-23.76461302],[-46.716694,-23.76499402],[-46.716826,-23.76535802],[-46.716987,-23.76595702],[-46.717158,-23.76673702],[-46.7173,-23.76744002],[-46.717414,-23.76836702],[-46.717556,-23.76892202],[-46.717831,-23.76970202],[-46.718143,-23.77023102],[-46.718409,-23.77063902],[-46.718645,-23.77096802],[-46.718892,-23.77132402],[-46.719185,-23.77167102],[-46.719564,-23.77210502],[-46.719848,-23.77241702],[-46.720331,-23.77305902],[-46.720945,-23.77384902],[-46.720982,-23.77389502]]},"properties":{"id":"sp_geosampa_corredor_onibus:corredor_onibus.18","source_id":"sp_geosampa_corredor_onibus","name":"CORREDOR PARELHEIROS / RIO BONITO / SANTO AMARO","type":"SPtrans"}},{"type":"Feature","geometry":{"type":"LineString","coordinates":[[-46.720982,-23.77389502],[-46.721081,-23.77400802],[-46.721124,-23.77405402],[-46.72119,-23.77411302],[-46.721419,-23.77431702],[-46.721849,-23.77468902],[-46.722371,-23.77514202],[-46.722639,-23.77531702],[-46.722815,-23.77549702],[-46.722943,-23.77568902],[-46.722999,-23.77583502],[-46.723019,-23.77621102],[-46.723003,-23.77651902],[-46.722977,-23.77696102],[-46.722988,-23.77720402],[-46.723019,-23.77744902],[-46.723081,-23.77762202],[-46.723113,-23.77771202],[-46.723421,-23.77798902],[-46.724141,-23.77840502],[-46.724538,-23.77881002],[-46.724779,-23.77927202],[-46.724796,-23.77952002],[-46.724785,-23.78015202],[-46.72489,-23.78056802],[-46.725175,-23.78082002],[-46.725452,-23.78107902],[-46.725819,-23.78156402],[-46.725934,-23.78170402],[-46.726156,-23.78232502],[-46.72619,-23.78274202],[-46.726196,-23.78306602],[-46.726161,-23.78367102],[-46.72611,-23.78427202],[-46.725944,-23.78486402],[-46.725972,-23.78519402],[-46.725969,-23.78542302],[-46.725983,-23.78553302],[-46.726146,-23.78623202],[-46.726136,-23.78630402],[-46.726764,-23.79030902],[-46.726887,-23.79083802],[-46.727306,-23.79183202],[-46.727612,-23.79224302],[-46.72792,-23.79255502],[-46.728347,-23.79282802],[-46.729949,-23.79368502],[-46.730146,-23.79381202],[-46.730332,-23.79410802],[-46.730381,-23.79442002],[-46.730392,-23.79475602],[-46.730319,-23.79504502],[-46.730219,-23.79521802],[-46.73011,-23.79551702],[-46.730129,-23.79578602],[-46.730294,-23.79608302],[-46.730538,-23.79655802],[-46.730715,-23.79687402],[-46.730844,-23.79745602],[-46.730833,-23.79804002],[-46.730903,-23.79847602],[-46.731067,-23.79881602],[-46.731465,-23.79931202],[-46.731826,-23.79953802],[-46.732479,-23.79974102],[-46.733181,-23.79975802],[-46.733642,-23.79996402],[-46.733863,-23.80026102],[-46.733939,-23.80089402],[-46.733939,-23.80226402],[-46.734375,-23.80315702],[-46.734583,-23.80350302],[-46.734988,-23.80386202],[-46.73525,-23.80409702],[-46.735428,-23.80449002],[-46.735666,-23.80521602],[-46.735889,-23.80562302],[-46.736237,-23.80615202]]},"properties":{"id":"sp_geosampa_corredor_onibus:corredor_onibus.19","source_id":"sp_geosampa_corredor_onibus","name":"CORREDOR PARELHEIROS / RIO BONITO / SANTO AMARO","type":"SPtrans"}},{"type":"Feature","geometry":{"type":"LineString","coordinates":[[-46.700831,-23.69885402],[-46.701297,-23.70065702],[-46.701362,-23.70090702],[-46.701414,-23.70114402],[-46.70148,-23.70139502]]},"properties":{"id":"sp_geosampa_corredor_onibus:corredor_onibus.20","source_id":"sp_geosampa_corredor_onibus","name":"CORREDOR PARELHEIROS / RIO BONITO / SANTO AMARO","type":"SPtrans"}},{"type":"Feature","geometry":{"type":"LineString","coordinates":[[-46.712073,-23.66915202],[-46.711784,-23.66953202],[-46.71141,-23.66998402],[-46.71106,-23.67046202],[-46.710867,-23.67079902],[-46.710561,-23.67129402],[-46.710231,-23.67188302],[-46.709999,-23.67237902],[-46.709941,-23.67250502],[-46.709763,-23.67283302],[-46.709485,-23.67335202],[-46.709223,-23.67381702],[-46.708973,-23.67433002],[-46.708223,-23.67572502],[-46.708115,-23.67591202],[-46.707957,-23.67620302],[-46.707314,-23.67741302],[-46.707165,-23.67768702],[-46.706411,-23.67958702],[-46.70619,-23.67998802],[-46.706076,-23.68021202],[-46.705848,-23.68053702],[-46.705576,-23.68097202],[-46.704318,-23.68247802],[-46.703978,-23.68286702],[-46.703577,-23.68333202],[-46.703414,-23.68353202],[-46.703091,-23.68424802],[-46.702935,-23.68452702],[-46.702784,-23.68492202],[-46.702707,-23.68510302],[-46.70261,-23.68530802],[-46.702441,-23.68574202],[-46.702329,-23.68612202],[-46.701997,-23.68720802],[-46.702004,-23.68743802],[-46.701751,-23.68856902],[-46.701636,-23.68890902],[-46.701575,-23.68958802],[-46.701561,-23.68985002],[-46.701594,-23.69097302],[-46.701619,-23.69142602],[-46.701621,-23.69179702],[-46.701624,-23.69189502],[-46.701595,-23.69222302],[-46.70162,-23.69262002],[-46.701606,-23.69272302],[-46.701537,-23.69378302],[-46.701505,-23.69423302],[-46.701516,-23.69431402],[-46.701463,-23.69530902],[-46.701471,-23.69549002],[-46.701483,-23.69649102],[-46.701456,-23.69723602],[-46.70143,-23.69744402],[-46.701368,-23.69772802],[-46.701214,-23.69811602],[-46.700815,-23.69877902],[-46.700746,-23.69885602],[-46.701388,-23.70142502],[-46.701416,-23.70155902],[-46.70095,-23.70377702],[-46.700706,-23.70495102],[-46.700379,-23.70649002],[-46.700373,-23.70658002],[-46.700137,-23.70758102],[-46.699708,-23.70917002],[-46.699623,-23.70950802],[-46.699441,-23.71027102],[-46.698834,-23.71202602],[-46.698611,-23.71254602],[-46.698494,-23.71296802],[-46.698462,-23.71345102],[-46.698496,-23.71388502],[-46.69861,-23.71429502],[-46.698776,-23.71484102],[-46.69889,-23.71531302],[-46.698973,-23.71563502],[-46.699012,-23.71587902],[-46.699035,-23.71599302],[-46.699098,-23.71637902],[-46.699131,-23.71653702],[-46.699142,-23.71672602],[-46.699149,-23.71701502],[-46.699097,-23.71775402]]},"properties":{"id":"sp_geosampa_corredor_onibus:corredor_onibus.21","source_id":"sp_geosampa_corredor_onibus","name":"CORREDOR PARELHEIROS / RIO BONITO / SANTO AMARO","type":"SPtrans"}},{"type":"Feature","geometry":{"type":"LineString","coordinates":[[-46.6367,-23.59720802],[-46.637563,-23.59720502],[-46.637773,-23.59721102],[-46.638326,-23.59720702],[-46.639088,-23.59726102],[-46.640328,-23.59727302],[-46.641201,-23.59721902],[-46.642558,-23.59711002],[-46.643867,-23.59700602],[-46.645203,-23.59688302],[-46.646521,-23.59678402],[-46.647858,-23.59666202],[-46.649138,-23.59655702],[-46.650429,-23.59645302],[-46.65254,-23.59624502],[-46.654762,-23.59590902],[-46.654863,-23.59583902],[-46.65601,-23.59703802],[-46.658867,-23.60005902],[-46.661137,-23.60247602],[-46.661906,-23.60329302],[-46.662646,-23.60408802],[-46.663051,-23.60452402],[-46.663823,-23.60535602],[-46.664863,-23.60646202],[-46.665634,-23.60726502],[-46.666229,-23.60790702],[-46.666659,-23.60837402],[-46.667169,-23.60887702],[-46.668666,-23.61045502],[-46.669407,-23.61124202],[-46.67016,-23.61210702],[-46.670405,-23.61237902],[-46.671035,-23.61308702],[-46.672181,-23.61424202],[-46.672885,-23.61500002],[-46.674811,-23.61704502],[-46.67631,-23.61858902],[-46.677063,-23.61938602],[-46.67779,-23.62020702],[-46.678541,-23.62096902],[-46.679206,-23.62165202],[-46.67972,-23.62221402],[-46.680332,-23.62290202],[-46.681273,-23.62392502],[-46.68238,-23.62502002],[-46.683392,-23.62610002],[-46.684184,-23.62702002],[-46.684349,-23.62714802],[-46.685282,-23.62804102],[-46.686317,-23.62919802],[-46.68672,-23.62966602],[-46.687665,-23.63068702],[-46.68813,-23.63118502],[-46.688867,-23.63194602],[-46.689634,-23.63275102],[-46.690603,-23.63371002],[-46.690826,-23.63397202],[-46.691165,-23.63449002],[-46.69202,-23.63532502],[-46.693311,-23.63648902],[-46.694463,-23.63781302],[-46.695489,-23.63884902],[-46.696945,-23.64040502],[-46.698238,-23.64162002]]},"properties":{"id":"sp_geosampa_corredor_onibus:corredor_onibus.22","source_id":"sp_geosampa_corredor_onibus","name":"CORREDOR JOSE DINIZ / IBIRAPUERA / SANTA CRUZ","type":"SPtrans"}},{"type":"Feature","geometry":{"type":"LineString","coordinates":[[-46.636743,-23.59852402],[-46.637259,-23.59851802],[-46.637599,-23.59851002],[-46.638345,-23.59851102],[-46.639096,-23.59848702],[-46.639817,-23.59850302],[-46.640826,-23.59850802],[-46.641332,-23.59849102],[-46.64271,-23.59839002],[-46.644002,-23.59827602],[-46.644587,-23.59822802],[-46.645337,-23.59816002],[-46.645842,-23.59812102],[-46.646655,-23.59806202],[-46.647998,-23.59794402],[-46.648694,-23.59790102],[-46.649278,-23.59785102],[-46.65054,-23.59775902],[-46.651115,-23.59770302],[-46.65552,-23.59730102],[-46.65601,-23.59703802]]},"properties":{"id":"sp_geosampa_corredor_onibus:corredor_onibus.23","source_id":"sp_geosampa_corredor_onibus","name":"CORREDOR JOSE DINIZ / IBIRAPUERA / SANTA CRUZ","type":"SPtrans"}},{"type":"Feature","geometry":{"type":"LineString","coordinates":[[-46.711705,-23.66574102],[-46.713099,-23.66586202],[-46.714374,-23.66597302],[-46.715366,-23.66606402],[-46.715917,-23.66610602],[-46.717198,-23.66623302],[-46.718324,-23.66634602],[-46.721353,-23.66664402],[-46.72257,-23.66677002],[-46.723804,-23.66692802],[-46.72455,-23.66701102],[-46.725012,-23.66706302],[-46.727083,-23.66720102],[-46.728386,-23.66732802],[-46.729443,-23.66748702],[-46.729796,-23.66755202],[-46.730457,-23.66767102],[-46.730983,-23.66772802],[-46.731717,-23.66775002],[-46.732127,-23.66790402],[-46.73273,-23.66823202],[-46.733214,-23.66852802],[-46.733598,-23.66873802],[-46.734569,-23.66905002],[-46.734866,-23.66916002],[-46.735323,-23.66929502],[-46.73607,-23.66953602],[-46.736657,-23.66972202],[-46.73736,-23.66994302],[-46.739038,-23.67046902],[-46.73985,-23.67086402],[-46.74055,-23.67132502],[-46.741075,-23.67162602],[-46.74158,-23.67187102],[-46.742097,-23.67210002],[-46.742637,-23.67234502],[-46.743006,-23.67249502],[-46.743213,-23.67256602],[-46.743708,-23.67277002],[-46.744484,-23.67304502],[-46.744984,-23.67321902],[-46.745946,-23.67364502],[-46.746602,-23.67397302],[-46.747646,-23.67458602],[-46.748307,-23.67494802],[-46.748917,-23.67540402],[-46.749005,-23.67550002],[-46.749234,-23.67579902],[-46.749588,-23.67604702],[-46.750035,-23.67609502],[-46.750446,-23.67601602],[-46.751724,-23.67586602],[-46.752058,-23.67586402],[-46.752298,-23.67583702],[-46.752568,-23.67583802],[-46.753156,-23.67585402],[-46.75382,-23.67578302],[-46.754426,-23.67569702],[-46.75486,-23.67556502],[-46.755715,-23.67543602],[-46.755981,-23.67536802],[-46.756266,-23.67537302],[-46.756525,-23.67547002],[-46.756908,-23.67573302],[-46.757259,-23.67609502],[-46.757707,-23.67654202],[-46.758013,-23.67690002],[-46.758195,-23.67702302],[-46.758484,-23.67714602],[-46.75895,-23.67721302],[-46.759346,-23.67727002],[-46.759657,-23.67725602],[-46.760677,-23.67729002],[-46.761237,-23.67737502],[-46.761673,-23.67753302],[-46.761941,-23.67767602],[-46.762479,-23.67809002],[-46.762719,-23.67827002],[-46.762876,-23.67843802],[-46.76326,-23.67877402],[-46.763705,-23.67917302],[-46.764145,-23.67956802],[-46.764756,-23.68007202],[-46.764999,-23.68027502],[-46.765199,-23.68045602],[-46.765598,-23.68080602],[-46.765965,-23.68104502],[-46.766474,-23.68150802],[-46.766798,-23.68175702],[-46.767052,-23.68198202],[-46.767497,-23.68238102],[-46.767872,-23.68263802],[-46.768148,-23.68283102],[-46.768649,-23.68308002],[-46.76924,-23.68339202],[-46.769521,-23.68361202],[-46.769671,-23.68375202]]},"properties":{"id":"sp_geosampa_corredor_onibus:corredor_onibus.24","source_id":"sp_geosampa_corredor_onibus","name":"CORREDOR JARDIM ÂNGELA / GUARAPIRANGA / SANTO AMARO","type":"SPtrans"}},{"type":"Feature","geometry":{"type":"LineString","coordinates":[[-46.769671,-23.68375202],[-46.770012,-23.68415102],[-46.770125,-23.68509502],[-46.770159,-23.68545502],[-46.770332,-23.68598402],[-46.77077,-23.68645302],[-46.771326,-23.68714402],[-46.771611,-23.68742102],[-46.771947,-23.68780002],[-46.772724,-23.68870102],[-46.773708,-23.68983902]]},"properties":{"id":"sp_geosampa_corredor_onibus:corredor_onibus.25","source_id":"sp_geosampa_corredor_onibus","name":"CORREDOR JARDIM ÂNGELA / GUARAPIRANGA / SANTO AMARO","type":"SPtrans"}},{"type":"Feature","geometry":{"type":"LineString","coordinates":[[-46.598374,-23.58637202],[-46.5988,-23.58589002],[-46.599153,-23.58548502],[-46.599413,-23.58510502],[-46.599618,-23.58447202],[-46.599662,-23.58404102],[-46.599685,-23.58212102],[-46.599691,-23.58104702],[-46.599743,-23.57946602],[-46.600069,-23.57866002],[-46.600583,-23.57763202],[-46.60113,-23.57686702],[-46.601666,-23.57617402],[-46.602304,-23.57531602],[-46.602718,-23.57493902],[-46.603138,-23.57447302],[-46.603653,-23.57392902],[-46.603976,-23.57343902],[-46.604162,-23.57249702],[-46.604421,-23.57116902],[-46.604542,-23.57098702],[-46.604974,-23.57061202],[-46.607698,-23.56894902],[-46.608992,-23.56817402],[-46.609114,-23.56797102],[-46.609429,-23.56733702],[-46.611045,-23.56454202],[-46.611599,-23.56343502],[-46.612996,-23.56084502],[-46.613517,-23.56002702],[-46.614005,-23.55951802],[-46.614705,-23.55896502],[-46.615794,-23.55842502],[-46.618257,-23.55763202],[-46.622135,-23.55632702],[-46.623263,-23.55575302],[-46.62381,-23.55533702],[-46.624497,-23.55472102],[-46.625612,-23.55364902],[-46.625976,-23.55280702],[-46.626382,-23.55187802],[-46.627071,-23.55029002],[-46.627337,-23.54963702],[-46.628254,-23.54814202],[-46.628962,-23.54698802]]},"properties":{"id":"sp_geosampa_corredor_onibus:corredor_onibus.26","source_id":"sp_geosampa_corredor_onibus","name":"CORREDOR EXPRESSO TIRADENTES","type":"SPtrans"}},{"type":"Feature","geometry":{"type":"LineString","coordinates":[[-46.602262,-23.60329802],[-46.601823,-23.60335802],[-46.601236,-23.60333302],[-46.600861,-23.60328102],[-46.600601,-23.60319602],[-46.600312,-23.60302902],[-46.59997,-23.60275702],[-46.599622,-23.60241102],[-46.599293,-23.60205202],[-46.598403,-23.60088602],[-46.598036,-23.60030602],[-46.597384,-23.59895902],[-46.59721,-23.59821202],[-46.59721,-23.59795902],[-46.597317,-23.59645302],[-46.597384,-23.59573702],[-46.597532,-23.59422502],[-46.597605,-23.59345302],[-46.597816,-23.59142102],[-46.597852,-23.59108002],[-46.597921,-23.59034902],[-46.59803,-23.58920502],[-46.598139,-23.58837202],[-46.598242,-23.58678702],[-46.598374,-23.58637202]]},"properties":{"id":"sp_geosampa_corredor_onibus:corredor_onibus.27","source_id":"sp_geosampa_corredor_onibus","name":"CORREDOR EXPRESSO TIRADENTES","type":"SPtrans"}},{"type":"Feature","geometry":{"type":"LineString","coordinates":[[-46.583878,-23.58468402],[-46.584163,-23.58454002],[-46.584517,-23.58439302],[-46.584867,-23.58428302],[-46.585221,-23.58420302],[-46.585547,-23.58417402],[-46.585883,-23.58420302],[-46.586228,-23.58424102],[-46.586453,-23.58433002],[-46.586642,-23.58446402],[-46.586931,-23.58469202],[-46.587258,-23.58497402],[-46.587561,-23.58518502],[-46.587989,-23.58552402],[-46.588769,-23.58602502],[-46.589654,-23.58651902],[-46.590435,-23.58690602],[-46.591117,-23.58726802],[-46.591898,-23.58758102],[-46.592561,-23.58778302],[-46.593683,-23.58809602],[-46.594289,-23.58822102],[-46.594866,-23.58817202],[-46.595886,-23.58795502],[-46.59681,-23.58765102],[-46.597674,-23.58707402],[-46.598119,-23.58674102],[-46.598374,-23.58637202]]},"properties":{"id":"sp_geosampa_corredor_onibus:corredor_onibus.28","source_id":"sp_geosampa_corredor_onibus","name":"CORREDOR EXPRESSO TIRADENTES","type":"SPtrans"}},{"type":"Feature","geometry":{"type":"LineString","coordinates":[[-46.748956,-23.67539902],[-46.749149,-23.67498602],[-46.749129,-23.67474802],[-46.748909,-23.67404602],[-46.748516,-23.67382602],[-46.747289,-23.67342302],[-46.746027,-23.67297902],[-46.745532,-23.67294602],[-46.745031,-23.67293202],[-46.744648,-23.67289502],[-46.743626,-23.67231502],[-46.742246,-23.67156602],[-46.741776,-23.67116302],[-46.74129,-23.67075102],[-46.740688,-23.67026402],[-46.740335,-23.66971702],[-46.739835,-23.66914102],[-46.739416,-23.66853802],[-46.739033,-23.66834602],[-46.738398,-23.66821502],[-46.737392,-23.66796702],[-46.736814,-23.66783602],[-46.736084,-23.66762502],[-46.73567,-23.66731202],[-46.735384,-23.66710602],[-46.735103,-23.66701202],[-46.734771,-23.66702602],[-46.734408,-23.66700802],[-46.734056,-23.66683002],[-46.733494,-23.66644602],[-46.733105,-23.66622602],[-46.732553,-23.66588902],[-46.732042,-23.66554302],[-46.731327,-23.66496302],[-46.730571,-23.66437302],[-46.730029,-23.66402702],[-46.729274,-23.66373402],[-46.728546,-23.66350502],[-46.727761,-23.66332802],[-46.727022,-23.66321402],[-46.726317,-23.66317202]]},"properties":{"id":"sp_geosampa_corredor_onibus:corredor_onibus.29","source_id":"sp_geosampa_corredor_onibus","name":"CORREDOR PONTE BAIXA","type":"SPtrans"}},{"type":"Feature","geometry":{"type":"LineString","coordinates":[[-46.69025,-23.59477802],[-46.690478,-23.59527102],[-46.690667,-23.59569502],[-46.690857,-23.59618202],[-46.691047,-23.59664702],[-46.69118,-23.59708302],[-46.691214,-23.59753002],[-46.691165,-23.59790702],[-46.691047,-23.59827302],[-46.690903,-23.59856502],[-46.690769,-23.59894702],[-46.690751,-23.59914902],[-46.690736,-23.59937102],[-46.690796,-23.59958002],[-46.691334,-23.60115502],[-46.692077,-23.60326602],[-46.692578,-23.60453202],[-46.693346,-23.60670002],[-46.693898,-23.60820202],[-46.694846,-23.61089202],[-46.69536,-23.61222502],[-46.695838,-23.61356202],[-46.696394,-23.61508602],[-46.697267,-23.61743102],[-46.697751,-23.61875902],[-46.698145,-23.61984302],[-46.698464,-23.62080202],[-46.698782,-23.62153902],[-46.69948,-23.62291502],[-46.699727,-23.62342902],[-46.699906,-23.62379802],[-46.700063,-23.62414602],[-46.700367,-23.62460702],[-46.700706,-23.62488502],[-46.701227,-23.62531802],[-46.701639,-23.62567302],[-46.702003,-23.62590602],[-46.702548,-23.62637202],[-46.702984,-23.62676102],[-46.703215,-23.62683902],[-46.703481,-23.62686102],[-46.703699,-23.62685002],[-46.704124,-23.62676102],[-46.704693,-23.62662802],[-46.705117,-23.62652802],[-46.70559,-23.62641702],[-46.705844,-23.62636102],[-46.706026,-23.62636102],[-46.706244,-23.62641702],[-46.706511,-23.62651702],[-46.706693,-23.62661602],[-46.706911,-23.62678302],[-46.707747,-23.62803702],[-46.710001,-23.63127902],[-46.711503,-23.63343302],[-46.711746,-23.63370002],[-46.711988,-23.63391102],[-46.713975,-23.63509802],[-46.714181,-23.63530902],[-46.714412,-23.63565402],[-46.71463,-23.63606402],[-46.715078,-23.63678602],[-46.715223,-23.63708602],[-46.715308,-23.63770702],[-46.715405,-23.63841702],[-46.715635,-23.63998302],[-46.715829,-23.64158102],[-46.716023,-23.64323502],[-46.716241,-23.64491202]]},"properties":{"id":"sp_geosampa_corredor_onibus:corredor_onibus.30","source_id":"sp_geosampa_corredor_onibus","name":"CORREDOR BERRINI","type":"SPtrans"}},{"type":"Feature","geometry":{"type":"LineString","coordinates":[[-46.688757,-23.59091202],[-46.688889,-23.59128902],[-46.689078,-23.59185502],[-46.689169,-23.59215702],[-46.689185,-23.59247402],[-46.689177,-23.59285202],[-46.689185,-23.59316102],[-46.689301,-23.59345602],[-46.689589,-23.59387902],[-46.689696,-23.59404502],[-46.69025,-23.59477802]]},"properties":{"id":"sp_geosampa_corredor_onibus:corredor_onibus.31","source_id":"sp_geosampa_corredor_onibus","name":"CORREDOR BERRINI","type":"SPtrans"}},{"type":"Feature","geometry":{"type":"LineString","coordinates":[[-46.463516,-23.55112202],[-46.465244,-23.55291902],[-46.466263,-23.55386402],[-46.468484,-23.55572702],[-46.469862,-23.55635802],[-46.471655,-23.55696202],[-46.472251,-23.55709902],[-46.472815,-23.55707602],[-46.473515,-23.55701402],[-46.474653,-23.55696302],[-46.476544,-23.55679602],[-46.477266,-23.55655102],[-46.478347,-23.55601602],[-46.478782,-23.55563002],[-46.479422,-23.55495602],[-46.480092,-23.55471102],[-46.480757,-23.55462802],[-46.481466,-23.55455702],[-46.481845,-23.55451902],[-46.482354,-23.55450602],[-46.482852,-23.55453102],[-46.48356,-23.55468302],[-46.483929,-23.55477902],[-46.484297,-23.55481402],[-46.484911,-23.55473402],[-46.485865,-23.55439302],[-46.486419,-23.55423602],[-46.487058,-23.55412902],[-46.488026,-23.55402602],[-46.490194,-23.55380402],[-46.490947,-23.55370802],[-46.491663,-23.55363102],[-46.492133,-23.55351802],[-46.492908,-23.55326102],[-46.493641,-23.55284902],[-46.495581,-23.55161102],[-46.496262,-23.55116402],[-46.496784,-23.55079802],[-46.497268,-23.55048002],[-46.497672,-23.55028702],[-46.498318,-23.55007802],[-46.499111,-23.54986502],[-46.500215,-23.54991702],[-46.500654,-23.54990102],[-46.501429,-23.54973302],[-46.502538,-23.54938002],[-46.50324,-23.54920302],[-46.505075,-23.54886502],[-46.505608,-23.54883902],[-46.506148,-23.54889702],[-46.506586,-23.54905802],[-46.507148,-23.54935702],[-46.507779,-23.54985602],[-46.508133,-23.55010602],[-46.508361,-23.55020002],[-46.508635,-23.55025802],[-46.509091,-23.55027702],[-46.509621,-23.55027402],[-46.510319,-23.55029002],[-46.510887,-23.55034402],[-46.511242,-23.55047602],[-46.511663,-23.55080702],[-46.512554,-23.55163702],[-46.513069,-23.55210702],[-46.513409,-23.55269202],[-46.513778,-23.55358902],[-46.514062,-23.55387802],[-46.514539,-23.55414502],[-46.515939,-23.55471802],[-46.516929,-23.55504302]]},"properties":{"id":"sp_geosampa_corredor_onibus:corredor_onibus.32","source_id":"sp_geosampa_corredor_onibus","name":"CORREDOR ITAQUERA / LÍDER","type":"SPtrans"}},{"type":"Feature","geometry":{"type":"LineString","coordinates":[[-46.736237,-23.80615202],[-46.736391,-23.80654402],[-46.736505,-23.80688202],[-46.736652,-23.80724602],[-46.736784,-23.80768002],[-46.736813,-23.80789702],[-46.736837,-23.80830802],[-46.73687,-23.80858602],[-46.737002,-23.80887202],[-46.737183,-23.80919302],[-46.737258,-23.80949602],[-46.737206,-23.80976902],[-46.737007,-23.81058902],[-46.736699,-23.81102702],[-46.736415,-23.81134702],[-46.736254,-23.81151602],[-46.736116,-23.81173702],[-46.735984,-23.81198402],[-46.735661,-23.81304202],[-46.735439,-23.81378702],[-46.735282,-23.81438202],[-46.735166,-23.81569002],[-46.734788,-23.81674502],[-46.734279,-23.81786902],[-46.734113,-23.81843702],[-46.734125,-23.81869002],[-46.734357,-23.81888702],[-46.734833,-23.81915202],[-46.735158,-23.81961802],[-46.735875,-23.82047402],[-46.736259,-23.82095102],[-46.736401,-23.82123702],[-46.736349,-23.82150602],[-46.736204,-23.82168702],[-46.735823,-23.82227802],[-46.73509,-23.82327002],[-46.73507,-23.82332002],[-46.734996,-23.82354702],[-46.734887,-23.82401302],[-46.734821,-23.82430802],[-46.734752,-23.82445802],[-46.734669,-23.82452902],[-46.734225,-23.82484102],[-46.733868,-23.82513602],[-46.733579,-23.82538502],[-46.733434,-23.82550702],[-46.73201,-23.82675502],[-46.731834,-23.82695902],[-46.731512,-23.82742302],[-46.731218,-23.82784102],[-46.731029,-23.82810502]]},"properties":{"id":"sp_geosampa_corredor_onibus:corredor_onibus.33","source_id":"sp_geosampa_corredor_onibus","name":"CORREDOR PARELHEIROS / RIO BONITO / SANTO AMARO","type":"SPtrans"}},{"type":"Feature","geometry":{"type":"LineString","coordinates":[[-46.64056768,-23.64663569],[-46.640131,-23.64730764],[-46.64005738,-23.64767375],[-46.64008192,-23.64794993],[-46.64018008,-23.64829677],[-46.64040446,-23.64868214],[-46.64055521,-23.64911568],[-46.64063584,-23.64968089],[-46.64056923,-23.65031033],[-46.6400662,-23.65093117],[-46.639145,-23.65132821],[-46.63764196,-23.65195833],[-46.63722398,-23.6525191],[-46.63698627,-23.65394236],[-46.63698627,-23.65426408],[-46.63690213,-23.6547195],[-46.63596959,-23.65800781],[-46.63594855,-23.65827113],[-46.63606775,-23.65863078],[-46.63641834,-23.65920879],[-46.63657259,-23.65957487],[-46.637414,-23.6612575],[-46.63757527,-23.66173275],[-46.63774366,-23.66221244],[-46.63783285,-23.66310628],[-46.6378908,-23.66389059],[-46.63798896,-23.66434014],[-46.63805909,-23.66577868],[-46.63797495,-23.66609978],[-46.63772954,-23.66635024],[-46.63739298,-23.66659428],[-46.63697228,-23.66679336],[-46.63650249,-23.66726858],[-46.63597662,-23.66857866],[-46.63578731,-23.6688548],[-46.63541569,-23.66911809],[-46.63524741,-23.66908599],[-46.63490383,-23.6691181],[-46.6338098,-23.66901919],[-46.6333282,-23.66913771],[-46.63282345,-23.66970228],[-46.6324217,-23.67089694],[-46.63195555,-23.67175665],[-46.63155226,-23.67251522],[-46.63136995,-23.67277851],[-46.63115259,-23.67322803],[-46.63092121,-23.67400504],[-46.630795,-23.67435181],[-46.63050752,-23.67490407],[-46.63022705,-23.67518662],[-46.62968014,-23.67557833],[-46.62903507,-23.67598289],[-46.62836195,-23.6764324],[-46.62812039,-23.67655854],[-46.62787912,-23.67668891],[-46.62750601,-23.6773799],[-46.62671876,-23.68048709],[-46.62619174,-23.68338462],[-46.62599677,-23.6851251],[-46.62581915,-23.68557692],[-46.62541405,-23.68604135],[-46.6248125,-23.68633399],[-46.62043931,-23.68648209],[-46.61945018,-23.68644753],[-46.61767744,-23.68575617],[-46.61563835,-23.68582475],[-46.61331505,-23.685939],[-46.61186193,-23.68572081],[-46.61070062,-23.68496757],[-46.60958637,-23.68474198],[-46.60761034,-23.68387621],[-46.60696923,-23.68354582],[-46.60630198,-23.6833025],[-46.60537591,-23.68293819],[-46.60397296,-23.6823785],[-46.60271727,-23.68166748],[-46.60170783,-23.68114115],[-46.60081976,-23.68056362],[-46.59982343,-23.67999969],[-46.59894923,-23.67944698],[-46.59824252,-23.67929199],[-46.59740379,-23.67942548],[-46.59641961,-23.67986006],[-46.59578992,-23.68046574],[-46.59531673,-23.68168149],[-46.59429938,-23.68385156],[-46.59330517,-23.68569682],[-46.59259912,-23.68671522],[-46.59163675,-23.68783612],[-46.59086114,-23.68893666],[-46.59058387,-23.68931996],[-46.59043241,-23.69024527],[-46.58997869,-23.69083665],[-46.58897995,-23.69119643],[-46.58783105,-23.69147037],[-46.58651497,-23.69137151],[-46.58548398,-23.69130717],[-46.5845078,-23.6912922],[-46.58347033,-23.69181463],[-46.58249611,-23.69196191],[-46.58177164,-23.69181573],[-46.5804394,-23.69114654],[-46.57975811,-23.6908539],[-46.57911898,-23.69068566],[-46.5772323,-23.69048019],[-46.57395552,-23.6896522],[-46.57178438,-23.68946204],[-46.56841398,-23.68987072],[-46.56588136,-23.69005864],[-46.56382805,-23.68951765],[-46.56133846,-23.68990479],[-46.55938574,-23.69026015],[-46.55417622,-23.6932787],[-46.55338002,-23.69429785],[-46.55293005,-23.69558034]]},"properties":{"id":"sp_geosampa_corredor_onibus:corredor_onibus.34","source_id":"sp_geosampa_corredor_onibus","name":"EMTU ABD","type":"EMTU"}},{"type":"Feature","geometry":{"type":"LineString","coordinates":[[-46.47558886,-23.61246321],[-46.47564496,-23.61318277],[-46.47633678,-23.61536712],[-46.47680423,-23.6170803],[-46.47810374,-23.61892195],[-46.47830941,-23.61940163],[-46.47838421,-23.62097772],[-46.47864598,-23.62173149],[-46.47900124,-23.62229682],[-46.47959957,-23.62281075],[-46.4802166,-23.62330754],[-46.48096451,-23.62380434],[-46.48188071,-23.62414695],[-46.48274081,-23.62438678],[-46.48339523,-23.62457522],[-46.48441319,-23.62466868],[-46.48638665,-23.62476979],[-46.48785701,-23.62480713],[-46.48938774,-23.62554893],[-46.49178344,-23.62604724],[-46.49372985,-23.62623397],[-46.49575307,-23.6261267],[-46.49703829,-23.62604847],[-46.49803474,-23.62570969],[-46.49902103,-23.62552462],[-46.49967731,-23.62564032],[-46.50127935,-23.62598015],[-46.50257921,-23.62644243],[-46.50387458,-23.62716732],[-46.50459239,-23.62739479],[-46.50569738,-23.62723741],[-46.50708989,-23.62716903],[-46.50774571,-23.62753349],[-46.50806153,-23.62778499],[-46.50882271,-23.62770079],[-46.5092629,-23.62766359],[-46.50959781,-23.62779199],[-46.50993863,-23.62843602],[-46.51011314,-23.62911458],[-46.50981046,-23.62972098],[-46.50985084,-23.63012655],[-46.51024907,-23.63058349],[-46.51057422,-23.63089851],[-46.51091443,-23.63148768],[-46.51107703,-23.63216636],[-46.51149524,-23.63332531],[-46.51208351,-23.6337365],[-46.51272092,-23.63427888],[-46.51317821,-23.63469136],[-46.51368224,-23.63502657],[-46.51434058,-23.63531638],[-46.51610468,-23.63648411],[-46.5176057,-23.63755565],[-46.5187571,-23.63825755],[-46.51915399,-23.63859379],[-46.51985403,-23.63939885],[-46.52086712,-23.64090957],[-46.52145294,-23.64101294],[-46.52181638,-23.64122287],[-46.52425994,-23.64654217],[-46.52522223,-23.64838694],[-46.52561624,-23.64847084],[-46.52597484,-23.64960838],[-46.5268719,-23.65096006],[-46.52765305,-23.65133925],[-46.52946036,-23.65231699],[-46.5296902,-23.65262193],[-46.52932637,-23.65308634],[-46.52890184,-23.6534526],[-46.5289528,-23.65373736],[-46.52998288,-23.6542319],[-46.53097788,-23.65478164],[-46.5314746,-23.65550087],[-46.53158562,-23.65582893],[-46.53124484,-23.65622728],[-46.53132384,-23.65687384],[-46.5306105,-23.65801099],[-46.52978251,-23.65953327],[-46.52958464,-23.65993021],[-46.52992689,-23.66170427],[-46.53020759,-23.662283],[-46.53132288,-23.66395067],[-46.53149499,-23.66440978],[-46.53152712,-23.66512263],[-46.53195074,-23.66672033],[-46.5320432,-23.66749841],[-46.53244392,-23.66815276],[-46.53324014,-23.66901165],[-46.53446542,-23.66988823],[-46.53532173,-23.67079041],[-46.53595046,-23.67158511],[-46.53629179,-23.67225101],[-46.53646637,-23.67291856],[-46.53651019,-23.67360934],[-46.53623945,-23.6749067],[-46.53617743,-23.67571511],[-46.53614762,-23.67634971],[-46.53662193,-23.67711646],[-46.53735762,-23.67794918],[-46.53818678,-23.67881526],[-46.53871514,-23.67942718],[-46.53942037,-23.68001842],[-46.54057221,-23.68064304],[-46.54169759,-23.681369],[-46.54299191,-23.68221328],[-46.54384796,-23.68269133],[-46.5449917,-23.68289621],[-46.54637932,-23.68375667],[-46.54684056,-23.68419562],[-46.5472761,-23.68492155],[-46.54746742,-23.68562885],[-46.54739083,-23.68689356],[-46.54756069,-23.68772044],[-46.5477652,-23.68889808],[-46.54792513,-23.68952845],[-46.54819593,-23.69115482],[-46.5484452,-23.69224775],[-46.5488211,-23.69308661],[-46.54957184,-23.69402705],[-46.55015278,-23.69414763],[-46.5514088,-23.69396652],[-46.55198725,-23.69387646],[-46.5523315,-23.69397132],[-46.55273245,-23.69434648],[-46.55286995,-23.69501218],[-46.55293005,-23.69558034],[-46.55239562,-23.6975386],[-46.5521383,-23.69784797],[-46.55179481,-23.69791278],[-46.55126441,-23.69813796],[-46.55243148,-23.70057036],[-46.5528134,-23.70147521],[-46.55288561,-23.70184899],[-46.55297572,-23.70216861],[-46.55235215,-23.70373932],[-46.5521285,-23.7043158],[-46.55221928,-23.70511382],[-46.55271984,-23.70616988],[-46.55285026,-23.70688013],[-46.55268984,-23.70821745],[-46.55240078,-23.70899432],[-46.55236428,-23.71049268],[-46.55228416,-23.71174182],[-46.55185497,-23.71328157],[-46.55183291,-23.71485469],[-46.55185236,-23.71627759],[-46.55112703,-23.71821979],[-46.55086962,-23.71938332],[-46.55078668,-23.7203953]]},"properties":{"id":"sp_geosampa_corredor_onibus:corredor_onibus.35","source_id":"sp_geosampa_corredor_onibus","name":"EMTU ABD","type":"EMTU"}},{"type":"Feature","geometry":{"type":"LineString","coordinates":[[-46.69280676,-23.60496161],[-46.69639726,-23.61464418],[-46.69837787,-23.62054594],[-46.69717489,-23.62251197],[-46.69565194,-23.62394889],[-46.69479099,-23.62442433],[-46.69201897,-23.62575325],[-46.68830592,-23.62590231],[-46.68737103,-23.62645048],[-46.68639875,-23.6269644],[-46.68527688,-23.62864317],[-46.68322012,-23.63134972],[-46.68082849,-23.6332013],[-46.67892887,-23.63467191],[-46.67744161,-23.63659207],[-46.67704624,-23.63822966],[-46.67656217,-23.64016647],[-46.67610914,-23.64090992],[-46.67465653,-23.64190129],[-46.67386487,-23.64263849],[-46.67242086,-23.64425899],[-46.67106655,-23.6468342],[-46.67036733,-23.64860514],[-46.6702941,-23.64915358],[-46.66990735,-23.65052296],[-46.66957656,-23.65171902],[-46.66901018,-23.65302434],[-46.6683355,-23.65364234],[-46.66669166,-23.65513095],[-46.66516467,-23.65685075],[-46.66361898,-23.65859765],[-46.66340708,-23.6590886],[-46.66331982,-23.65972798],[-46.66329199,-23.66022693],[-46.66279789,-23.66112183],[-46.66201003,-23.6622239],[-46.66087204,-23.66368479],[-46.66004775,-23.66434696],[-46.65521895,-23.66660006],[-46.650158,-23.66879868],[-46.6481523,-23.66994206],[-46.64454723,-23.67265188],[-46.64378685,-23.67329119],[-46.64317605,-23.67391908],[-46.64307633,-23.67414741],[-46.64253967,-23.67525679],[-46.6417735,-23.67652893],[-46.64117466,-23.67796976],[-46.64061408,-23.67877106],[-46.63932205,-23.68027605],[-46.63843781,-23.68109497],[-46.63729002,-23.68180306],[-46.63611101,-23.68248306],[-46.63514629,-23.68303296],[-46.63442685,-23.68346664],[-46.63376839,-23.68384286],[-46.63283395,-23.68434982],[-46.63178786,-23.68455969],[-46.63069839,-23.68478685],[-46.62748935,-23.6849032],[-46.62577463,-23.68547176]]},"properties":{"id":"sp_geosampa_corredor_onibus:corredor_onibus.36","source_id":"sp_geosampa_corredor_onibus","name":"EMTU ABD","type":"EMTU"}},{"type":"Feature","geometry":{"type":"LineString","coordinates":[[-46.56915203,-23.45839911],[-46.56794947,-23.45790814],[-46.56766535,-23.45785359],[-46.56748034,-23.45781116],[-46.56717639,-23.45784146],[-46.56704424,-23.45793238],[-46.5653263,-23.45727169],[-46.5644409,-23.45796269],[-46.56343657,-23.45861732],[-46.56311941,-23.45886583],[-46.5628419,-23.4591689],[-46.56277582,-23.45937498],[-46.56256439,-23.46007203],[-46.56239259,-23.46042359],[-46.56217455,-23.46064785],[-46.56190364,-23.46081757],[-46.5616063,-23.46092061],[-46.56126271,-23.46091455],[-46.56011302,-23.46079939],[-46.55977604,-23.46079332],[-46.55945888,-23.4607509],[-46.55924744,-23.46064179],[-46.55902278,-23.46038116],[-46.55885099,-23.46013265],[-46.55801845,-23.45845366],[-46.55776736,-23.45815666],[-46.5575295,-23.45783541],[-46.55729163,-23.45762932],[-46.55371038,-23.45577452],[-46.55314214,-23.45556237],[-46.55235585,-23.45522293],[-46.5521378,-23.45517444],[-46.55182064,-23.45516837],[-46.55152331,-23.4552593],[-46.5507172,-23.45577452],[-46.55045951,-23.45588969],[-46.55023485,-23.45592],[-46.54985162,-23.45578665],[-46.54950803,-23.45563511],[-46.54914462,-23.45551994],[-46.54861602,-23.45547751],[-46.54825922,-23.455526],[-46.54792885,-23.45561086],[-46.54766455,-23.45575634],[-46.5475324,-23.45595637],[-46.54746633,-23.45614427],[-46.54742668,-23.4564231],[-46.54751258,-23.45667768],[-46.54763151,-23.4569262],[-46.54845084,-23.45775661],[-46.54849048,-23.45799907],[-46.54817333,-23.45918103],[-46.54806761,-23.45934468],[-46.54759187,-23.46127217],[-46.5475258,-23.46162372],[-46.54756544,-23.46221771],[-46.5476183,-23.46246622],[-46.54771741,-23.46304809],[-46.54758526,-23.46349662],[-46.54702363,-23.46440578],[-46.54671969,-23.46484218],[-46.54669326,-23.4650725],[-46.54663379,-23.46527858],[-46.54660736,-23.46569679],[-46.54658754,-23.46612712],[-46.54638931,-23.46635744],[-46.54610519,-23.46694535],[-46.54552374,-23.46766054],[-46.54537837,-23.46786055],[-46.54532551,-23.4680545],[-46.54526605,-23.46827269],[-46.54527926,-23.46860604],[-46.5458409,-23.47160009],[-46.54622413,-23.47253344],[-46.54633646,-23.47300617],[-46.54644879,-23.47384254],[-46.54658093,-23.47419406],[-46.54691792,-23.47481224],[-46.54727472,-23.47552133],[-46.54777028,-23.47773948],[-46.54780332,-23.47940004],[-46.54773724,-23.47970306],[-46.54763152,-23.47996971],[-46.5472549,-23.48067271],[-46.54688488,-23.48150904],[-46.54562946,-23.48388465],[-46.54543785,-23.4841816],[-46.54518016,-23.48443613],[-46.54477049,-23.48468459],[-46.54453263,-23.48477549],[-46.54426833,-23.48484216],[-46.54399081,-23.48489064],[-46.54367366,-23.48485428],[-46.542742,-23.48461187],[-46.54245127,-23.48441795],[-46.54135443,-23.48319379],[-46.54110335,-23.48303622],[-46.54075315,-23.48291502],[-46.53981489,-23.48273321],[-46.53931934,-23.48259989],[-46.53887003,-23.48241808],[-46.53634597,-23.48088483],[-46.53620722,-23.4806909],[-46.53611471,-23.48053333],[-46.53604864,-23.48021213],[-46.53606185,-23.47997578],[-46.53628651,-23.47919399],[-46.53629972,-23.47901824],[-46.53624686,-23.47880006],[-46.53546057,-23.47725465],[-46.53473375,-23.47604254],[-46.53419855,-23.47526073],[-46.534073,-23.4751577],[-46.53169432,-23.47406073],[-46.53141019,-23.47380013],[-46.53126483,-23.47349709],[-46.53110625,-23.47322436],[-46.53087499,-23.47305466],[-46.53069659,-23.47292739],[-46.53002923,-23.47263648],[-46.52967243,-23.47260011],[-46.52949403,-23.47263042],[-46.52923634,-23.47273345],[-46.52885971,-23.47278799],[-46.52659996,-23.47232132],[-46.52622333,-23.47230314],[-46.52416841,-23.47258799],[-46.52345481,-23.47264254],[-46.52241083,-23.47263648],[-46.52143953,-23.47250315],[-46.51840009,-23.47089705],[-46.51671519,-23.47013339],[-46.51360968,-23.46833332],[-46.51306126,-23.46811513],[-46.51246659,-23.46793936],[-46.51118474,-23.46779996],[-46.50929501,-23.46766056],[-46.50874659,-23.46756358],[-46.50797351,-23.46747267],[-46.50744492,-23.46735145],[-46.50184178,-23.46533314],[-46.50108853,-23.46500585],[-46.4989345,-23.46351482],[-46.49723638,-23.46231472],[-46.49726942,-23.46223592],[-46.49727602,-23.46206015],[-46.49757336,-23.46138735],[-46.49779801,-23.46130856],[-46.49799624,-23.46128431],[-46.49771212,-23.46098731],[-46.49704476,-23.4599569],[-46.49641705,-23.45935683],[-46.49579595,-23.45896284],[-46.4955779,-23.45885374],[-46.49502288,-23.4588295],[-46.49456696,-23.45872645],[-46.49443481,-23.45865978],[-46.49428284,-23.45816275],[-46.49171254,-23.4571808],[-46.4914152,-23.45679287],[-46.49119055,-23.45616248],[-46.4912368,-23.45544723],[-46.49538628,-23.44443304],[-46.49563076,-23.44286904],[-46.49564397,-23.44109284],[-46.49503608,-23.43692202],[-46.49463302,-23.43467287]]},"properties":{"id":"sp_geosampa_corredor_onibus:corredor_onibus.37","source_id":"sp_geosampa_corredor_onibus","name":"EMTU Corredor Metropolitano Guarulhos - São Paulo","type":"EMTU"}},{"type":"Feature","geometry":{"type":"LineString","coordinates":[[-46.93403298,-23.54469064],[-46.93367665,-23.54409029],[-46.93322402,-23.54317209],[-46.93299289,-23.54231569],[-46.93292548,-23.54141514],[-46.93311809,-23.53880175],[-46.93328181,-23.53758333],[-46.93328181,-23.53673572],[-46.93312772,-23.53625894],[-46.93284844,-23.53580865],[-46.9322032,-23.53527006],[-46.93178909,-23.53507581],[-46.93113422,-23.53499634],[-46.93069122,-23.53499634],[-46.92601081,-23.53602937],[-46.92436829,-23.53606583],[-46.92364034,-23.53604095],[-46.9229471,-23.53567241],[-46.92251674,-23.53420358],[-46.92238404,-23.53274821],[-46.92167498,-23.53112389],[-46.92118704,-23.53033364],[-46.92059052,-23.52958207],[-46.91993524,-23.52926448],[-46.91941234,-23.52928508],[-46.91856807,-23.52933953],[-46.91792122,-23.52931009],[-46.91742365,-23.5293307],[-46.9171235,-23.52938662],[-46.91649441,-23.52942527],[-46.91597266,-23.52949257],[-46.91508788,-23.52957599],[-46.91462499,-23.529687],[-46.9139601,-23.53004623],[-46.91360735,-23.53040163],[-46.91305462,-23.5307199],[-46.91218496,-23.53103697],[-46.91143256,-23.53113749],[-46.91060036,-23.53098623],[-46.90993363,-23.53069251],[-46.90944983,-23.53041058],[-46.90912774,-23.53025305],[-46.90854376,-23.52988809],[-46.90774312,-23.52944676],[-46.90735489,-23.52930769],[-46.90659863,-23.52912557],[-46.90588927,-23.52904299],[-46.9055092,-23.52905686],[-46.9044392,-23.528815],[-46.90345117,-23.52868326],[-46.90311689,-23.52858751],[-46.90296521,-23.52850473]]},"properties":{"id":"sp_geosampa_corredor_onibus:corredor_onibus.38","source_id":"sp_geosampa_corredor_onibus","name":"EMTU Itapevi - São Paulo","type":"EMTU"}},{"type":"Feature","geometry":{"type":"LineString","coordinates":[[-46.90296521,-23.52850473],[-46.90012208,-23.52662332],[-46.89928787,-23.52642759],[-46.89882336,-23.52642624],[-46.89840615,-23.52653665],[-46.89779971,-23.52672659],[-46.89726108,-23.52686656],[-46.89678125,-23.52685837],[-46.89623219,-23.52680187],[-46.8957269,-23.52661144],[-46.89507414,-23.5262262],[-46.89409641,-23.52547982],[-46.89352306,-23.52425809],[-46.89284579,-23.52241783],[-46.89258206,-23.52181915],[-46.89184388,-23.52078197],[-46.89084757,-23.51979707],[-46.89011231,-23.51896346],[-46.88970211,-23.51796442],[-46.88950438,-23.51691364],[-46.88912313,-23.5147417],[-46.88903649,-23.51347192],[-46.8888616,-23.51242086],[-46.88841935,-23.51130455],[-46.88810197,-23.51094158],[-46.88772506,-23.51067233],[-46.88729677,-23.5105371],[-46.88685365,-23.51043013],[-46.88659453,-23.51041221],[-46.88611081,-23.51043176],[-46.88552309,-23.51055859],[-46.88502521,-23.51078027],[-46.88454619,-23.5109285],[-46.88334291,-23.51144156],[-46.88295668,-23.51158666],[-46.88265016,-23.51172667],[-46.88244968,-23.51181518],[-46.881789,-23.51200365],[-46.88110902,-23.51229707],[-46.88072282,-23.51246023],[-46.87976889,-23.51282581],[-46.87842516,-23.51310181],[-46.87770336,-23.51320882],[-46.87661317,-23.51310962],[-46.87622334,-23.51300198],[-46.87554025,-23.51289304],[-46.87431713,-23.51280729],[-46.87282288,-23.5126708],[-46.87183898,-23.51254923],[-46.87098005,-23.51265083],[-46.87026805,-23.51291215],[-46.86995199,-23.51317573],[-46.86969653,-23.51341753],[-46.86945818,-23.51379251],[-46.86908717,-23.51447803],[-46.86857507,-23.515418],[-46.86806119,-23.51623161],[-46.86752811,-23.5167646],[-46.8670321,-23.51722693],[-46.86570184,-23.51792394],[-46.86434646,-23.51845975],[-46.86220228,-23.518675],[-46.86001826,-23.5187643],[-46.85866473,-23.51889281],[-46.8573691,-23.51890784],[-46.85594398,-23.5190894],[-46.85473976,-23.51890411],[-46.85380504,-23.51842373],[-46.85242445,-23.51799853],[-46.85058658,-23.51797932],[-46.84847745,-23.51774108],[-46.84665946,-23.5173212],[-46.84496106,-23.51696548],[-46.84386587,-23.51686164],[-46.84128189,-23.51704743],[-46.83965241,-23.51707767],[-46.83884651,-23.51726197],[-46.83782511,-23.51742838],[-46.83666668,-23.51796865],[-46.83537387,-23.5191139]]},"properties":{"id":"sp_geosampa_corredor_onibus:corredor_onibus.39","source_id":"sp_geosampa_corredor_onibus","name":"EMTU Itapevi - São Paulo","type":"EMTU"}},{"type":"Feature","geometry":{"type":"LineString","coordinates":[[-46.83537387,-23.5191139],[-46.83536882,-23.51960764],[-46.83472019,-23.52002121],[-46.8342162,-23.52005368],[-46.8327176,-23.52060432],[-46.83183014,-23.52095486],[-46.83124862,-23.52106044],[-46.83082464,-23.52097495],[-46.82997685,-23.5211522],[-46.82914567,-23.52127167],[-46.82840996,-23.52141197],[-46.82685078,-23.52223115],[-46.82572992,-23.52291353],[-46.82442864,-23.52345539],[-46.82299807,-23.52367877],[-46.82211362,-23.52382261],[-46.81947046,-23.52368897],[-46.81839772,-23.52354791],[-46.81587759,-23.52370899]]},"properties":{"id":"sp_geosampa_corredor_onibus:corredor_onibus.40","source_id":"sp_geosampa_corredor_onibus","name":"EMTU Itapevi - São Paulo","type":"EMTU"}}]}
