{"type":"FeatureCollection","features":[{"type":"Feature","geometry":{"type":"Point","coordinates":[-46.47107772,-23.54230527]},"properties":{"id":"sp_geosampa_estacao_metro:estacao_metro.1","source_id":"sp_geosampa_estacao_metro","name":"CORINTHIANS-ITAQUERA","name_derived":false,"category":"metro_train","subcategory":"metro","geometry_type":"Point","address":null,"equipment_type":"VERMELHA","administrative_sphere":null,"included_in_metrics":true,"exclusion_reason":null,"override_reason":null,"outside_boundary":false}},{"type":"Feature","geometry":{"type":"Point","coordinates":[-46.48458996,-23.54028841]},"properties":{"id":"sp_geosampa_estacao_metro:estacao_metro.2","source_id":"sp_geosampa_estacao_metro","name":"ARTUR ALVIM","name_derived":false,"category":"metro_train","subcategory":"metro","geometry_type":"Point","address":null,"equipment_type":"VERMELHA","administrative_sphere":null,"included_in_metrics":true,"exclusion_reason":null,"override_reason":null,"outside_boundary":false}},{"type":"Feature","geometry":{"type":"Point","coordinates":[-46.5013818,-23.53118276]},"properties":{"id":"sp_geosampa_estacao_metro:estacao_metro.3","source_id":"sp_geosampa_estacao_metro","name":"PATRIARCA","name_derived":false,"category":"metro_train","subcategory":"metro","geometry_type":"Point","address":null,"equipment_type":"VERMELHA","administrative_sphere":null,"included_in_metrics":true,"exclusion_reason":null,"override_reason":null,"outside_boundary":false}},{"type":"Feature","geometry":{"type":"Point","coordinates":[-46.51654824,-23.52926294]},"properties":{"id":"sp_geosampa_estacao_metro:estacao_metro.4","source_id":"sp_geosampa_estacao_metro","name":"GUILHERMINA-ESPERANÇA","name_derived":false,"category":"metro_train","subcategory":"metro","geometry_type":"Point","address":null,"equipment_type":"VERMELHA","administrative_sphere":null,"included_in_metrics":true,"exclusion_reason":null,"override_reason":null,"outside_boundary":false}},{"type":"Feature","geometry":{"type":"Point","coordinates":[-46.53100548,-23.53187738]},"properties":{"id":"sp_geosampa_estacao_metro:estacao_metro.5","source_id":"sp_geosampa_estacao_metro","name":"VILA MATILDE","name_derived":false,"category":"metro_train","subcategory":"metro","geometry_type":"Point","address":null,"equipment_type":"VERMELHA","administrative_sphere":null,"included_in_metrics":true,"exclusion_reason":null,"override_reason":null,"outside_boundary":false}},{"type":"Feature","geometry":{"type":"Point","coordinates":[-46.54234908,-23.53348131]},"properties":{"id":"sp_geosampa_estacao_metro:estacao_metro.6","source_id":"sp_geosampa_estacao_metro","name":"PENHA","name_derived":false,"category":"metro_train","subcategory":"metro","geometry_type":"Point","address":null,"equipment_type":"VERMELHA","administrative_sphere":null,"included_in_metrics":true,"exclusion_reason":null,"override_reason":null,"outside_boundary":false}},{"type":"Feature","geometry":{"type":"Point","coordinates":[-46.56415536,-23.53785103]},"properties":{"id":"sp_geosampa_estacao_metro:estacao_metro.7","source_id":"sp_geosampa_estacao_metro","name":"CARRÃO","name_derived":false,"category":"metro_train","subcategory":"metro","geometry_type":"Point","address":null,"equipment_type":"VERMELHA","administrative_sphere":null,"included_in_metrics":true,"exclusion_reason":null,"override_reason":null,"outside_boundary":false}},{"type":"Feature","geometry":{"type":"Point","coordinates":[-46.57628448,-23.54043989]},"properties":{"id":"sp_geosampa_estacao_metro:estacao_metro.8","source_id":"sp_geosampa_estacao_metro","name":"TATUAPÉ","name_derived":false,"category":"metro_train","subcategory":"metro","geometry_type":"Point","address":null,"equipment_type":"VERMELHA","administrative_sphere":null,"included_in_metrics":true,"exclusion_reason":null,"override_reason":null,"outside_boundary":false}},{"type":"Feature","geometry":{"type":"Point","coordinates":[-46.59010776,-23.5430226]},"properties":{"id":"sp_geosampa_estacao_metro:estacao_metro.9","source_id":"sp_geosampa_estacao_metro","name":"BELÉM","name_derived":false,"category":"metro_train","subcategory":"metro","geometry_type":"Point","address":null,"equipment_type":"VERMELHA","administrative_sphere":null,"included_in_metrics":true,"exclusion_reason":null,"override_reason":null,"outside_boundary":false}},{"type":"Feature","geometry":{"type":"Point","coordinates":[-46.60754004,-23.54647636]},"properties":{"id":"sp_geosampa_estacao_metro:estacao_metro.10","source_id":"sp_geosampa_estacao_metro","name":"BRESSER-MOOCA","name_derived":false,"category":"metro_train","subcategory":"metro","geometry_type":"Point","address":null,"equipment_type":"VERMELHA","administrative_sphere":null,"included_in_metrics":true,"exclusion_reason":null,"override_reason":null,"outside_boundary":false}},{"type":"Feature","geometry":{"type":"Point","coordinates":[-46.61590896,-23.5478844]},"properties":{"id":"sp_geosampa_estacao_metro:estacao_metro.11","source_id":"sp_geosampa_estacao_metro","name":"BRÁS","name_derived":false,"category":"metro_train","subcategory":"metro","geometry_type":"Point","address":null,"equipment_type":"VERMELHA","administrative_sphere":null,"included_in_metrics":true,"exclusion_reason":null,"override_reason":null,"outside_boundary":false}},{"type":"Feature","geometry":{"type":"Point","coordinates":[-46.6259094,-23.54971551]},"properties":{"id":"sp_geosampa_estacao_metro:estacao_metro.12","source_id":"sp_geosampa_estacao_metro","name":"PEDRO II","name_derived":false,"category":"metro_train","subcategory":"metro","geometry_type":"Point","address":null,"equipment_type":"VERMELHA","administrative_sphere":null,"included_in_metrics":true,"exclusion_reason":null,"override_reason":null,"outside_boundary":false}},{"type":"Feature","geometry":{"type":"Point","coordinates":[-46.6331346,-23.55092139]},"properties":{"id":"sp_geosampa_estacao_metro:estacao_metro.13","source_id":"sp_geosampa_estacao_metro","name":"SÉ","name_derived":false,"category":"metro_train","subcategory":"metro","geometry_type":"Point","address":null,"equipment_type":"VERMELHA","administrative_sphere":null,"included_in_metrics":true,"exclusion_reason":null,"override_reason":null,"outside_boundary":false}},{"type":"Feature","geometry":{"type":"Point","coordinates":[-46.6388856,-23.5479476]},"properties":{"id":"sp_geosampa_estacao_metro:estacao_metro.14","source_id":"sp_geosampa_estacao_metro","name":"ANHANGABAÚ","name_derived":false,"category":"metro_train","subcategory":"metro","geometry_type":"Point","address":null,"equipment_type":"VERMELHA","administrative_sphere":null,"included_in_metrics":true,"exclusion_reason":null,"override_reason":null,"outside_boundary":false}},{"type":"Feature","geometry":{"type":"Point","coordinates":[-46.64314908,-23.54389388]},"properties":{"id":"sp_geosampa_estacao_metro:estacao_metro.15","source_id":"sp_geosampa_estacao_metro","name":"REPÚBLICA","name_derived":false,"category":"metro_train","subcategory":"metro","geometry_type":"Point","address":null,"equipment_type":"VERMELHA","administrative_sphere":null,"included_in_metrics":true,"exclusion_reason":null,"override_reason":null,"outside_boundary":false}},{"type":"Feature","geometry":{"type":"Point","coordinates":[-46.64887956,-23.53963806]},"properties":{"id":"sp_geosampa_estacao_metro:estacao_metro.16","source_id":"sp_geosampa_estacao_metro","name":"SANTA CECÍLIA","name_derived":false,"category":"metro_train","subcategory":"metro","geometry_type":"Point","address":null,"equipment_type":"VERMELHA","administrative_sphere":null,"included_in_metrics":true,"exclusion_reason":null,"override_reason":null,"outside_boundary":false}},{"type":"Feature","geometry":{"type":"Point","coordinates":[-46.65602664,-23.53351827]},"properties":{"id":"sp_geosampa_estacao_metro:estacao_metro.17","source_id":"sp_geosampa_estacao_metro","name":"MARECHAL DEODORO","name_derived":false,"category":"metro_train","subcategory":"metro","geometry_type":"Point","address":null,"equipment_type":"VERMELHA","administrative_sphere":null,"included_in_metrics":true,"exclusion_reason":null,"override_reason":null,"outside_boundary":false}},{"type":"Feature","geometry":{"type":"Point","coordinates":[-46.66737276,-23.52594769]},"properties":{"id":"sp_geosampa_estacao_metro:estacao_metro.18","source_id":"sp_geosampa_estacao_metro","name":"PALMEIRAS-BARRA FUNDA","name_derived":false,"category":"metro_train","subcategory":"metro","geometry_type":"Point","address":null,"equipment_type":"VERMELHA","administrative_sphere":null,"included_in_metrics":true,"exclusion_reason":null,"override_reason":null,"outside_boundary":false}},{"type":"Feature","geometry":{"type":"Point","coordinates":[-46.69085484,-23.54639071]},"properties":{"id":"sp_geosampa_estacao_metro:estacao_metro.19","source_id":"sp_geosampa_estacao_metro","name":"VILA MADALENA","name_derived":false,"category":"metro_train","subcategory":"metro","geometry_type":"Point","address":null,"equipment_type":"VERDE","administrative_sphere":null,"included_in_metrics":true,"exclusion_reason":null,"override_reason":null,"outside_boundary":false}},{"type":"Feature","geometry":{"type":"Point","coordinates":[-46.67753844,-23.55101627]},"properties":{"id":"sp_geosampa_estacao_metro:estacao_metro.20","source_id":"sp_geosampa_estacao_metro","name":"SANTUÁRIO NOSSA SENHORA DE FÁTIMA-SUMARÉ","name_derived":false,"category":"metro_train","subcategory":"metro","geometry_type":"Point","address":null,"equipment_type":"VERDE","administrative_sphere":null,"included_in_metrics":true,"exclusion_reason":null,"override_reason":null,"outside_boundary":false}},{"type":"Feature","geometry":{"type":"Point","coordinates":[-46.67076216,-23.5541111]},"properties":{"id":"sp_geosampa_estacao_metro:estacao_metro.21","source_id":"sp_geosampa_estacao_metro","name":"CLÍNICAS","name_derived":false,"category":"metro_train","subcategory":"metro","geometry_type":"Point","address":null,"equipment_type":"VERDE","administrative_sphere":null,"included_in_metrics":true,"exclusion_reason":null,"override_reason":null,"outside_boundary":false}},{"type":"Feature","geometry":{"type":"Point","coordinates":[-46.66119228,-23.55722797]},"properties":{"id":"sp_geosampa_estacao_metro:estacao_metro.22","source_id":"sp_geosampa_estacao_metro","name":"CONSOLAÇÃO","name_derived":false,"category":"metro_train","subcategory":"metro","geometry_type":"Point","address":null,"equipment_type":"VERDE","administrative_sphere":null,"included_in_metrics":true,"exclusion_reason":null,"override_reason":null,"outside_boundary":false}},{"type":"Feature","geometry":{"type":"Point","coordinates":[-46.654416,-23.56316136]},"properties":{"id":"sp_geosampa_estacao_metro:estacao_metro.23","source_id":"sp_geosampa_estacao_metro","name":"TRIANON-MASP","name_derived":false,"category":"metro_train","subcategory":"metro","geometry_type":"Point","address":null,"equipment_type":"VERDE","administrative_sphere":null,"included_in_metrics":true,"exclusion_reason":null,"override_reason":null,"outside_boundary":false}},{"type":"Feature","geometry":{"type":"Point","coordinates":[-46.64735388,-23.56888001]},"properties":{"id":"sp_geosampa_estacao_metro:estacao_metro.24","source_id":"sp_geosampa_estacao_metro","name":"BRIGADEIRO","name_derived":false,"category":"metro_train","subcategory":"metro","geometry_type":"Point","address":null,"equipment_type":"VERDE","administrative_sphere":null,"included_in_metrics":true,"exclusion_reason":null,"override_reason":null,"outside_boundary":false}},{"type":"Feature","geometry":{"type":"Point","coordinates":[-46.64105568,-23.5757681]},"properties":{"id":"sp_geosampa_estacao_metro:estacao_metro.25","source_id":"sp_geosampa_estacao_metro","name":"PARAÍSO","name_derived":false,"category":"metro_train","subcategory":"metro","geometry_type":"Point","address":null,"equipment_type":"VERDE","administrative_sphere":null,"included_in_metrics":true,"exclusion_reason":null,"override_reason":null,"outside_boundary":false}},{"type":"Feature","geometry":{"type":"Point","coordinates":[-46.63862748,-23.58135505]},"properties":{"id":"sp_geosampa_estacao_metro:estacao_metro.26","source_id":"sp_geosampa_estacao_metro","name":"ANA ROSA","name_derived":false,"category":"metro_train","subcategory":"metro","geometry_type":"Point","address":null,"equipment_type":"VERDE","administrative_sphere":null,"included_in_metrics":true,"exclusion_reason":null,"override_reason":null,"outside_boundary":false}},{"type":"Feature","geometry":{"type":"Point","coordinates":[-46.63048644,-23.59263183]},"properties":{"id":"sp_geosampa_estacao_metro:estacao_metro.27","source_id":"sp_geosampa_estacao_metro","name":"CHÁCARA KLABIN","name_derived":false,"category":"metro_train","subcategory":"metro","geometry_type":"Point","address":null,"equipment_type":"VERDE","administrative_sphere":null,"included_in_metrics":true,"exclusion_reason":null,"override_reason":null,"outside_boundary":false}},{"type":"Feature","geometry":{"type":"Point","coordinates":[-46.6207002,-23.59593764]},"properties":{"id":"sp_geosampa_estacao_metro:estacao_metro.28","source_id":"sp_geosampa_estacao_metro","name":"SANTOS-IMIGRANTES","name_derived":false,"category":"metro_train","subcategory":"metro","geometry_type":"Point","address":null,"equipment_type":"VERDE","administrative_sphere":null,"included_in_metrics":true,"exclusion_reason":null,"override_reason":null,"outside_boundary":false}},{"type":"Feature","geometry":{"type":"Point","coordinates":[-46.61237016,-23.60219455]},"properties":{"id":"sp_geosampa_estacao_metro:estacao_metro.29","source_id":"sp_geosampa_estacao_metro","name":"ALTO DO IPIRANGA","name_derived":false,"category":"metro_train","subcategory":"metro","geometry_type":"Point","address":null,"equipment_type":"VERDE","administrative_sphere":null,"included_in_metrics":true,"exclusion_reason":null,"override_reason":null,"outside_boundary":false}},{"type":"Feature","geometry":{"type":"Point","coordinates":[-46.60317216,-23.60141487]},"properties":{"id":"sp_geosampa_estacao_metro:estacao_metro.30","source_id":"sp_geosampa_estacao_metro","name":"SACOMÃ","name_derived":false,"category":"metro_train","subcategory":"metro","geometry_type":"Point","address":null,"equipment_type":"VERDE","administrative_sphere":null,"included_in_metrics":true,"exclusion_reason":null,"override_reason":null,"outside_boundary":false}},{"type":"Feature","geometry":{"type":"Point","coordinates":[-46.5895746,-23.59293848]},"properties":{"id":"sp_geosampa_estacao_metro:estacao_metro.31","source_id":"sp_geosampa_estacao_metro","name":"TAMANDUATEÍ","name_derived":false,"category":"metro_train","subcategory":"metro","geometry_type":"Point","address":null,"equipment_type":"VERDE","administrative_sphere":null,"included_in_metrics":true,"exclusion_reason":null,"override_reason":null,"outside_boundary":false}},{"type":"Feature","geometry":{"type":"Point","coordinates":[-46.58190624,-23.58432594]},"properties":{"id":"sp_geosampa_estacao_metro:estacao_metro.32","source_id":"sp_geosampa_estacao_metro","name":"VILA PRUDENTE","name_derived":false,"category":"metro_train","subcategory":"metro","geometry_type":"Point","address":null,"equipment_type":"VERDE","administrative_sphere":null,"included_in_metrics":true,"exclusion_reason":null,"override_reason":null,"outside_boundary":false}},{"type":"Feature","geometry":{"type":"Point","coordinates":[-46.63465092,-23.58910752]},"properties":{"id":"sp_geosampa_estacao_metro:estacao_metro.33","source_id":"sp_geosampa_estacao_metro","name":"VILA MARIANA","name_derived":false,"category":"metro_train","subcategory":"metro","geometry_type":"Point","address":null,"equipment_type":"AZUL","administrative_sphere":null,"included_in_metrics":true,"exclusion_reason":null,"override_reason":null,"outside_boundary":false}},{"type":"Feature","geometry":{"type":"Point","coordinates":[-46.60315056,-23.47998047]},"properties":{"id":"sp_geosampa_estacao_metro:estacao_metro.34","source_id":"sp_geosampa_estacao_metro","name":"TUCURUVI","name_derived":false,"category":"metro_train","subcategory":"metro","geometry_type":"Point","address":null,"equipment_type":"AZUL","administrative_sphere":null,"included_in_metrics":true,"exclusion_reason":null,"override_reason":null,"outside_boundary":false}},{"type":"Feature","geometry":{"type":"Point","coordinates":[-46.60882092,-23.48703268]},"properties":{"id":"sp_geosampa_estacao_metro:estacao_metro.35","source_id":"sp_geosampa_estacao_metro","name":"PARADA INGLESA","name_derived":false,"category":"metro_train","subcategory":"metro","geometry_type":"Point","address":null,"equipment_type":"AZUL","administrative_sphere":null,"included_in_metrics":true,"exclusion_reason":null,"override_reason":null,"outside_boundary":false}},{"type":"Feature","geometry":{"type":"Point","coordinates":[-46.61710956,-23.49241655]},"properties":{"id":"sp_geosampa_estacao_metro:estacao_metro.36","source_id":"sp_geosampa_estacao_metro","name":"AYRTON SENNA-JARDIM SÃO PAULO","name_derived":false,"category":"metro_train","subcategory":"metro","geometry_type":"Point","address":null,"equipment_type":"AZUL","administrative_sphere":null,"included_in_metrics":true,"exclusion_reason":null,"override_reason":null,"outside_boundary":false}},{"type":"Feature","geometry":{"type":"Point","coordinates":[-46.62477288,-23.50256893]},"properties":{"id":"sp_geosampa_estacao_metro:estacao_metro.37","source_id":"sp_geosampa_estacao_metro","name":"SANTANA","name_derived":false,"category":"metro_train","subcategory":"metro","geometry_type":"Point","address":null,"equipment_type":"AZUL","administrative_sphere":null,"included_in_metrics":true,"exclusion_reason":null,"override_reason":null,"outside_boundary":false}},{"type":"Feature","geometry":{"type":"Point","coordinates":[-46.6249626,-23.50927562]},"properties":{"id":"sp_geosampa_estacao_metro:estacao_metro.38","source_id":"sp_geosampa_estacao_metro","name":"CARANDIRU","name_derived":false,"category":"metro_train","subcategory":"metro","geometry_type":"Point","address":null,"equipment_type":"AZUL","administrative_sphere":null,"included_in_metrics":true,"exclusion_reason":null,"override_reason":null,"outside_boundary":false}},{"type":"Feature","geometry":{"type":"Point","coordinates":[-46.62516132,-23.51613134]},"properties":{"id":"sp_geosampa_estacao_metro:estacao_metro.39","source_id":"sp_geosampa_estacao_metro","name":"PORTUGUESA-TIETÊ","name_derived":false,"category":"metro_train","subcategory":"metro","geometry_type":"Point","address":null,"equipment_type":"AZUL","administrative_sphere":null,"included_in_metrics":true,"exclusion_reason":null,"override_reason":null,"outside_boundary":false}},{"type":"Feature","geometry":{"type":"Point","coordinates":[-46.62933984,-23.5255001]},"properties":{"id":"sp_geosampa_estacao_metro:estacao_metro.40","source_id":"sp_geosampa_estacao_metro","name":"ARMÊNIA","name_derived":false,"category":"metro_train","subcategory":"metro","geometry_type":"Point","address":null,"equipment_type":"AZUL","administrative_sphere":null,"included_in_metrics":true,"exclusion_reason":null,"override_reason":null,"outside_boundary":false}},{"type":"Feature","geometry":{"type":"Point","coordinates":[-46.6321716,-23.53065813]},"properties":{"id":"sp_geosampa_estacao_metro:estacao_metro.41","source_id":"sp_geosampa_estacao_metro","name":"TIRADENTES","name_derived":false,"category":"metro_train","subcategory":"metro","geometry_type":"Point","address":null,"equipment_type":"AZUL","administrative_sphere":null,"included_in_metrics":true,"exclusion_reason":null,"override_reason":null,"outside_boundary":false}},{"type":"Feature","geometry":{"type":"Point","coordinates":[-46.63367028,-23.53690231]},"properties":{"id":"sp_geosampa_estacao_metro:estacao_metro.42","source_id":"sp_geosampa_estacao_metro","name":"LUZ","name_derived":false,"category":"metro_train","subcategory":"metro","geometry_type":"Point","address":null,"equipment_type":"AZUL","administrative_sphere":null,"included_in_metrics":true,"exclusion_reason":null,"override_reason":null,"outside_boundary":false}},{"type":"Feature","geometry":{"type":"Point","coordinates":[-46.63416672,-23.54408415]},"properties":{"id":"sp_geosampa_estacao_metro:estacao_metro.43","source_id":"sp_geosampa_estacao_metro","name":"SÃO BENTO","name_derived":false,"category":"metro_train","subcategory":"metro","geometry_type":"Point","address":null,"equipment_type":"AZUL","administrative_sphere":null,"included_in_metrics":true,"exclusion_reason":null,"override_reason":null,"outside_boundary":false}},{"type":"Feature","geometry":{"type":"Point","coordinates":[-46.63308816,-23.55100043]},"properties":{"id":"sp_geosampa_estacao_metro:estacao_metro.44","source_id":"sp_geosampa_estacao_metro","name":"SÉ","name_derived":false,"category":"metro_train","subcategory":"metro","geometry_type":"Point","address":null,"equipment_type":"AZUL","administrative_sphere":null,"included_in_metrics":true,"exclusion_reason":null,"override_reason":null,"outside_boundary":false}},{"type":"Feature","geometry":{"type":"Point","coordinates":[-46.6357338,-23.55497637]},"properties":{"id":"sp_geosampa_estacao_metro:estacao_metro.45","source_id":"sp_geosampa_estacao_metro","name":"JAPÃO-LIBERDADE","name_derived":false,"category":"metro_train","subcategory":"metro","geometry_type":"Point","address":null,"equipment_type":"AZUL","administrative_sphere":null,"included_in_metrics":true,"exclusion_reason":null,"override_reason":null,"outside_boundary":false}},{"type":"Feature","geometry":{"type":"Point","coordinates":[-46.6386966,-23.56191105]},"properties":{"id":"sp_geosampa_estacao_metro:estacao_metro.46","source_id":"sp_geosampa_estacao_metro","name":"SÃO JOAQUIM","name_derived":false,"category":"metro_train","subcategory":"metro","geometry_type":"Point","address":null,"equipment_type":"AZUL","administrative_sphere":null,"included_in_metrics":true,"exclusion_reason":null,"override_reason":null,"outside_boundary":false}},{"type":"Feature","geometry":{"type":"Point","coordinates":[-46.6399368,-23.56891466]},"properties":{"id":"sp_geosampa_estacao_metro:estacao_metro.47","source_id":"sp_geosampa_estacao_metro","name":"VERGUEIRO","name_derived":false,"category":"metro_train","subcategory":"metro","geometry_type":"Point","address":null,"equipment_type":"AZUL","administrative_sphere":null,"included_in_metrics":true,"exclusion_reason":null,"override_reason":null,"outside_boundary":false}},{"type":"Feature","geometry":{"type":"Point","coordinates":[-46.6407738,-23.57572421]},"properties":{"id":"sp_geosampa_estacao_metro:estacao_metro.48","source_id":"sp_geosampa_estacao_metro","name":"PARAÍSO","name_derived":false,"category":"metro_train","subcategory":"metro","geometry_type":"Point","address":null,"equipment_type":"AZUL","administrative_sphere":null,"included_in_metrics":true,"exclusion_reason":null,"override_reason":null,"outside_boundary":false}},{"type":"Feature","geometry":{"type":"Point","coordinates":[-46.63845216,-23.58125706]},"properties":{"id":"sp_geosampa_estacao_metro:estacao_metro.49","source_id":"sp_geosampa_estacao_metro","name":"ANA ROSA","name_derived":false,"category":"metro_train","subcategory":"metro","geometry_type":"Point","address":null,"equipment_type":"AZUL","administrative_sphere":null,"included_in_metrics":true,"exclusion_reason":null,"override_reason":null,"outside_boundary":false}},{"type":"Feature","geometry":{"type":"Point","coordinates":[-46.63465092,-23.58910752]},"properties":{"id":"sp_geosampa_estacao_metro:estacao_metro.50","source_id":"sp_geosampa_estacao_metro","name":"VILA MARIANA","name_derived":false,"category":"metro_train","subcategory":"metro","geometry_type":"Point","address":null,"equipment_type":"AZUL","administrative_sphere":null,"included_in_metrics":true,"exclusion_reason":null,"override_reason":null,"outside_boundary":false}},{"type":"Feature","geometry":{"type":"Point","coordinates":[-46.63668816,-23.59882935]},"properties":{"id":"sp_geosampa_estacao_metro:estacao_metro.51","source_id":"sp_geosampa_estacao_metro","name":"SANTA CRUZ","name_derived":false,"category":"metro_train","subcategory":"metro","geometry_type":"Point","address":null,"equipment_type":"AZUL","administrative_sphere":null,"included_in_metrics":true,"exclusion_reason":null,"override_reason":null,"outside_boundary":false}},{"type":"Feature","geometry":{"type":"Point","coordinates":[-46.63788372,-23.61064181]},"properties":{"id":"sp_geosampa_estacao_metro:estacao_metro.52","source_id":"sp_geosampa_estacao_metro","name":"PRAÇA DA ÁRVORE","name_derived":false,"category":"metro_train","subcategory":"metro","geometry_type":"Point","address":null,"equipment_type":"AZUL","administrative_sphere":null,"included_in_metrics":true,"exclusion_reason":null,"override_reason":null,"outside_boundary":false}},{"type":"Feature","geometry":{"type":"Point","coordinates":[-46.63923732,-23.61860894]},"properties":{"id":"sp_geosampa_estacao_metro:estacao_metro.53","source_id":"sp_geosampa_estacao_metro","name":"SAÚDE","name_derived":false,"category":"metro_train","subcategory":"metro","geometry_type":"Point","address":null,"equipment_type":"AZUL","administrative_sphere":null,"included_in_metrics":true,"exclusion_reason":null,"override_reason":null,"outside_boundary":false}},{"type":"Feature","geometry":{"type":"Point","coordinates":[-46.6408116,-23.62575151]},"properties":{"id":"sp_geosampa_estacao_metro:estacao_metro.54","source_id":"sp_geosampa_estacao_metro","name":"SÃO JUDAS","name_derived":false,"category":"metro_train","subcategory":"metro","geometry_type":"Point","address":null,"equipment_type":"AZUL","administrative_sphere":null,"included_in_metrics":true,"exclusion_reason":null,"override_reason":null,"outside_boundary":false}},{"type":"Feature","geometry":{"type":"Point","coordinates":[-46.64133216,-23.63537778]},"properties":{"id":"sp_geosampa_estacao_metro:estacao_metro.55","source_id":"sp_geosampa_estacao_metro","name":"CONCEIÇÃO","name_derived":false,"category":"metro_train","subcategory":"metro","geometry_type":"Point","address":null,"equipment_type":"AZUL","administrative_sphere":null,"included_in_metrics":true,"exclusion_reason":null,"override_reason":null,"outside_boundary":false}},{"type":"Feature","geometry":{"type":"Point","coordinates":[-46.64099088,-23.64648321]},"properties":{"id":"sp_geosampa_estacao_metro:estacao_metro.56","source_id":"sp_geosampa_estacao_metro","name":"JABAQUARA","name_derived":false,"category":"metro_train","subcategory":"metro","geometry_type":"Point","address":null,"equipment_type":"AZUL","administrative_sphere":null,"included_in_metrics":true,"exclusion_reason":null,"override_reason":null,"outside_boundary":false}},{"type":"Feature","geometry":{"type":"Point","coordinates":[-46.56189996,-23.58217758]},"properties":{"id":"sp_geosampa_estacao_metro:estacao_metro.57","source_id":"sp_geosampa_estacao_metro","name":"ORATÓRIO","name_derived":false,"category":"metro_train","subcategory":"metro","geometry_type":"Point","address":null,"equipment_type":"PRATA","administrative_sphere":null,"included_in_metrics":true,"exclusion_reason":null,"override_reason":null,"outside_boundary":false}},{"type":"Feature","geometry":{"type":"Point","coordinates":[-46.58378796,-23.58474956]},"properties":{"id":"sp_geosampa_estacao_metro:estacao_metro.58","source_id":"sp_geosampa_estacao_metro","name":"VILA PRUDENTE","name_derived":false,"category":"metro_train","subcategory":"metro","geometry_type":"Point","address":null,"equipment_type":"PRATA","administrative_sphere":null,"included_in_metrics":true,"exclusion_reason":null,"override_reason":null,"outside_boundary":false}},{"type":"Feature","geometry":{"type":"Point","coordinates":[-46.5443694,-23.58929459]},"properties":{"id":"sp_geosampa_estacao_metro:estacao_metro.59","source_id":"sp_geosampa_estacao_metro","name":"SÃO LUCAS","name_derived":false,"category":"metro_train","subcategory":"metro","geometry_type":"Point","address":null,"equipment_type":"PRATA","administrative_sphere":null,"included_in_metrics":true,"exclusion_reason":null,"override_reason":null,"outside_boundary":false}},{"type":"Feature","geometry":{"type":"Point","coordinates":[-46.52709516,-23.60092053]},"properties":{"id":"sp_geosampa_estacao_metro:estacao_metro.60","source_id":"sp_geosampa_estacao_metro","name":"VILA TOLSTÓI","name_derived":false,"category":"metro_train","subcategory":"metro","geometry_type":"Point","address":null,"equipment_type":"PRATA","administrative_sphere":null,"included_in_metrics":true,"exclusion_reason":null,"override_reason":null,"outside_boundary":false}},{"type":"Feature","geometry":{"type":"Point","coordinates":[-46.516113,-23.60286983]},"properties":{"id":"sp_geosampa_estacao_metro:estacao_metro.61","source_id":"sp_geosampa_estacao_metro","name":"VILA UNIÃO","name_derived":false,"category":"metro_train","subcategory":"metro","geometry_type":"Point","address":null,"equipment_type":"PRATA","administrative_sphere":null,"included_in_metrics":true,"exclusion_reason":null,"override_reason":null,"outside_boundary":false}},{"type":"Feature","geometry":{"type":"Point","coordinates":[-46.5376932,-23.59541293]},"properties":{"id":"sp_geosampa_estacao_metro:estacao_metro.62","source_id":"sp_geosampa_estacao_metro","name":"CAMILO HADDAD","name_derived":false,"category":"metro_train","subcategory":"metro","geometry_type":"Point","address":null,"equipment_type":"PRATA","administrative_sphere":null,"included_in_metrics":true,"exclusion_reason":null,"override_reason":null,"outside_boundary":false}},{"type":"Feature","geometry":{"type":"Point","coordinates":[-46.7680122,-23.65929923]},"properties":{"id":"sp_geosampa_estacao_metro:estacao_metro.63","source_id":"sp_geosampa_estacao_metro","name":"CAPÃO REDONDO","name_derived":false,"category":"metro_train","subcategory":"metro","geometry_type":"Point","address":null,"equipment_type":"LILAS","administrative_sphere":null,"included_in_metrics":true,"exclusion_reason":null,"override_reason":null,"outside_boundary":false}},{"type":"Feature","geometry":{"type":"Point","coordinates":[-46.75896072,-23.64938436]},"properties":{"id":"sp_geosampa_estacao_metro:estacao_metro.64","source_id":"sp_geosampa_estacao_metro","name":"CAMPO LIMPO","name_derived":false,"category":"metro_train","subcategory":"metro","geometry_type":"Point","address":null,"equipment_type":"LILAS","administrative_sphere":null,"included_in_metrics":true,"exclusion_reason":null,"override_reason":null,"outside_boundary":false}},{"type":"Feature","geometry":{"type":"Point","coordinates":[-46.74573648,-23.64040617]},"properties":{"id":"sp_geosampa_estacao_metro:estacao_metro.65","source_id":"sp_geosampa_estacao_metro","name":"VILA DAS BELEZAS","name_derived":false,"category":"metro_train","subcategory":"metro","geometry_type":"Point","address":null,"equipment_type":"LILAS","administrative_sphere":null,"included_in_metrics":true,"exclusion_reason":null,"override_reason":null,"outside_boundary":false}},{"type":"Feature","geometry":{"type":"Point","coordinates":[-46.73409624,-23.6439647]},"properties":{"id":"sp_geosampa_estacao_metro:estacao_metro.66","source_id":"sp_geosampa_estacao_metro","name":"GIOVANNI GRONCHI","name_derived":false,"category":"metro_train","subcategory":"metro","geometry_type":"Point","address":null,"equipment_type":"LILAS","administrative_sphere":null,"included_in_metrics":true,"exclusion_reason":null,"override_reason":null,"outside_boundary":false}},{"type":"Feature","geometry":{"type":"Point","coordinates":[-46.72093428,-23.65575018]},"properties":{"id":"sp_geosampa_estacao_metro:estacao_metro.67","source_id":"sp_geosampa_estacao_metro","name":"SANTO AMARO","name_derived":false,"category":"metro_train","subcategory":"metro","geometry_type":"Point","address":null,"equipment_type":"LILAS","administrative_sphere":null,"included_in_metrics":true,"exclusion_reason":null,"override_reason":null,"outside_boundary":false}},{"type":"Feature","geometry":{"type":"Point","coordinates":[-46.70953524,-23.65446316]},"properties":{"id":"sp_geosampa_estacao_metro:estacao_metro.68","source_id":"sp_geosampa_estacao_metro","name":"LARGO TREZE","name_derived":false,"category":"metro_train","subcategory":"metro","geometry_type":"Point","address":null,"equipment_type":"LILAS","administrative_sphere":null,"included_in_metrics":true,"exclusion_reason":null,"override_reason":null,"outside_boundary":false}},{"type":"Feature","geometry":{"type":"Point","coordinates":[-46.7038836,-23.64965262]},"properties":{"id":"sp_geosampa_estacao_metro:estacao_metro.69","source_id":"sp_geosampa_estacao_metro","name":"ADOLFO PINHEIRO","name_derived":false,"category":"metro_train","subcategory":"metro","geometry_type":"Point","address":null,"equipment_type":"LILAS","administrative_sphere":null,"included_in_metrics":true,"exclusion_reason":null,"override_reason":null,"outside_boundary":false}},{"type":"Feature","geometry":{"type":"Point","coordinates":[-46.69905564,-23.64150089]},"properties":{"id":"sp_geosampa_estacao_metro:estacao_metro.70","source_id":"sp_geosampa_estacao_metro","name":"ALTO DA BOA VISTA","name_derived":false,"category":"metro_train","subcategory":"metro","geometry_type":"Point","address":null,"equipment_type":"LILAS","administrative_sphere":null,"included_in_metrics":true,"exclusion_reason":null,"override_reason":null,"outside_boundary":false}},{"type":"Feature","geometry":{"type":"Point","coordinates":[-46.6930152,-23.63336119]},"properties":{"id":"sp_geosampa_estacao_metro:estacao_metro.71","source_id":"sp_geosampa_estacao_metro","name":"BORBA GATO","name_derived":false,"category":"metro_train","subcategory":"metro","geometry_type":"Point","address":null,"equipment_type":"LILAS","administrative_sphere":null,"included_in_metrics":true,"exclusion_reason":null,"override_reason":null,"outside_boundary":false}},{"type":"Feature","geometry":{"type":"Point","coordinates":[-46.68802848,-23.6272532]},"properties":{"id":"sp_geosampa_estacao_metro:estacao_metro.72","source_id":"sp_geosampa_estacao_metro","name":"BROOKLIN","name_derived":false,"category":"metro_train","subcategory":"metro","geometry_type":"Point","address":null,"equipment_type":"LILAS","administrative_sphere":null,"included_in_metrics":true,"exclusion_reason":null,"override_reason":null,"outside_boundary":false}},{"type":"Feature","geometry":{"type":"Point","coordinates":[-46.66899132,-23.61014504]},"properties":{"id":"sp_geosampa_estacao_metro:estacao_metro.73","source_id":"sp_geosampa_estacao_metro","name":"EUCALIPTOS","name_derived":false,"category":"metro_train","subcategory":"metro","geometry_type":"Point","address":null,"equipment_type":"LILAS","administrative_sphere":null,"included_in_metrics":true,"exclusion_reason":null,"override_reason":null,"outside_boundary":false}},{"type":"Feature","geometry":{"type":"Point","coordinates":[-46.6619868,-23.60332886]},"properties":{"id":"sp_geosampa_estacao_metro:estacao_metro.74","source_id":"sp_geosampa_estacao_metro","name":"MOEMA","name_derived":false,"category":"metro_train","subcategory":"metro","geometry_type":"Point","address":null,"equipment_type":"LILAS","administrative_sphere":null,"included_in_metrics":true,"exclusion_reason":null,"override_reason":null,"outside_boundary":false}},{"type":"Feature","geometry":{"type":"Point","coordinates":[-46.64535984,-23.59815983]},"properties":{"id":"sp_geosampa_estacao_metro:estacao_metro.75","source_id":"sp_geosampa_estacao_metro","name":"HOSPITAL SÃO PAULO","name_derived":false,"category":"metro_train","subcategory":"metro","geometry_type":"Point","address":null,"equipment_type":"LILAS","administrative_sphere":null,"included_in_metrics":true,"exclusion_reason":null,"override_reason":null,"outside_boundary":false}},{"type":"Feature","geometry":{"type":"Point","coordinates":[-46.6371774,-23.59847538]},"properties":{"id":"sp_geosampa_estacao_metro:estacao_metro.76","source_id":"sp_geosampa_estacao_metro","name":"SANTA CRUZ","name_derived":false,"category":"metro_train","subcategory":"metro","geometry_type":"Point","address":null,"equipment_type":"LILAS","administrative_sphere":null,"included_in_metrics":true,"exclusion_reason":null,"override_reason":null,"outside_boundary":false}},{"type":"Feature","geometry":{"type":"Point","coordinates":[-46.63048644,-23.59263183]},"properties":{"id":"sp_geosampa_estacao_metro:estacao_metro.77","source_id":"sp_geosampa_estacao_metro","name":"CHÁCARA KLABIN","name_derived":false,"category":"metro_train","subcategory":"metro","geometry_type":"Point","address":null,"equipment_type":"LILAS","administrative_sphere":null,"included_in_metrics":true,"exclusion_reason":null,"override_reason":null,"outside_boundary":false}},{"type":"Feature","geometry":{"type":"Point","coordinates":[-46.65179988,-23.59763596]},"properties":{"id":"sp_geosampa_estacao_metro:estacao_metro.78","source_id":"sp_geosampa_estacao_metro","name":"AACD-SERVIDOR","name_derived":false,"category":"metro_train","subcategory":"metro","geometry_type":"Point","address":null,"equipment_type":"LILAS","administrative_sphere":null,"included_in_metrics":true,"exclusion_reason":null,"override_reason":null,"outside_boundary":false}},{"type":"Feature","geometry":{"type":"Point","coordinates":[-46.6344918,-23.53615475]},"properties":{"id":"sp_geosampa_estacao_metro:estacao_metro.79","source_id":"sp_geosampa_estacao_metro","name":"LUZ","name_derived":false,"category":"metro_train","subcategory":"metro","geometry_type":"Point","address":null,"equipment_type":"AMARELA","administrative_sphere":null,"included_in_metrics":true,"exclusion_reason":null,"override_reason":null,"outside_boundary":false}},{"type":"Feature","geometry":{"type":"Point","coordinates":[-46.64302524,-23.54458216]},"properties":{"id":"sp_geosampa_estacao_metro:estacao_metro.80","source_id":"sp_geosampa_estacao_metro","name":"REPÚBLICA","name_derived":false,"category":"metro_train","subcategory":"metro","geometry_type":"Point","address":null,"equipment_type":"AMARELA","administrative_sphere":null,"included_in_metrics":true,"exclusion_reason":null,"override_reason":null,"outside_boundary":false}},{"type":"Feature","geometry":{"type":"Point","coordinates":[-46.6621866,-23.55507587]},"properties":{"id":"sp_geosampa_estacao_metro:estacao_metro.81","source_id":"sp_geosampa_estacao_metro","name":"PAULISTA","name_derived":false,"category":"metro_train","subcategory":"metro","geometry_type":"Point","address":null,"equipment_type":"AMARELA","administrative_sphere":null,"included_in_metrics":true,"exclusion_reason":null,"override_reason":null,"outside_boundary":false}},{"type":"Feature","geometry":{"type":"Point","coordinates":[-46.69398792,-23.56715823]},"properties":{"id":"sp_geosampa_estacao_metro:estacao_metro.82","source_id":"sp_geosampa_estacao_metro","name":"FARIA LIMA","name_derived":false,"category":"metro_train","subcategory":"metro","geometry_type":"Point","address":null,"equipment_type":"AMARELA","administrative_sphere":null,"included_in_metrics":true,"exclusion_reason":null,"override_reason":null,"outside_boundary":false}},{"type":"Feature","geometry":{"type":"Point","coordinates":[-46.70169552,-23.56718347]},"properties":{"id":"sp_geosampa_estacao_metro:estacao_metro.83","source_id":"sp_geosampa_estacao_metro","name":"PINHEIROS","name_derived":false,"category":"metro_train","subcategory":"metro","geometry_type":"Point","address":null,"equipment_type":"AMARELA","administrative_sphere":null,"included_in_metrics":true,"exclusion_reason":null,"override_reason":null,"outside_boundary":false}},{"type":"Feature","geometry":{"type":"Point","coordinates":[-46.7082396,-23.5719929]},"properties":{"id":"sp_geosampa_estacao_metro:estacao_metro.84","source_id":"sp_geosampa_estacao_metro","name":"BUTANTÃ","name_derived":false,"category":"metro_train","subcategory":"metro","geometry_type":"Point","address":null,"equipment_type":"AMARELA","administrative_sphere":null,"included_in_metrics":true,"exclusion_reason":null,"override_reason":null,"outside_boundary":false}},{"type":"Feature","geometry":{"type":"Point","coordinates":[-46.68416496,-23.56616863]},"properties":{"id":"sp_geosampa_estacao_metro:estacao_metro.85","source_id":"sp_geosampa_estacao_metro","name":"FRADIQUE COUTINHO","name_derived":false,"category":"metro_train","subcategory":"metro","geometry_type":"Point","address":null,"equipment_type":"AMARELA","administrative_sphere":null,"included_in_metrics":true,"exclusion_reason":null,"override_reason":null,"outside_boundary":false}},{"type":"Feature","geometry":{"type":"Point","coordinates":[-46.6522614,-23.54895152]},"properties":{"id":"sp_geosampa_estacao_metro:estacao_metro.86","source_id":"sp_geosampa_estacao_metro","name":"HIGIENÓPOLIS-MACKENZIE","name_derived":false,"category":"metro_train","subcategory":"metro","geometry_type":"Point","address":null,"equipment_type":"AMARELA","administrative_sphere":null,"included_in_metrics":true,"exclusion_reason":null,"override_reason":null,"outside_boundary":false}},{"type":"Feature","geometry":{"type":"Point","coordinates":[-46.67208372,-23.56051817]},"properties":{"id":"sp_geosampa_estacao_metro:estacao_metro.87","source_id":"sp_geosampa_estacao_metro","name":"OSCAR FREIRE","name_derived":false,"category":"metro_train","subcategory":"metro","geometry_type":"Point","address":null,"equipment_type":"AMARELA","administrative_sphere":null,"included_in_metrics":true,"exclusion_reason":null,"override_reason":null,"outside_boundary":false}},{"type":"Feature","geometry":{"type":"Point","coordinates":[-46.72383012,-23.58638894]},"properties":{"id":"sp_geosampa_estacao_metro:estacao_metro.88","source_id":"sp_geosampa_estacao_metro","name":"SÃO PAULO-MORUMBI","name_derived":false,"category":"metro_train","subcategory":"metro","geometry_type":"Point","address":null,"equipment_type":"AMARELA","administrative_sphere":null,"included_in_metrics":true,"exclusion_reason":null,"override_reason":null,"outside_boundary":false}},{"type":"Feature","geometry":{"type":"Point","coordinates":[-46.68231888,-23.61897391]},"properties":{"id":"sp_geosampa_estacao_metro:estacao_metro.89","source_id":"sp_geosampa_estacao_metro","name":"CAMPO BELO","name_derived":false,"category":"metro_train","subcategory":"metro","geometry_type":"Point","address":null,"equipment_type":"LILAS","administrative_sphere":null,"included_in_metrics":true,"exclusion_reason":null,"override_reason":null,"outside_boundary":false}},{"type":"Feature","geometry":{"type":"Point","coordinates":[-46.47668223,-23.61208758]},"properties":{"id":"sp_geosampa_estacao_metro:estacao_metro.90","source_id":"sp_geosampa_estacao_metro","name":"SÃO MATEUS","name_derived":false,"category":"metro_train","subcategory":"metro","geometry_type":"Point","address":null,"equipment_type":"PRATA","administrative_sphere":null,"included_in_metrics":true,"exclusion_reason":null,"override_reason":null,"outside_boundary":false}},{"type":"Feature","geometry":{"type":"Point","coordinates":[-46.4874719,-23.61168829]},"properties":{"id":"sp_geosampa_estacao_metro:estacao_metro.91","source_id":"sp_geosampa_estacao_metro","name":"FAZENDA DA JUTA","name_derived":false,"category":"metro_train","subcategory":"metro","geometry_type":"Point","address":null,"equipment_type":"PRATA","administrative_sphere":null,"included_in_metrics":true,"exclusion_reason":null,"override_reason":null,"outside_boundary":false}},{"type":"Feature","geometry":{"type":"Point","coordinates":[-46.50142723,-23.61475302]},"properties":{"id":"sp_geosampa_estacao_metro:estacao_metro.92","source_id":"sp_geosampa_estacao_metro","name":"SAPOPEMBA","name_derived":false,"category":"metro_train","subcategory":"metro","geometry_type":"Point","address":null,"equipment_type":"PRATA","administrative_sphere":null,"included_in_metrics":true,"exclusion_reason":null,"override_reason":null,"outside_boundary":false}},{"type":"Feature","geometry":{"type":"Point","coordinates":[-46.50705248,-23.60739076]},"properties":{"id":"sp_geosampa_estacao_metro:estacao_metro.93","source_id":"sp_geosampa_estacao_metro","name":"JARDIM PLANALTO","name_derived":false,"category":"metro_train","subcategory":"metro","geometry_type":"Point","address":null,"equipment_type":"PRATA","administrative_sphere":null,"included_in_metrics":true,"exclusion_reason":null,"override_reason":null,"outside_boundary":false}},{"type":"Feature","geometry":{"type":"Point","coordinates":[-46.73475752,-23.59341763]},"properties":{"id":"sp_geosampa_estacao_metro:estacao_metro.94","source_id":"sp_geosampa_estacao_metro","name":"VILA SÔNIA","name_derived":false,"category":"metro_train","subcategory":"metro","geometry_type":"Point","address":null,"equipment_type":"AMARELA","administrative_sphere":null,"included_in_metrics":true,"exclusion_reason":null,"override_reason":null,"outside_boundary":false}}]}
