{"type":"FeatureCollection","features":[{"type":"Feature","geometry":{"type":"Point","coordinates":[-46.63222837,-23.52892727]},"properties":{"id":"sp_geosampa_cras:equipamento_assistencia_social.31245","source_id":"sp_geosampa_cras","name":"CRAS Sé","name_derived":true,"category":"cras","subcategory":null,"geometry_type":"Point","address":"AVENIDA TIRADENTES, 749, 01101-010","equipment_type":"CENTRO DE REFERÊNCIA DE ASSISTÊNCIA SOCIAL - CRAS","administrative_sphere":null,"included_in_metrics":true,"exclusion_reason":null,"override_reason":null,"outside_boundary":false}},{"type":"Feature","geometry":{"type":"Point","coordinates":[-46.55069968,-23.56119507]},"properties":{"id":"sp_geosampa_cras:equipamento_assistencia_social.31246","source_id":"sp_geosampa_cras","name":"CRAS Aricanduva","name_derived":true,"category":"cras","subcategory":null,"geometry_type":"Point","address":"RUA SAO CONSTANCIO, 457, 03414-010","equipment_type":"CENTRO DE REFERÊNCIA DE ASSISTÊNCIA SOCIAL - CRAS","administrative_sphere":null,"included_in_metrics":true,"exclusion_reason":null,"override_reason":null,"outside_boundary":false}},{"type":"Feature","geometry":{"type":"Point","coordinates":[-46.49359756,-23.54220307]},"properties":{"id":"sp_geosampa_cras:equipamento_assistencia_social.31247","source_id":"sp_geosampa_cras","name":null,"name_derived":false,"category":"cras","subcategory":null,"geometry_type":"Point","address":"RUA HENRIQUE JACOBS, 788, 03566-010","equipment_type":"CENTRO DE REFERÊNCIA DE ASSISTÊNCIA SOCIAL - CRAS","administrative_sphere":null,"included_in_metrics":true,"exclusion_reason":null,"override_reason":null,"outside_boundary":false}},{"type":"Feature","geometry":{"type":"Point","coordinates":[-46.47510898,-23.55914348]},"properties":{"id":"sp_geosampa_cras:equipamento_assistencia_social.31248","source_id":"sp_geosampa_cras","name":"CRAS Cidade Líder","name_derived":true,"category":"cras","subcategory":null,"geometry_type":"Point","address":"AVENIDA MARIA LUIZA AMERICANO, 2681, 08280-190","equipment_type":"CENTRO DE REFERÊNCIA DE ASSISTÊNCIA SOCIAL - CRAS","administrative_sphere":null,"included_in_metrics":true,"exclusion_reason":null,"override_reason":null,"outside_boundary":false}},{"type":"Feature","geometry":{"type":"Point","coordinates":[-46.41190831,-23.58917494]},"properties":{"id":"sp_geosampa_cras:equipamento_assistencia_social.31249","source_id":"sp_geosampa_cras","name":"CRAS Cidade Tiradentes","name_derived":true,"category":"cras","subcategory":null,"geometry_type":"Point","address":"RUA NASCER DO SOL, 529, 08485-020","equipment_type":"CENTRO DE REFERÊNCIA DE ASSISTÊNCIA SOCIAL - CRAS","administrative_sphere":null,"included_in_metrics":true,"exclusion_reason":null,"override_reason":null,"outside_boundary":false}},{"type":"Feature","geometry":{"type":"Point","coordinates":[-46.47840713,-23.4930455]},"properties":{"id":"sp_geosampa_cras:equipamento_assistencia_social.31250","source_id":"sp_geosampa_cras","name":"CRAS Ermelino Matarazzo","name_derived":true,"category":"cras","subcategory":null,"geometry_type":"Point","address":"AVENIDA PARANAGUA, 1492, 03806-010","equipment_type":"CENTRO DE REFERÊNCIA DE ASSISTÊNCIA SOCIAL - CRAS","administrative_sphere":null,"included_in_metrics":true,"exclusion_reason":null,"override_reason":null,"outside_boundary":false}},{"type":"Feature","geometry":{"type":"Point","coordinates":[-46.4091959,-23.54459918]},"properties":{"id":"sp_geosampa_cras:equipamento_assistencia_social.31251","source_id":"sp_geosampa_cras","name":"CRAS Guaianases","name_derived":true,"category":"cras","subcategory":null,"geometry_type":"Point","address":"RUA CLARINIA, 19, 08412-010","equipment_type":"CENTRO DE REFERÊNCIA DE ASSISTÊNCIA SOCIAL - CRAS","administrative_sphere":null,"included_in_metrics":true,"exclusion_reason":null,"override_reason":null,"outside_boundary":false}},{"type":"Feature","geometry":{"type":"Point","coordinates":[-46.44143827,-23.59562388]},"properties":{"id":"sp_geosampa_cras:equipamento_assistencia_social.31252","source_id":"sp_geosampa_cras","name":"CRAS Iguatemi","name_derived":true,"category":"cras","subcategory":null,"geometry_type":"Point","address":"RUA JORGE BARROS, 88/92, 08380-051","equipment_type":"CENTRO DE REFERÊNCIA DE ASSISTÊNCIA SOCIAL - CRAS","administrative_sphere":null,"included_in_metrics":true,"exclusion_reason":null,"override_reason":null,"outside_boundary":false}},{"type":"Feature","geometry":{"type":"Point","coordinates":[-46.40511165,-23.49555534]},"properties":{"id":"sp_geosampa_cras:equipamento_assistencia_social.31253","source_id":"sp_geosampa_cras","name":"CRAS Itaim Paulista I","name_derived":true,"category":"cras","subcategory":null,"geometry_type":"Point","address":"ESTRADA D JOAO NERY, 58, 08110-000","equipment_type":"CENTRO DE REFERÊNCIA DE ASSISTÊNCIA SOCIAL - CRAS","administrative_sphere":null,"included_in_metrics":true,"exclusion_reason":null,"override_reason":null,"outside_boundary":false}},{"type":"Feature","geometry":{"type":"Point","coordinates":[-46.38986903,-23.5132561]},"properties":{"id":"sp_geosampa_cras:equipamento_assistencia_social.31254","source_id":"sp_geosampa_cras","name":"CRAS Itaim Paulista II","name_derived":true,"category":"cras","subcategory":null,"geometry_type":"Point","address":"RUA DANIEL MULLER, 347, 08141-290","equipment_type":"CENTRO DE REFERÊNCIA DE ASSISTÊNCIA SOCIAL - CRAS","administrative_sphere":null,"included_in_metrics":true,"exclusion_reason":null,"override_reason":null,"outside_boundary":false}},{"type":"Feature","geometry":{"type":"Point","coordinates":[-46.45550895,-23.54832697]},"properties":{"id":"sp_geosampa_cras:equipamento_assistencia_social.31255","source_id":"sp_geosampa_cras","name":"CRAS Itaquera","name_derived":true,"category":"cras","subcategory":null,"geometry_type":"Point","address":"RUA FONTOURA XAVIER, 695, 08295-300","equipment_type":"CENTRO DE REFERÊNCIA DE ASSISTÊNCIA SOCIAL - CRAS","administrative_sphere":null,"included_in_metrics":true,"exclusion_reason":null,"override_reason":null,"outside_boundary":false}},{"type":"Feature","geometry":{"type":"Point","coordinates":[-46.40424437,-23.53566429]},"properties":{"id":"sp_geosampa_cras:equipamento_assistencia_social.31256","source_id":"sp_geosampa_cras","name":"CRAS Lajeado","name_derived":true,"category":"cras","subcategory":null,"geometry_type":"Point","address":"RUA CRUZ DO ESPIRITO SANTO, 1142 C, 08440-470","equipment_type":"CENTRO DE REFERÊNCIA DE ASSISTÊNCIA SOCIAL - CRAS","administrative_sphere":null,"included_in_metrics":true,"exclusion_reason":null,"override_reason":null,"outside_boundary":false}},{"type":"Feature","geometry":{"type":"Point","coordinates":[-46.5776943,-23.53665406]},"properties":{"id":"sp_geosampa_cras:equipamento_assistencia_social.31257","source_id":"sp_geosampa_cras","name":"CRAS Mooca","name_derived":true,"category":"cras","subcategory":null,"geometry_type":"Point","address":"RUA HENRIQUE SERTORIO, 175, 03066-065","equipment_type":"CENTRO DE REFERÊNCIA DE ASSISTÊNCIA SOCIAL - CRAS","administrative_sphere":null,"included_in_metrics":true,"exclusion_reason":null,"override_reason":null,"outside_boundary":false}},{"type":"Feature","geometry":{"type":"Point","coordinates":[-46.49368302,-23.54215574]},"properties":{"id":"sp_geosampa_cras:equipamento_assistencia_social.31258","source_id":"sp_geosampa_cras","name":null,"name_derived":false,"category":"cras","subcategory":null,"geometry_type":"Point","address":"RUA HENRIQUE JACOBS, 788, 03605-000","equipment_type":"CENTRO DE REFERÊNCIA DE ASSISTÊNCIA SOCIAL - CRAS","administrative_sphere":null,"included_in_metrics":true,"exclusion_reason":null,"override_reason":null,"outside_boundary":false}},{"type":"Feature","geometry":{"type":"Point","coordinates":[-46.47561862,-23.61011383]},"properties":{"id":"sp_geosampa_cras:equipamento_assistencia_social.31259","source_id":"sp_geosampa_cras","name":"CRAS São Mateus","name_derived":true,"category":"cras","subcategory":null,"geometry_type":"Point","address":"RUA ELISIO FERREIRA, 519, 03964-010","equipment_type":"CENTRO DE REFERÊNCIA DE ASSISTÊNCIA SOCIAL - CRAS","administrative_sphere":null,"included_in_metrics":true,"exclusion_reason":null,"override_reason":null,"outside_boundary":false}},{"type":"Feature","geometry":{"type":"Point","coordinates":[-46.43946427,-23.49745602]},"properties":{"id":"sp_geosampa_cras:equipamento_assistencia_social.31260","source_id":"sp_geosampa_cras","name":"CRAS São Miguel","name_derived":true,"category":"cras","subcategory":null,"geometry_type":"Point","address":"RUA DR JOSE GUILHERME EIRAS, 182, 08010-220","equipment_type":"CENTRO DE REFERÊNCIA DE ASSISTÊNCIA SOCIAL - CRAS","administrative_sphere":null,"included_in_metrics":true,"exclusion_reason":null,"override_reason":null,"outside_boundary":false}},{"type":"Feature","geometry":{"type":"Point","coordinates":[-46.51625512,-23.59852271]},"properties":{"id":"sp_geosampa_cras:equipamento_assistencia_social.31261","source_id":"sp_geosampa_cras","name":"CRAS Sapopemba","name_derived":true,"category":"cras","subcategory":null,"geometry_type":"Point","address":"RUA BENEDITO JACINTO MENDES, 54, 03922-000","equipment_type":"CENTRO DE REFERÊNCIA DE ASSISTÊNCIA SOCIAL - CRAS","administrative_sphere":null,"included_in_metrics":true,"exclusion_reason":null,"override_reason":null,"outside_boundary":false}},{"type":"Feature","geometry":{"type":"Point","coordinates":[-46.42694375,-23.50123253]},"properties":{"id":"sp_geosampa_cras:equipamento_assistencia_social.31262","source_id":"sp_geosampa_cras","name":"CRAS Vila Curuçá","name_derived":true,"category":"cras","subcategory":null,"geometry_type":"Point","address":"AVENIDA COCA, 341, 08030-000","equipment_type":"CENTRO DE REFERÊNCIA DE ASSISTÊNCIA SOCIAL - CRAS","administrative_sphere":null,"included_in_metrics":true,"exclusion_reason":null,"override_reason":null,"outside_boundary":false}},{"type":"Feature","geometry":{"type":"Point","coordinates":[-46.58655949,-23.58020058]},"properties":{"id":"sp_geosampa_cras:equipamento_assistencia_social.31263","source_id":"sp_geosampa_cras","name":"CRAS Vila Prudente","name_derived":true,"category":"cras","subcategory":null,"geometry_type":"Point","address":"AVENIDA PAES DE BARROS, 3349, 03149-100","equipment_type":"CENTRO DE REFERÊNCIA DE ASSISTÊNCIA SOCIAL - CRAS","administrative_sphere":null,"included_in_metrics":true,"exclusion_reason":null,"override_reason":null,"outside_boundary":false}},{"type":"Feature","geometry":{"type":"Point","coordinates":[-46.79111714,-23.4306858]},"properties":{"id":"sp_geosampa_cras:equipamento_assistencia_social.31264","source_id":"sp_geosampa_cras","name":"CRAS Anhanguera","name_derived":true,"category":"cras","subcategory":null,"geometry_type":"Point","address":"AVENIDA PIERO TRICCA, 27, 05271-240","equipment_type":"CENTRO DE REFERÊNCIA DE ASSISTÊNCIA SOCIAL - CRAS","administrative_sphere":null,"included_in_metrics":true,"exclusion_reason":null,"override_reason":null,"outside_boundary":false}},{"type":"Feature","geometry":{"type":"Point","coordinates":[-46.68880685,-23.47473196]},"properties":{"id":"sp_geosampa_cras:equipamento_assistencia_social.31265","source_id":"sp_geosampa_cras","name":"CRAS Brasilândia I","name_derived":true,"category":"cras","subcategory":null,"geometry_type":"Point","address":"RUA BARAO DE SANTO ANGELO, 147, 02842-000","equipment_type":"CENTRO DE REFERÊNCIA DE ASSISTÊNCIA SOCIAL - CRAS","administrative_sphere":null,"included_in_metrics":true,"exclusion_reason":null,"override_reason":null,"outside_boundary":false}},{"type":"Feature","geometry":{"type":"Point","coordinates":[-46.68156794,-23.47768526]},"properties":{"id":"sp_geosampa_cras:equipamento_assistencia_social.31266","source_id":"sp_geosampa_cras","name":null,"name_derived":false,"category":"cras","subcategory":null,"geometry_type":"Point","address":"AVENIDA ITABERABA, 3666, 02739-000","equipment_type":"CENTRO DE REFERÊNCIA DE ASSISTÊNCIA SOCIAL - CRAS","administrative_sphere":null,"included_in_metrics":true,"exclusion_reason":null,"override_reason":null,"outside_boundary":false}},{"type":"Feature","geometry":{"type":"Point","coordinates":[-46.68781374,-23.45048122]},"properties":{"id":"sp_geosampa_cras:equipamento_assistencia_social.31267","source_id":"sp_geosampa_cras","name":"CRAS Brasilândia III","name_derived":true,"category":"cras","subcategory":null,"geometry_type":"Point","address":"RUA IBIRAIARAS, 372, 02878-080","equipment_type":"CENTRO DE REFERÊNCIA DE ASSISTÊNCIA SOCIAL - CRAS","administrative_sphere":null,"included_in_metrics":true,"exclusion_reason":null,"override_reason":null,"outside_boundary":false}},{"type":"Feature","geometry":{"type":"Point","coordinates":[-46.66470864,-23.47514108]},"properties":{"id":"sp_geosampa_cras:equipamento_assistencia_social.31268","source_id":"sp_geosampa_cras","name":"CRAS Cachoeirinha","name_derived":true,"category":"cras","subcategory":null,"geometry_type":"Point","address":"AVENIDA IMIRIM, 4328, 02464-700","equipment_type":"CENTRO DE REFERÊNCIA DE ASSISTÊNCIA SOCIAL - CRAS","administrative_sphere":null,"included_in_metrics":true,"exclusion_reason":null,"override_reason":null,"outside_boundary":false}},{"type":"Feature","geometry":{"type":"Point","coordinates":[-46.65671854,-23.4922456]},"properties":{"id":"sp_geosampa_cras:equipamento_assistencia_social.31269","source_id":"sp_geosampa_cras","name":"CRAS Casa Verde","name_derived":true,"category":"cras","subcategory":null,"geometry_type":"Point","address":"AVENIDA ENGENHEIRO CAETANO ALVARES, 3054, 02535-008","equipment_type":"CENTRO DE REFERÊNCIA DE ASSISTÊNCIA SOCIAL - CRAS","administrative_sphere":null,"included_in_metrics":true,"exclusion_reason":null,"override_reason":null,"outside_boundary":false}},{"type":"Feature","geometry":{"type":"Point","coordinates":[-46.69654705,-23.49332583]},"properties":{"id":"sp_geosampa_cras:equipamento_assistencia_social.31270","source_id":"sp_geosampa_cras","name":null,"name_derived":false,"category":"cras","subcategory":null,"geometry_type":"Point","address":"AVENIDA ITABERABA, 924, 02734-000","equipment_type":"CENTRO DE REFERÊNCIA DE ASSISTÊNCIA SOCIAL - CRAS","administrative_sphere":null,"included_in_metrics":true,"exclusion_reason":null,"override_reason":null,"outside_boundary":false}},{"type":"Feature","geometry":{"type":"Point","coordinates":[-46.58603346,-23.47063819]},"properties":{"id":"sp_geosampa_cras:equipamento_assistencia_social.31271","source_id":"sp_geosampa_cras","name":"CRAS Jaçanã","name_derived":true,"category":"cras","subcategory":null,"geometry_type":"Point","address":"AVENIDA GUAPIRA, 2145, 02265-002","equipment_type":"CENTRO DE REFERÊNCIA DE ASSISTÊNCIA SOCIAL - CRAS","administrative_sphere":null,"included_in_metrics":true,"exclusion_reason":null,"override_reason":null,"outside_boundary":false}},{"type":"Feature","geometry":{"type":"Point","coordinates":[-46.73007617,-23.45098729]},"properties":{"id":"sp_geosampa_cras:equipamento_assistencia_social.31272","source_id":"sp_geosampa_cras","name":"CRAS Jaraguá","name_derived":true,"category":"cras","subcategory":null,"geometry_type":"Point","address":"RUA BARRA DA FORQUILHA, 300, 02993-000","equipment_type":"CENTRO DE REFERÊNCIA DE ASSISTÊNCIA SOCIAL - CRAS","administrative_sphere":null,"included_in_metrics":true,"exclusion_reason":null,"override_reason":null,"outside_boundary":false}},{"type":"Feature","geometry":{"type":"Point","coordinates":[-46.755141,-23.40528233]},"properties":{"id":"sp_geosampa_cras:equipamento_assistencia_social.31273","source_id":"sp_geosampa_cras","name":"CRAS Perus","name_derived":true,"category":"cras","subcategory":null,"geometry_type":"Point","address":"RUA PADRE MANUEL CAMPELLO, 40, 05206-020","equipment_type":"CENTRO DE REFERÊNCIA DE ASSISTÊNCIA SOCIAL - CRAS","administrative_sphere":null,"included_in_metrics":true,"exclusion_reason":null,"override_reason":null,"outside_boundary":false}},{"type":"Feature","geometry":{"type":"Point","coordinates":[-46.72173852,-23.48569734]},"properties":{"id":"sp_geosampa_cras:equipamento_assistencia_social.31274","source_id":"sp_geosampa_cras","name":"CRAS Pirituba","name_derived":true,"category":"cras","subcategory":null,"geometry_type":"Point","address":"RUA GUERINO GIOVANI LEARDINI, 290, 02937-040","equipment_type":"CENTRO DE REFERÊNCIA DE ASSISTÊNCIA SOCIAL - CRAS","administrative_sphere":null,"included_in_metrics":true,"exclusion_reason":null,"override_reason":null,"outside_boundary":false}},{"type":"Feature","geometry":{"type":"Point","coordinates":[-46.63239544,-23.48114504]},"properties":{"id":"sp_geosampa_cras:equipamento_assistencia_social.31275","source_id":"sp_geosampa_cras","name":"CRAS Santana","name_derived":true,"category":"cras","subcategory":null,"geometry_type":"Point","address":"AVENIDA VOLUNTARIOS DA PATRIA, 4649, 02401-400","equipment_type":"CENTRO DE REFERÊNCIA DE ASSISTÊNCIA SOCIAL - CRAS","administrative_sphere":null,"included_in_metrics":true,"exclusion_reason":null,"override_reason":null,"outside_boundary":false}},{"type":"Feature","geometry":{"type":"Point","coordinates":[-46.59664078,-23.46431396]},"properties":{"id":"sp_geosampa_cras:equipamento_assistencia_social.31276","source_id":"sp_geosampa_cras","name":"CRAS Tremembé","name_derived":true,"category":"cras","subcategory":null,"geometry_type":"Point","address":"AVENIDA MARIO PERNAMBUCO, 43, 02314-000","equipment_type":"CENTRO DE REFERÊNCIA DE ASSISTÊNCIA SOCIAL - CRAS","administrative_sphere":null,"included_in_metrics":true,"exclusion_reason":null,"override_reason":null,"outside_boundary":false}},{"type":"Feature","geometry":{"type":"Point","coordinates":[-46.58631137,-23.51516983]},"properties":{"id":"sp_geosampa_cras:equipamento_assistencia_social.31277","source_id":"sp_geosampa_cras","name":"CRAS Vila Maria","name_derived":true,"category":"cras","subcategory":null,"geometry_type":"Point","address":"PRACA SANTO EDUARDO, 162, 02113-000","equipment_type":"CENTRO DE REFERÊNCIA DE ASSISTÊNCIA SOCIAL - CRAS","administrative_sphere":null,"included_in_metrics":true,"exclusion_reason":null,"override_reason":null,"outside_boundary":false}},{"type":"Feature","geometry":{"type":"Point","coordinates":[-46.58008807,-23.48803412]},"properties":{"id":"sp_geosampa_cras:equipamento_assistencia_social.31278","source_id":"sp_geosampa_cras","name":"CRAS Vila Medeiros","name_derived":true,"category":"cras","subcategory":null,"geometry_type":"Point","address":"AVENIDA GUSTAVO ADOLFO, 2202, 02209-001","equipment_type":"CENTRO DE REFERÊNCIA DE ASSISTÊNCIA SOCIAL - CRAS","administrative_sphere":null,"included_in_metrics":true,"exclusion_reason":null,"override_reason":null,"outside_boundary":false}},{"type":"Feature","geometry":{"type":"Point","coordinates":[-46.73772659,-23.58937981]},"properties":{"id":"sp_geosampa_cras:equipamento_assistencia_social.31279","source_id":"sp_geosampa_cras","name":"CRAS Butantã","name_derived":true,"category":"cras","subcategory":null,"geometry_type":"Point","address":"RUA JUNTA MIZUMOTO, 591, 05537-070","equipment_type":"CENTRO DE REFERÊNCIA DE ASSISTÊNCIA SOCIAL - CRAS","administrative_sphere":null,"included_in_metrics":true,"exclusion_reason":null,"override_reason":null,"outside_boundary":false}},{"type":"Feature","geometry":{"type":"Point","coordinates":[-46.6927564,-23.52796104]},"properties":{"id":"sp_geosampa_cras:equipamento_assistencia_social.31280","source_id":"sp_geosampa_cras","name":"CRAS Lapa","name_derived":true,"category":"cras","subcategory":null,"geometry_type":"Point","address":"RUA TITO, 104, 05051-000","equipment_type":"CENTRO DE REFERÊNCIA DE ASSISTÊNCIA SOCIAL - CRAS","administrative_sphere":null,"included_in_metrics":true,"exclusion_reason":null,"override_reason":null,"outside_boundary":false}},{"type":"Feature","geometry":{"type":"Point","coordinates":[-46.68555743,-23.56575248]},"properties":{"id":"sp_geosampa_cras:equipamento_assistencia_social.31281","source_id":"sp_geosampa_cras","name":"CRAS Pinheiros","name_derived":true,"category":"cras","subcategory":null,"geometry_type":"Point","address":"RUA MOURATO COELHO,106, 05417-000","equipment_type":"CENTRO DE REFERÊNCIA DE ASSISTÊNCIA SOCIAL - CRAS","administrative_sphere":null,"included_in_metrics":true,"exclusion_reason":null,"override_reason":null,"outside_boundary":false}},{"type":"Feature","geometry":{"type":"Point","coordinates":[-46.77195177,-23.63223576]},"properties":{"id":"sp_geosampa_cras:equipamento_assistencia_social.31282","source_id":"sp_geosampa_cras","name":"CRAS Campo Limpo","name_derived":true,"category":"cras","subcategory":null,"geometry_type":"Point","address":"ESTRADA DO CAMPO LIMPO, 3420, 05777-000","equipment_type":"CENTRO DE REFERÊNCIA DE ASSISTÊNCIA SOCIAL - CRAS","administrative_sphere":null,"included_in_metrics":true,"exclusion_reason":null,"override_reason":null,"outside_boundary":false}},{"type":"Feature","geometry":{"type":"Point","coordinates":[-46.76222758,-23.65846946]},"properties":{"id":"sp_geosampa_cras:equipamento_assistencia_social.31283","source_id":"sp_geosampa_cras","name":"CRAS Capão Redondo","name_derived":true,"category":"cras","subcategory":null,"geometry_type":"Point","address":"RUA ROBERTO SAMPAIO FERREIRA, 233, 05848-150","equipment_type":"CENTRO DE REFERÊNCIA DE ASSISTÊNCIA SOCIAL - CRAS","administrative_sphere":null,"included_in_metrics":true,"exclusion_reason":null,"override_reason":null,"outside_boundary":false}},{"type":"Feature","geometry":{"type":"Point","coordinates":[-46.70126053,-23.69860807]},"properties":{"id":"sp_geosampa_cras:equipamento_assistencia_social.31284","source_id":"sp_geosampa_cras","name":"CRAS Capela Do Socorro","name_derived":true,"category":"cras","subcategory":null,"geometry_type":"Point","address":"AVENIDA INTERLAGOS, 5980, 04777-000","equipment_type":"CENTRO DE REFERÊNCIA DE ASSISTÊNCIA SOCIAL - CRAS","administrative_sphere":null,"included_in_metrics":true,"exclusion_reason":null,"override_reason":null,"outside_boundary":false}},{"type":"Feature","geometry":{"type":"Point","coordinates":[-46.66264666,-23.66239193]},"properties":{"id":"sp_geosampa_cras:equipamento_assistencia_social.31285","source_id":"sp_geosampa_cras","name":"CRAS Cidade Ademar","name_derived":true,"category":"cras","subcategory":null,"geometry_type":"Point","address":"AVENIDA CUPECE, 2278, 04366-000","equipment_type":"CENTRO DE REFERÊNCIA DE ASSISTÊNCIA SOCIAL - CRAS","administrative_sphere":null,"included_in_metrics":true,"exclusion_reason":null,"override_reason":null,"outside_boundary":false}},{"type":"Feature","geometry":{"type":"Point","coordinates":[-46.63632574,-23.68202241]},"properties":{"id":"sp_geosampa_cras:equipamento_assistencia_social.31286","source_id":"sp_geosampa_cras","name":"CRAS Cidade Ademar II","name_derived":true,"category":"cras","subcategory":null,"geometry_type":"Point","address":"AVENIDA CUPECE, 5699, 04365-001","equipment_type":"CENTRO DE REFERÊNCIA DE ASSISTÊNCIA SOCIAL - CRAS","administrative_sphere":null,"included_in_metrics":true,"exclusion_reason":null,"override_reason":null,"outside_boundary":false}},{"type":"Feature","geometry":{"type":"Point","coordinates":[-46.68794378,-23.74818994]},"properties":{"id":"sp_geosampa_cras:equipamento_assistencia_social.31287","source_id":"sp_geosampa_cras","name":"CRAS Grajaú","name_derived":true,"category":"cras","subcategory":null,"geometry_type":"Point","address":"RUA EZEQUIEL LOPES CARDOSO, 333, 04843-610","equipment_type":"CENTRO DE REFERÊNCIA DE ASSISTÊNCIA SOCIAL - CRAS","administrative_sphere":null,"included_in_metrics":true,"exclusion_reason":null,"override_reason":null,"outside_boundary":false}},{"type":"Feature","geometry":{"type":"Point","coordinates":[-46.60293797,-23.62082854]},"properties":{"id":"sp_geosampa_cras:equipamento_assistencia_social.31288","source_id":"sp_geosampa_cras","name":"CRAS Ipiranga","name_derived":true,"category":"cras","subcategory":null,"geometry_type":"Point","address":"RUA TAQUARICHIM, 290, 04296-100","equipment_type":"CENTRO DE REFERÊNCIA DE ASSISTÊNCIA SOCIAL - CRAS","administrative_sphere":null,"included_in_metrics":true,"exclusion_reason":null,"override_reason":null,"outside_boundary":false}},{"type":"Feature","geometry":{"type":"Point","coordinates":[-46.63921116,-23.64379522]},"properties":{"id":"sp_geosampa_cras:equipamento_assistencia_social.31289","source_id":"sp_geosampa_cras","name":"CRAS Jabaquara","name_derived":true,"category":"cras","subcategory":null,"geometry_type":"Point","address":"RUA DOS JORNALISTAS, 48, 04318-000","equipment_type":"CENTRO DE REFERÊNCIA DE ASSISTÊNCIA SOCIAL - CRAS","administrative_sphere":null,"included_in_metrics":true,"exclusion_reason":null,"override_reason":null,"outside_boundary":false}},{"type":"Feature","geometry":{"type":"Point","coordinates":[-46.76875539,-23.68350696]},"properties":{"id":"sp_geosampa_cras:equipamento_assistencia_social.31290","source_id":"sp_geosampa_cras","name":"CRAS Jardim Ângela","name_derived":true,"category":"cras","subcategory":null,"geometry_type":"Point","address":"RUA LUIZ BALDINATO, 150, 04935-100","equipment_type":"CENTRO DE REFERÊNCIA DE ASSISTÊNCIA SOCIAL - CRAS","administrative_sphere":null,"included_in_metrics":true,"exclusion_reason":null,"override_reason":null,"outside_boundary":false}},{"type":"Feature","geometry":{"type":"Point","coordinates":[-46.74842612,-23.66277978]},"properties":{"id":"sp_geosampa_cras:equipamento_assistencia_social.31291","source_id":"sp_geosampa_cras","name":"CRAS Jardim São Luís","name_derived":true,"category":"cras","subcategory":null,"geometry_type":"Point","address":"RUA JOSE MANOEL CAMISA NOVA, 100, 05822-015","equipment_type":"CENTRO DE REFERÊNCIA DE ASSISTÊNCIA SOCIAL - CRAS","administrative_sphere":null,"included_in_metrics":true,"exclusion_reason":null,"override_reason":null,"outside_boundary":false}},{"type":"Feature","geometry":{"type":"Point","coordinates":[-46.70622438,-23.90674443]},"properties":{"id":"sp_geosampa_cras:equipamento_assistencia_social.31292","source_id":"sp_geosampa_cras","name":"CRAS Marsilac","name_derived":true,"category":"cras","subcategory":null,"geometry_type":"Point","address":"RUA HENRIQUE SILVA, 68, 04891-400","equipment_type":"CENTRO DE REFERÊNCIA DE ASSISTÊNCIA SOCIAL - CRAS","administrative_sphere":null,"included_in_metrics":true,"exclusion_reason":null,"override_reason":null,"outside_boundary":false}},{"type":"Feature","geometry":{"type":"Point","coordinates":[-46.74244613,-23.67364267]},"properties":{"id":"sp_geosampa_cras:equipamento_assistencia_social.31293","source_id":"sp_geosampa_cras","name":"CRAS M'Boi Mirim","name_derived":true,"category":"cras","subcategory":null,"geometry_type":"Point","address":"AVENIDA INACIO DIAS DA SILVA, S/N, 04913-180","equipment_type":"CENTRO DE REFERÊNCIA DE ASSISTÊNCIA SOCIAL - CRAS","administrative_sphere":null,"included_in_metrics":true,"exclusion_reason":null,"override_reason":null,"outside_boundary":false}},{"type":"Feature","geometry":{"type":"Point","coordinates":[-46.73019332,-23.82879867]},"properties":{"id":"sp_geosampa_cras:equipamento_assistencia_social.31294","source_id":"sp_geosampa_cras","name":"CRAS Parelheiros","name_derived":true,"category":"cras","subcategory":null,"geometry_type":"Point","address":"RUA PEDRO KLEIN DO NASCIMENTO, 100, 04890-370","equipment_type":"CENTRO DE REFERÊNCIA DE ASSISTÊNCIA SOCIAL - CRAS","administrative_sphere":null,"included_in_metrics":true,"exclusion_reason":null,"override_reason":null,"outside_boundary":false}},{"type":"Feature","geometry":{"type":"Point","coordinates":[-46.64411672,-23.70316571]},"properties":{"id":"sp_geosampa_cras:equipamento_assistencia_social.31295","source_id":"sp_geosampa_cras","name":"CRAS Pedreira","name_derived":true,"category":"cras","subcategory":null,"geometry_type":"Point","address":"ESTRADA DO ALVARENGA, 3657, 04474-340","equipment_type":"CENTRO DE REFERÊNCIA DE ASSISTÊNCIA SOCIAL - CRAS","administrative_sphere":null,"included_in_metrics":true,"exclusion_reason":null,"override_reason":null,"outside_boundary":false}},{"type":"Feature","geometry":{"type":"Point","coordinates":[-46.70168985,-23.65044355]},"properties":{"id":"sp_geosampa_cras:equipamento_assistencia_social.31296","source_id":"sp_geosampa_cras","name":"CRAS Santo Amaro","name_derived":true,"category":"cras","subcategory":null,"geometry_type":"Point","address":"RUA PADRE JOSE DE ANCHIETA, 802, 04742-001","equipment_type":"CENTRO DE REFERÊNCIA DE ASSISTÊNCIA SOCIAL - CRAS","administrative_sphere":null,"included_in_metrics":true,"exclusion_reason":null,"override_reason":null,"outside_boundary":false}},{"type":"Feature","geometry":{"type":"Point","coordinates":[-46.72179282,-23.61244544]},"properties":{"id":"sp_geosampa_cras:equipamento_assistencia_social.31297","source_id":"sp_geosampa_cras","name":"CRAS Vila Andrade","name_derived":true,"category":"cras","subcategory":null,"geometry_type":"Point","address":"RUA GENERAL JOAO PEREIRA DE OLIVEIRA, 26, 05656-050","equipment_type":"CENTRO DE REFERÊNCIA DE ASSISTÊNCIA SOCIAL - CRAS","administrative_sphere":null,"included_in_metrics":true,"exclusion_reason":null,"override_reason":null,"outside_boundary":false}},{"type":"Feature","geometry":{"type":"Point","coordinates":[-46.64648899,-23.58032606]},"properties":{"id":"sp_geosampa_cras:equipamento_assistencia_social.31298","source_id":"sp_geosampa_cras","name":"CRAS Vila Mariana","name_derived":true,"category":"cras","subcategory":null,"geometry_type":"Point","address":"RUA ARTUR DE ALMEIDA, 154, 04011-080","equipment_type":"CENTRO DE REFERÊNCIA DE ASSISTÊNCIA SOCIAL - CRAS","administrative_sphere":null,"included_in_metrics":true,"exclusion_reason":null,"override_reason":null,"outside_boundary":false}}]}
