{"type":"FeatureCollection","features":[{"type":"Feature","geometry":{"type":"Point","coordinates":[-46.64124775,-23.56157923]},"properties":{"id":"sp_geosampa_espacos_culturais:equipamento_cultura_espacos_culturais.40193","source_id":"sp_geosampa_espacos_culturais","name":"Centro Cultural Vila Itororó","name_derived":false,"category":"culture","subcategory":"cultural_space","geometry_type":"Point","address":"R. Maestro Cardim, 60, 01323-000","equipment_type":"Centros Culturais, Casas de Cultura, Espaços Culturais","administrative_sphere":"Municipal","included_in_metrics":true,"exclusion_reason":null,"override_reason":null,"outside_boundary":false}},{"type":"Feature","geometry":{"type":"Point","coordinates":[-46.77634718,-23.63320257]},"properties":{"id":"sp_geosampa_espacos_culturais:equipamento_cultura_espacos_culturais.40194","source_id":"sp_geosampa_espacos_culturais","name":"Casa de Cultura Campo Limpo - Dora Nascimento","name_derived":false,"category":"culture","subcategory":"cultural_space","geometry_type":"Point","address":"Rua Aroldo de Azevedo, 100","equipment_type":"Centros Culturais, Casas de Cultura, Espaços Culturais","administrative_sphere":"Municipal","included_in_metrics":true,"exclusion_reason":null,"override_reason":null,"outside_boundary":false}},{"type":"Feature","geometry":{"type":"Point","coordinates":[-46.64027358,-23.57126215]},"properties":{"id":"sp_geosampa_espacos_culturais:equipamento_cultura_espacos_culturais.40195","source_id":"sp_geosampa_espacos_culturais","name":"Centro Cultural São Paulo - CCSP","name_derived":false,"category":"culture","subcategory":"cultural_space","geometry_type":"Point","address":"Rua Vergueiro, 1000","equipment_type":"Centros Culturais, Casas de Cultura, Espaços Culturais","administrative_sphere":"Municipal","included_in_metrics":true,"exclusion_reason":null,"override_reason":null,"outside_boundary":false}},{"type":"Feature","geometry":{"type":"Point","coordinates":[-46.608731,-23.61611733]},"properties":{"id":"sp_geosampa_espacos_culturais:equipamento_cultura_espacos_culturais.40196","source_id":"sp_geosampa_espacos_culturais","name":"Casa de Cultura Ipiranga - Chico Science","name_derived":false,"category":"culture","subcategory":"cultural_space","geometry_type":"Point","address":"Avenida Pres. Tancredo Neves, 1265","equipment_type":"Centros Culturais, Casas de Cultura, Espaços Culturais","administrative_sphere":"Municipal","included_in_metrics":true,"exclusion_reason":null,"override_reason":null,"outside_boundary":false}},{"type":"Feature","geometry":{"type":"Point","coordinates":[-46.73262936,-23.58725289]},"properties":{"id":"sp_geosampa_espacos_culturais:equipamento_cultura_espacos_culturais.40197","source_id":"sp_geosampa_espacos_culturais","name":"Casa de Cultura - Butantã","name_derived":false,"category":"culture","subcategory":"cultural_space","geometry_type":"Point","address":"Avenida Junta Mizumoto, 13","equipment_type":"Centros Culturais, Casas de Cultura, Espaços Culturais","administrative_sphere":"Municipal","included_in_metrics":true,"exclusion_reason":null,"override_reason":null,"outside_boundary":false}},{"type":"Feature","geometry":{"type":"Point","coordinates":[-46.70736499,-23.65085175]},"properties":{"id":"sp_geosampa_espacos_culturais:equipamento_cultura_espacos_culturais.40198","source_id":"sp_geosampa_espacos_culturais","name":"Casa de Cultura Casa Amarela - Júlio Guerra","name_derived":false,"category":"culture","subcategory":"cultural_space","geometry_type":"Point","address":"Praça Floriano Peixoto, 130","equipment_type":"Centros Culturais, Casas de Cultura, Espaços Culturais","administrative_sphere":"Municipal","included_in_metrics":true,"exclusion_reason":null,"override_reason":null,"outside_boundary":false}},{"type":"Feature","geometry":{"type":"Point","coordinates":[-46.54030274,-23.57173387]},"properties":{"id":"sp_geosampa_espacos_culturais:equipamento_cultura_espacos_culturais.40199","source_id":"sp_geosampa_espacos_culturais","name":"Centro Cultural Vila Formosa","name_derived":false,"category":"culture","subcategory":"cultural_space","geometry_type":"Point","address":"Avenida Renata, 163","equipment_type":"Centros Culturais, Casas de Cultura, Espaços Culturais","administrative_sphere":"Municipal","included_in_metrics":true,"exclusion_reason":null,"override_reason":null,"outside_boundary":false}},{"type":"Feature","geometry":{"type":"Point","coordinates":[-46.40592496,-23.58281079]},"properties":{"id":"sp_geosampa_espacos_culturais:equipamento_cultura_espacos_culturais.40200","source_id":"sp_geosampa_espacos_culturais","name":"Casa de Cultura Cidade Tiradentes - Hip Hop Leste","name_derived":false,"category":"culture","subcategory":"cultural_space","geometry_type":"Point","address":"R. Sara Kubistchek, 165","equipment_type":"Centros Culturais, Casas de Cultura, Espaços Culturais","administrative_sphere":"Municipal","included_in_metrics":true,"exclusion_reason":null,"override_reason":null,"outside_boundary":false}},{"type":"Feature","geometry":{"type":"Point","coordinates":[-46.45046117,-23.49593132]},"properties":{"id":"sp_geosampa_espacos_culturais:equipamento_cultura_espacos_culturais.40201","source_id":"sp_geosampa_espacos_culturais","name":"Casa de Cultura São Miguel - Antônio Marcos","name_derived":false,"category":"culture","subcategory":"cultural_space","geometry_type":"Point","address":"Rua Irineu Bonardi, 169","equipment_type":"Centros Culturais, Casas de Cultura, Espaços Culturais","administrative_sphere":"Municipal","included_in_metrics":true,"exclusion_reason":null,"override_reason":null,"outside_boundary":false}},{"type":"Feature","geometry":{"type":"Point","coordinates":[-46.73049034,-23.83125998]},"properties":{"id":"sp_geosampa_espacos_culturais:equipamento_cultura_espacos_culturais.40202","source_id":"sp_geosampa_espacos_culturais","name":"Casa de Cultura - Parelheiros (fechado temporariamente)","name_derived":false,"category":"culture","subcategory":"cultural_space","geometry_type":"Point","address":"Rua Nazle Mauad Lufti, 169","equipment_type":"Centros Culturais, Casas de Cultura, Espaços Culturais","administrative_sphere":"Municipal","included_in_metrics":true,"exclusion_reason":null,"override_reason":null,"outside_boundary":false}},{"type":"Feature","geometry":{"type":"Point","coordinates":[-46.62229004,-23.46084009]},"properties":{"id":"sp_geosampa_espacos_culturais:equipamento_cultura_espacos_culturais.40203","source_id":"sp_geosampa_espacos_culturais","name":"Casa de Cultura - Tremembé","name_derived":false,"category":"culture","subcategory":"cultural_space","geometry_type":"Point","address":"Rua Maria Amália Lopes de Azevedo, 190","equipment_type":"Centros Culturais, Casas de Cultura, Espaços Culturais","administrative_sphere":"Municipal","included_in_metrics":true,"exclusion_reason":null,"override_reason":null,"outside_boundary":false}},{"type":"Feature","geometry":{"type":"Point","coordinates":[-46.54845376,-23.52584113]},"properties":{"id":"sp_geosampa_espacos_culturais:equipamento_cultura_espacos_culturais.40204","source_id":"sp_geosampa_espacos_culturais","name":"Centro Cultural Penha","name_derived":false,"category":"culture","subcategory":"cultural_space","geometry_type":"Point","address":"Largo do Rosário, 20","equipment_type":"Centros Culturais, Casas de Cultura, Espaços Culturais","administrative_sphere":"Municipal","included_in_metrics":true,"exclusion_reason":null,"override_reason":null,"outside_boundary":false}},{"type":"Feature","geometry":{"type":"Point","coordinates":[-46.68213026,-23.67061386]},"properties":{"id":"sp_geosampa_espacos_culturais:equipamento_cultura_espacos_culturais.40205","source_id":"sp_geosampa_espacos_culturais","name":"Casa de Cultura Cora Coralina - Hip Hop Sul","name_derived":false,"category":"culture","subcategory":"cultural_space","geometry_type":"Point","address":"R Sant'ana, 201","equipment_type":"Centros Culturais, Casas de Cultura, Espaços Culturais","administrative_sphere":"Municipal","included_in_metrics":true,"exclusion_reason":null,"override_reason":null,"outside_boundary":false}},{"type":"Feature","geometry":{"type":"Point","coordinates":[-46.44316646,-23.55320858]},"properties":{"id":"sp_geosampa_espacos_culturais:equipamento_cultura_espacos_culturais.40206","source_id":"sp_geosampa_espacos_culturais","name":"Casa de Cultura Itaquera - Raul Seixas (fechado temporariamente)","name_derived":false,"category":"culture","subcategory":"cultural_space","geometry_type":"Point","address":"Rua Murmúrios da Tarde, 211","equipment_type":"Centros Culturais, Casas de Cultura, Espaços Culturais","administrative_sphere":"Municipal","included_in_metrics":true,"exclusion_reason":null,"override_reason":null,"outside_boundary":false}},{"type":"Feature","geometry":{"type":"Point","coordinates":[-46.69949289,-23.50185139]},"properties":{"id":"sp_geosampa_espacos_culturais:equipamento_cultura_espacos_culturais.40207","source_id":"sp_geosampa_espacos_culturais","name":"Casa de Cultura Freguesia do Ó - Salvador Ligabue","name_derived":false,"category":"culture","subcategory":"cultural_space","geometry_type":"Point","address":"Largo da Matriz, 215","equipment_type":"Centros Culturais, Casas de Cultura, Espaços Culturais","administrative_sphere":"Municipal","included_in_metrics":true,"exclusion_reason":null,"override_reason":null,"outside_boundary":false}},{"type":"Feature","geometry":{"type":"Point","coordinates":[-46.63740188,-23.54441263]},"properties":{"id":"sp_geosampa_espacos_culturais:equipamento_cultura_espacos_culturais.40208","source_id":"sp_geosampa_espacos_culturais","name":"Praça das Artes","name_derived":false,"category":"culture","subcategory":"cultural_space","geometry_type":"Point","address":"Avenida São João, 281","equipment_type":"Centros Culturais, Casas de Cultura, Espaços Culturais","administrative_sphere":"Municipal","included_in_metrics":true,"exclusion_reason":null,"override_reason":null,"outside_boundary":false}},{"type":"Feature","geometry":{"type":"Point","coordinates":[-46.74414955,-23.60219037]},"properties":{"id":"sp_geosampa_espacos_culturais:equipamento_cultura_espacos_culturais.40209","source_id":"sp_geosampa_espacos_culturais","name":"Polo Cultural e Criativo - Chácara do Jockey","name_derived":false,"category":"culture","subcategory":"cultural_space","geometry_type":"Point","address":"Av. Prof. Francisco Morato, 5300, 05520-300","equipment_type":"Centros Culturais, Casas de Cultura, Espaços Culturais","administrative_sphere":"Municipal","included_in_metrics":true,"exclusion_reason":null,"override_reason":null,"outside_boundary":false}},{"type":"Feature","geometry":{"type":"Point","coordinates":[-46.46823131,-23.62495528]},"properties":{"id":"sp_geosampa_espacos_culturais:equipamento_cultura_espacos_culturais.40210","source_id":"sp_geosampa_espacos_culturais","name":"Casa de Cultura - São Rafael","name_derived":false,"category":"culture","subcategory":"cultural_space","geometry_type":"Point","address":"Rua Quaresma Delgado, 354","equipment_type":"Centros Culturais, Casas de Cultura, Espaços Culturais","administrative_sphere":"Municipal","included_in_metrics":true,"exclusion_reason":null,"override_reason":null,"outside_boundary":false}},{"type":"Feature","geometry":{"type":"Point","coordinates":[-46.66988149,-23.47582036]},"properties":{"id":"sp_geosampa_espacos_culturais:equipamento_cultura_espacos_culturais.40211","source_id":"sp_geosampa_espacos_culturais","name":"Centro Cultural Juventude (fechado temporariamente)","name_derived":false,"category":"culture","subcategory":"cultural_space","geometry_type":"Point","address":"Avenida Deputado Emílio Carlos, 3641","equipment_type":"Centros Culturais, Casas de Cultura, Espaços Culturais","administrative_sphere":"Municipal","included_in_metrics":true,"exclusion_reason":null,"override_reason":null,"outside_boundary":false}},{"type":"Feature","geometry":{"type":"Point","coordinates":[-46.48755626,-23.58886718]},"properties":{"id":"sp_geosampa_espacos_culturais:equipamento_cultura_espacos_culturais.40212","source_id":"sp_geosampa_espacos_culturais","name":"Casa de Cultura - São Mateus","name_derived":false,"category":"culture","subcategory":"cultural_space","geometry_type":"Point","address":"Rua Monte Mandirá, 40","equipment_type":"Centros Culturais, Casas de Cultura, Espaços Culturais","administrative_sphere":"Municipal","included_in_metrics":true,"exclusion_reason":null,"override_reason":null,"outside_boundary":false}},{"type":"Feature","geometry":{"type":"Point","coordinates":[-46.70846047,-23.64667713]},"properties":{"id":"sp_geosampa_espacos_culturais:equipamento_cultura_espacos_culturais.40213","source_id":"sp_geosampa_espacos_culturais","name":"Casa de Cultura Santo Amaro - Manoel Cardoso de Mendonça","name_derived":false,"category":"culture","subcategory":"cultural_space","geometry_type":"Point","address":"Praça Doutor Francisco Ferreira Lopes, 434","equipment_type":"Centros Culturais, Casas de Cultura, Espaços Culturais","administrative_sphere":"Municipal","included_in_metrics":true,"exclusion_reason":null,"override_reason":null,"outside_boundary":false}},{"type":"Feature","geometry":{"type":"Point","coordinates":[-46.64492514,-23.65092259]},"properties":{"id":"sp_geosampa_espacos_culturais:equipamento_cultura_espacos_culturais.40214","source_id":"sp_geosampa_espacos_culturais","name":"Centro de Culturas Negras Jabaquara","name_derived":false,"category":"culture","subcategory":"cultural_space","geometry_type":"Point","address":"Rua Arsênio Tavolieri, 45","equipment_type":"Centros Culturais, Casas de Cultura, Espaços Culturais","administrative_sphere":"Municipal","included_in_metrics":true,"exclusion_reason":null,"override_reason":null,"outside_boundary":false}},{"type":"Feature","geometry":{"type":"Point","coordinates":[-46.68391377,-23.58713447]},"properties":{"id":"sp_geosampa_espacos_culturais:equipamento_cultura_espacos_culturais.40215","source_id":"sp_geosampa_espacos_culturais","name":"Centro Cultural Diversidade","name_derived":false,"category":"culture","subcategory":"cultural_space","geometry_type":"Point","address":"Rua Lopes Neto, 206","equipment_type":"Centros Culturais, Casas de Cultura, Espaços Culturais","administrative_sphere":"Municipal","included_in_metrics":true,"exclusion_reason":null,"override_reason":null,"outside_boundary":false}},{"type":"Feature","geometry":{"type":"Point","coordinates":[-46.63904946,-23.54345176]},"properties":{"id":"sp_geosampa_espacos_culturais:equipamento_cultura_espacos_culturais.40216","source_id":"sp_geosampa_espacos_culturais","name":"Centro Cultural Olido (fechado temporariamente)","name_derived":false,"category":"culture","subcategory":"cultural_space","geometry_type":"Point","address":"Avenida São João, 473","equipment_type":"Centros Culturais, Casas de Cultura, Espaços Culturais","administrative_sphere":"Municipal","included_in_metrics":true,"exclusion_reason":null,"override_reason":null,"outside_boundary":false}},{"type":"Feature","geometry":{"type":"Point","coordinates":[-46.63904946,-23.54345176]},"properties":{"id":"sp_geosampa_espacos_culturais:equipamento_cultura_espacos_culturais.40217","source_id":"sp_geosampa_espacos_culturais","name":"Centro de Memória do Circo - Galeria Olido","name_derived":false,"category":"culture","subcategory":"cultural_space","geometry_type":"Point","address":"Avenida São João, 473","equipment_type":"Centros Culturais, Casas de Cultura, Espaços Culturais","administrative_sphere":"Municipal","included_in_metrics":true,"exclusion_reason":null,"override_reason":null,"outside_boundary":false}},{"type":"Feature","geometry":{"type":"Point","coordinates":[-46.40169148,-23.49777692]},"properties":{"id":"sp_geosampa_espacos_culturais:equipamento_cultura_espacos_culturais.40218","source_id":"sp_geosampa_espacos_culturais","name":"Casa de Cultura - Itaim Paulista","name_derived":false,"category":"culture","subcategory":"cultural_space","geometry_type":"Point","address":"Rua Monte Camberela, 490","equipment_type":"Centros Culturais, Casas de Cultura, Espaços Culturais","administrative_sphere":"Municipal","included_in_metrics":true,"exclusion_reason":null,"override_reason":null,"outside_boundary":false}},{"type":"Feature","geometry":{"type":"Point","coordinates":[-46.69281427,-23.73630052]},"properties":{"id":"sp_geosampa_espacos_culturais:equipamento_cultura_espacos_culturais.40219","source_id":"sp_geosampa_espacos_culturais","name":"Centro Cultural Grajaú","name_derived":false,"category":"culture","subcategory":"cultural_space","geometry_type":"Point","address":"Rua Professor Oscar Barreto Filho, 50","equipment_type":"Centros Culturais, Casas de Cultura, Espaços Culturais","administrative_sphere":"Municipal","included_in_metrics":true,"exclusion_reason":null,"override_reason":null,"outside_boundary":false}},{"type":"Feature","geometry":{"type":"Point","coordinates":[-46.39014331,-23.5804871]},"properties":{"id":"sp_geosampa_espacos_culturais:equipamento_cultura_espacos_culturais.40220","source_id":"sp_geosampa_espacos_culturais","name":"Centro de Formação Cultural da Cidade de Tiradentes","name_derived":false,"category":"culture","subcategory":"cultural_space","geometry_type":"Point","address":"R. Inácio Monteiro, 6900","equipment_type":"Centros Culturais, Casas de Cultura, Espaços Culturais","administrative_sphere":"Municipal","included_in_metrics":true,"exclusion_reason":null,"override_reason":null,"outside_boundary":false}},{"type":"Feature","geometry":{"type":"Point","coordinates":[-46.69653562,-23.52159247]},"properties":{"id":"sp_geosampa_espacos_culturais:equipamento_cultura_espacos_culturais.40221","source_id":"sp_geosampa_espacos_culturais","name":"Centro Cultural Tendal da Lapa","name_derived":false,"category":"culture","subcategory":"cultural_space","geometry_type":"Point","address":"Rua Constança, 72","equipment_type":"Centros Culturais, Casas de Cultura, Espaços Culturais","administrative_sphere":"Municipal","included_in_metrics":true,"exclusion_reason":null,"override_reason":null,"outside_boundary":false}},{"type":"Feature","geometry":{"type":"Point","coordinates":[-46.70876173,-23.64502492]},"properties":{"id":"sp_geosampa_espacos_culturais:equipamento_cultura_espacos_culturais.40222","source_id":"sp_geosampa_espacos_culturais","name":"Centro Cultural Santo Amaro","name_derived":false,"category":"culture","subcategory":"cultural_space","geometry_type":"Point","address":"Avenida João Dias, 822","equipment_type":"Centros Culturais, Casas de Cultura, Espaços Culturais","administrative_sphere":"Municipal","included_in_metrics":true,"exclusion_reason":null,"override_reason":null,"outside_boundary":false}},{"type":"Feature","geometry":{"type":"Point","coordinates":[-46.63836444,-23.54606715]},"properties":{"id":"sp_geosampa_espacos_culturais:equipamento_cultura_espacos_culturais.40223","source_id":"sp_geosampa_espacos_culturais","name":"Centro de Referência da Dança","name_derived":false,"category":"culture","subcategory":"cultural_space","geometry_type":"Point","address":"Baixos do Viaduto do Chá, s/n","equipment_type":"Centros Culturais, Casas de Cultura, Espaços Culturais","administrative_sphere":"Municipal","included_in_metrics":true,"exclusion_reason":null,"override_reason":null,"outside_boundary":false}},{"type":"Feature","geometry":{"type":"Point","coordinates":[-46.40176837,-23.55055334]},"properties":{"id":"sp_geosampa_espacos_culturais:equipamento_cultura_espacos_culturais.40224","source_id":"sp_geosampa_espacos_culturais","name":"Casa de Cultura Guaianases - Richard David Manuel Junior","name_derived":false,"category":"culture","subcategory":"cultural_space","geometry_type":"Point","address":"Rua Castelo de Leça, s/n","equipment_type":"Centros Culturais, Casas de Cultura, Espaços Culturais","administrative_sphere":"Municipal","included_in_metrics":true,"exclusion_reason":null,"override_reason":null,"outside_boundary":false}},{"type":"Feature","geometry":{"type":"Point","coordinates":[-46.74250147,-23.67319302]},"properties":{"id":"sp_geosampa_espacos_culturais:equipamento_cultura_espacos_culturais.40225","source_id":"sp_geosampa_espacos_culturais","name":"Casa de Cultura - M'Boi Mirim","name_derived":false,"category":"culture","subcategory":"cultural_space","geometry_type":"Point","address":"Avenida Inácio Dias da Silva, s/n","equipment_type":"Centros Culturais, Casas de Cultura, Espaços Culturais","administrative_sphere":"Municipal","included_in_metrics":true,"exclusion_reason":null,"override_reason":null,"outside_boundary":false}},{"type":"Feature","geometry":{"type":"Point","coordinates":[-46.69887089,-23.46963245]},"properties":{"id":"sp_geosampa_espacos_culturais:equipamento_cultura_espacos_culturais.40226","source_id":"sp_geosampa_espacos_culturais","name":"Casa de Cultura Brasilândia - Sonia Franieck","name_derived":false,"category":"culture","subcategory":"cultural_space","geometry_type":"Point","address":"Praça Benedicta Cavalheiro, s/n","equipment_type":"Centros Culturais, Casas de Cultura, Espaços Culturais","administrative_sphere":"Municipal","included_in_metrics":true,"exclusion_reason":null,"override_reason":null,"outside_boundary":false}},{"type":"Feature","geometry":{"type":"Point","coordinates":[-46.6006005,-23.50766916]},"properties":{"id":"sp_geosampa_espacos_culturais:equipamento_cultura_espacos_culturais.40227","source_id":"sp_geosampa_espacos_culturais","name":"Casa de Cultura Vila Guilherme - Casarão (fechado temporariamente)","name_derived":false,"category":"culture","subcategory":"cultural_space","geometry_type":"Point","address":"Praça Oscar Silva, s/n","equipment_type":"Centros Culturais, Casas de Cultura, Espaços Culturais","administrative_sphere":"Municipal","included_in_metrics":true,"exclusion_reason":null,"override_reason":null,"outside_boundary":false}}]}
