{"type":"FeatureCollection","features":[{"type":"Feature","geometry":{"type":"Point","coordinates":[-46.6331423,-23.59629086]},"properties":{"id":"sp_geosampa_museus:equipamento_cultura_museus.40228","source_id":"sp_geosampa_museus","name":"Museu da Cidade de São Paulo - Casa Modernista","category":"culture","subcategory":"museum","geometry_type":"Point","address":"Rua Santa Cruz, 325, 04121-000","equipment_type":"Museu","administrative_sphere":"Municipal","included_in_metrics":true,"exclusion_reason":null,"override_reason":null}},{"type":"Feature","geometry":{"type":"Point","coordinates":[-46.65143257,-23.54819545]},"properties":{"id":"sp_geosampa_museus:equipamento_cultura_museus.40229","source_id":"sp_geosampa_museus","name":"Museu da Cidade de São Paulo - Chácara Lane","category":"culture","subcategory":"museum","geometry_type":"Point","address":"Rua da Consolação, 1024, 01302-000","equipment_type":"Museu","administrative_sphere":"Municipal","included_in_metrics":true,"exclusion_reason":null,"override_reason":null}},{"type":"Feature","geometry":{"type":"Point","coordinates":[-46.63197514,-23.54851772]},"properties":{"id":"sp_geosampa_museus:equipamento_cultura_museus.40230","source_id":"sp_geosampa_museus","name":"Museu da Cidade de São Paulo - Solar da Marquesa de Santos","category":"culture","subcategory":"museum","geometry_type":"Point","address":"Rua Roberto Simonsen, 136, 01017-020","equipment_type":"Museu","administrative_sphere":"Municipal","included_in_metrics":true,"exclusion_reason":null,"override_reason":null}},{"type":"Feature","geometry":{"type":"Point","coordinates":[-46.63231819,-23.54834169]},"properties":{"id":"sp_geosampa_museus:equipamento_cultura_museus.40231","source_id":"sp_geosampa_museus","name":"Museu da Cidade de São Paulo - Casa da Imagem","category":"culture","subcategory":"museum","geometry_type":"Point","address":"Rua Roberto Simonsen, 136-B, 01017-020","equipment_type":"Museu","administrative_sphere":"Municipal","included_in_metrics":true,"exclusion_reason":null,"override_reason":null}},{"type":"Feature","geometry":{"type":"Point","coordinates":[-46.64563607,-23.65149364]},"properties":{"id":"sp_geosampa_museus:equipamento_cultura_museus.40232","source_id":"sp_geosampa_museus","name":"Museu da Cidade de São Paulo - Casa do Sítio da Ressaca (fechado temporariamente)","category":"culture","subcategory":"museum","geometry_type":"Point","address":"Rua Nadra Raffoul Mokodsi, 3, 04321-020","equipment_type":"Museu","administrative_sphere":"Municipal","included_in_metrics":true,"exclusion_reason":null,"override_reason":null}},{"type":"Feature","geometry":{"type":"Point","coordinates":[-46.58232734,-23.53328987]},"properties":{"id":"sp_geosampa_museus:equipamento_cultura_museus.40233","source_id":"sp_geosampa_museus","name":"Museu da Cidade de São Paulo - Casa do Tatuapé","category":"culture","subcategory":"museum","geometry_type":"Point","address":"Rua Guabijú, 49, 01017-020","equipment_type":"Museu","administrative_sphere":"Municipal","included_in_metrics":true,"exclusion_reason":null,"override_reason":null}},{"type":"Feature","geometry":{"type":"Point","coordinates":[-46.71252126,-23.61178014]},"properties":{"id":"sp_geosampa_museus:equipamento_cultura_museus.40234","source_id":"sp_geosampa_museus","name":"Museu da Cidade de São Paulo - Capela do Morumbi","category":"culture","subcategory":"museum","geometry_type":"Point","address":"Avenida Morumbi, 5.387, 05650-001","equipment_type":"Museu","administrative_sphere":"Municipal","included_in_metrics":true,"exclusion_reason":null,"override_reason":null}},{"type":"Feature","geometry":{"type":"Point","coordinates":[-46.6554725,-23.58682197]},"properties":{"id":"sp_geosampa_museus:equipamento_cultura_museus.40235","source_id":"sp_geosampa_museus","name":"OCA - Pavilhão Lucas Nogueira Garcez (fechado temporariamente)","category":"culture","subcategory":"museum","geometry_type":"Point","address":"Av. Pedro Álvares Cabral, s/n, 4094050","equipment_type":"Museu","administrative_sphere":"Municipal","included_in_metrics":true,"exclusion_reason":null,"override_reason":null}},{"type":"Feature","geometry":{"type":"Point","coordinates":[-46.65970565,-23.58564301]},"properties":{"id":"sp_geosampa_museus:equipamento_cultura_museus.40236","source_id":"sp_geosampa_museus","name":"Pavilhão das Culturas Brasileiras (fechado temporariamente)","category":"culture","subcategory":"museum","geometry_type":"Point","address":"Av. Pedro Álvares Cabral, s/n, 04094-000","equipment_type":"Museu","administrative_sphere":"Municipal","included_in_metrics":true,"exclusion_reason":null,"override_reason":null}},{"type":"Feature","geometry":{"type":"Point","coordinates":[-46.63861951,-23.54521966]},"properties":{"id":"sp_geosampa_museus:equipamento_cultura_museus.40237","source_id":"sp_geosampa_museus","name":"Museu do Theatro Municipal de São Paulo","category":"culture","subcategory":"museum","geometry_type":"Point","address":"Praça Ramos de Azevedo, s/n, 01049-010","equipment_type":"Museu","administrative_sphere":"Municipal","included_in_metrics":true,"exclusion_reason":null,"override_reason":null}},{"type":"Feature","geometry":{"type":"Point","coordinates":[-46.61028862,-23.57934624]},"properties":{"id":"sp_geosampa_museus:equipamento_cultura_museus.40238","source_id":"sp_geosampa_museus","name":"Museu da Cidade de São Paulo - Monumento à Independência/Capela Imperial (fechado temporariamente)","category":"culture","subcategory":"museum","geometry_type":"Point","address":"Pça. do Monumento, s/n, 04299-000","equipment_type":"Museu","administrative_sphere":"Municipal","included_in_metrics":true,"exclusion_reason":null,"override_reason":null}},{"type":"Feature","geometry":{"type":"Point","coordinates":[-46.60965646,-23.58107508]},"properties":{"id":"sp_geosampa_museus:equipamento_cultura_museus.40239","source_id":"sp_geosampa_museus","name":"Museu da Cidade de São Paulo - Casa do Grito","category":"culture","subcategory":"museum","geometry_type":"Point","address":"Pça. do Monumento, s/n, 01017-020","equipment_type":"Museu","administrative_sphere":"Municipal","included_in_metrics":true,"exclusion_reason":null,"override_reason":null}},{"type":"Feature","geometry":{"type":"Point","coordinates":[-46.72101257,-23.58410699]},"properties":{"id":"sp_geosampa_museus:equipamento_cultura_museus.40240","source_id":"sp_geosampa_museus","name":"Museu da Cidade de São Paulo - Casa do Sertanista","category":"culture","subcategory":"museum","geometry_type":"Point","address":"Pça. Dr. Ennio Barbato, s/n, 01017-020","equipment_type":"Museu","administrative_sphere":"Municipal","included_in_metrics":true,"exclusion_reason":null,"override_reason":null}},{"type":"Feature","geometry":{"type":"Point","coordinates":[-46.63229173,-23.54845279]},"properties":{"id":"sp_geosampa_museus:equipamento_cultura_museus.40241","source_id":"sp_geosampa_museus","name":"Museu da Cidade de São Paulo - Beco do Pinto","category":"culture","subcategory":"museum","geometry_type":"Point","address":"Rua Roberto Simonsen, s/n, 01017-020","equipment_type":"Museu","administrative_sphere":"Municipal","included_in_metrics":true,"exclusion_reason":null,"override_reason":null}},{"type":"Feature","geometry":{"type":"Point","coordinates":[-46.6355707,-23.59470592]},"properties":{"id":"sp_geosampa_museus:equipamento_cultura_museus.40242","source_id":"sp_geosampa_museus","name":"Museu Lasar Segall","category":"culture","subcategory":"museum","geometry_type":"Point","address":"Rua Berta, 111, 04120-040","equipment_type":"Museu","administrative_sphere":"Federal","included_in_metrics":true,"exclusion_reason":null,"override_reason":null}},{"type":"Feature","geometry":{"type":"Point","coordinates":[-46.63880716,-23.53479389]},"properties":{"id":"sp_geosampa_museus:equipamento_cultura_museus.40243","source_id":"sp_geosampa_museus","name":"Fundação José e Paulina Nemirovsky","category":"culture","subcategory":"museum","geometry_type":"Point","address":"Largo General Osório, s/n, 01213-010","equipment_type":"Museu","administrative_sphere":"Particular","included_in_metrics":false,"exclusion_reason":"private provider","override_reason":null}},{"type":"Feature","geometry":{"type":"Point","coordinates":[-46.75586065,-23.45737237]},"properties":{"id":"sp_geosampa_museus:equipamento_cultura_museus.40244","source_id":"sp_geosampa_museus","name":"Parque Estadual do Jaraguá","category":"culture","subcategory":"museum","geometry_type":"Point","address":"Rua Antônio Cardoso Nogueira, 539, 05184-000","equipment_type":"Museu","administrative_sphere":"Estadual","included_in_metrics":true,"exclusion_reason":null,"override_reason":null}},{"type":"Feature","geometry":{"type":"Point","coordinates":[-46.64768881,-23.50618465]},"properties":{"id":"sp_geosampa_museus:equipamento_cultura_museus.40245","source_id":"sp_geosampa_museus","name":"Museu da Cidade de São Paulo - Sítio Morrinhos","category":"culture","subcategory":"museum","geometry_type":"Point","address":"Rua Santo Anselmo, 102, 02525-080","equipment_type":"Museu","administrative_sphere":"Municipal","included_in_metrics":true,"exclusion_reason":null,"override_reason":null}},{"type":"Feature","geometry":{"type":"Point","coordinates":[-46.63362371,-23.46260129]},"properties":{"id":"sp_geosampa_museus:equipamento_cultura_museus.40246","source_id":"sp_geosampa_museus","name":"Parque Estadual Alberto Löfgren","category":"culture","subcategory":"museum","geometry_type":"Point","address":"Rua do Horto, 931, 02377-000","equipment_type":"Museu","administrative_sphere":"Estadual","included_in_metrics":true,"exclusion_reason":null,"override_reason":null}},{"type":"Feature","geometry":{"type":"Point","coordinates":[-46.66043719,-23.54068994]},"properties":{"id":"sp_geosampa_museus:equipamento_cultura_museus.40247","source_id":"sp_geosampa_museus","name":"Museu Armando de Arruda Pereira","category":"culture","subcategory":"museum","geometry_type":"Point","address":"Avenida Higienópolis - Edifício Rotary, 996, 01238-910","equipment_type":"Museu","administrative_sphere":"Particular","included_in_metrics":false,"exclusion_reason":"private provider","override_reason":null}},{"type":"Feature","geometry":{"type":"Point","coordinates":[-46.69459599,-23.56133433]},"properties":{"id":"sp_geosampa_museus:equipamento_cultura_museus.40248","source_id":"sp_geosampa_museus","name":"Instituto Tomie Ohtake","category":"culture","subcategory":"museum","geometry_type":"Point","address":"Rua dos Coropé, 88, 05426-010","equipment_type":"Museu","administrative_sphere":"Particular","included_in_metrics":false,"exclusion_reason":"private provider","override_reason":null}},{"type":"Feature","geometry":{"type":"Point","coordinates":[-46.63613151,-23.59664299]},"properties":{"id":"sp_geosampa_museus:equipamento_cultura_museus.40249","source_id":"sp_geosampa_museus","name":"Centro de Memória do Corpo de Bombeiros da Polícia Militar do Estado de São Paulo","category":"culture","subcategory":"museum","geometry_type":"Point","address":"Rua Domingos de Morais, 2329, 04035-000","equipment_type":"Museu","administrative_sphere":"Estadual","included_in_metrics":true,"exclusion_reason":null,"override_reason":null}},{"type":"Feature","geometry":{"type":"Point","coordinates":[-46.52111254,-23.49363716]},"properties":{"id":"sp_geosampa_museus:equipamento_cultura_museus.40250","source_id":"sp_geosampa_museus","name":"Museu do Rio Tietê","category":"culture","subcategory":"museum","geometry_type":"Point","address":"Rua Guira Acangatara, 70, 03719-000","equipment_type":"Museu","administrative_sphere":"Estadual","included_in_metrics":true,"exclusion_reason":null,"override_reason":null}},{"type":"Feature","geometry":{"type":"Point","coordinates":[-46.60962346,-23.58543131]},"properties":{"id":"sp_geosampa_museus:equipamento_cultura_museus.40251","source_id":"sp_geosampa_museus","name":"Museu Paulista da Universidade de São Paulo - Museu do Ipiranga","category":"culture","subcategory":"museum","geometry_type":"Point","address":"Parque da Independência, s/n, 04218-970","equipment_type":"Museu","administrative_sphere":"Estadual","included_in_metrics":true,"exclusion_reason":null,"override_reason":null}},{"type":"Feature","geometry":{"type":"Point","coordinates":[-46.64364746,-23.53087534]},"properties":{"id":"sp_geosampa_museus:equipamento_cultura_museus.40252","source_id":"sp_geosampa_museus","name":"Museu da Energia de São Paulo","category":"culture","subcategory":"museum","geometry_type":"Point","address":"Alameda Nothmann, 184, 01218-000","equipment_type":"Museu","administrative_sphere":"Particular","included_in_metrics":false,"exclusion_reason":"private provider","override_reason":null}},{"type":"Feature","geometry":{"type":"Point","coordinates":[-46.56419625,-23.53310356]},"properties":{"id":"sp_geosampa_museus:equipamento_cultura_museus.40253","source_id":"sp_geosampa_museus","name":"Memorial Sport Club Corinthians Paulista","category":"culture","subcategory":"museum","geometry_type":"Point","address":"Rua São Jorge, 777, 03087-000","equipment_type":"Museu","administrative_sphere":"Particular","included_in_metrics":false,"exclusion_reason":"private provider","override_reason":null}},{"type":"Feature","geometry":{"type":"Point","coordinates":[-46.66941512,-23.55624887]},"properties":{"id":"sp_geosampa_museus:equipamento_cultura_museus.40254","source_id":"sp_geosampa_museus","name":"Museu do Instituto Adolfo Lutz","category":"culture","subcategory":"museum","geometry_type":"Point","address":"Avenida Doutor Arnaldo, 355, 01246-902","equipment_type":"Museu","administrative_sphere":"Estadual","included_in_metrics":true,"exclusion_reason":null,"override_reason":null}},{"type":"Feature","geometry":{"type":"Point","coordinates":[-46.63038296,-23.53044623]},"properties":{"id":"sp_geosampa_museus:equipamento_cultura_museus.40255","source_id":"sp_geosampa_museus","name":"Museu de Arte Sacra de São Paulo - MAS","category":"culture","subcategory":"museum","geometry_type":"Point","address":"Avenida Tiradentes, 676, 1120010","equipment_type":"Museu","administrative_sphere":"Estadual","included_in_metrics":true,"exclusion_reason":null,"override_reason":null}},{"type":"Feature","geometry":{"type":"Point","coordinates":[-46.66727272,-23.52223646]},"properties":{"id":"sp_geosampa_museus:equipamento_cultura_museus.40256","source_id":"sp_geosampa_museus","name":"Museu Paulo Machado de Carvalho - Museu do Futebol","category":"culture","subcategory":"museum","geometry_type":"Point","address":"Rua Federação Paulista de Futebol, 55, 01141-040","equipment_type":"Museu","administrative_sphere":"Particular","included_in_metrics":false,"exclusion_reason":"private provider","override_reason":null}},{"type":"Feature","geometry":{"type":"Point","coordinates":[-46.63505667,-23.56107348]},"properties":{"id":"sp_geosampa_museus:equipamento_cultura_museus.40257","source_id":"sp_geosampa_museus","name":"Museu Histórico da Imigração Japonesa no Brasil","category":"culture","subcategory":"museum","geometry_type":"Point","address":"Rua São Joaquim, 381, 01508-900","equipment_type":"Museu","administrative_sphere":"Particular","included_in_metrics":false,"exclusion_reason":"private provider","override_reason":null}},{"type":"Feature","geometry":{"type":"Point","coordinates":[-46.72825523,-23.60399139]},"properties":{"id":"sp_geosampa_museus:equipamento_cultura_museus.40258","source_id":"sp_geosampa_museus","name":"Museu Abadia São Geraldo","category":"culture","subcategory":"museum","geometry_type":"Point","address":"Rua Santo Américo, 357, 05629-020","equipment_type":"Museu","administrative_sphere":"Particular","included_in_metrics":false,"exclusion_reason":"private provider","override_reason":null}},{"type":"Feature","geometry":{"type":"Point","coordinates":[-46.70244079,-23.54037429]},"properties":{"id":"sp_geosampa_museus:equipamento_cultura_museus.40259","source_id":"sp_geosampa_museus","name":"Centro de Referência Paulo Freire","category":"culture","subcategory":"museum","geometry_type":"Point","address":"Rua Cerro Corá, 550, 05061-100","equipment_type":"Museu","administrative_sphere":"Particular","included_in_metrics":false,"exclusion_reason":"private provider","override_reason":null}},{"type":"Feature","geometry":{"type":"Point","coordinates":[-46.65822922,-23.63766322]},"properties":{"id":"sp_geosampa_museus:equipamento_cultura_museus.40260","source_id":"sp_geosampa_museus","name":"Museu da Lâmpada","category":"culture","subcategory":"museum","geometry_type":"Point","address":"Avenida João Pedro Cardoso, 574, 04355-001","equipment_type":"Museu","administrative_sphere":"Particular","included_in_metrics":false,"exclusion_reason":"private provider","override_reason":null}},{"type":"Feature","geometry":{"type":"Point","coordinates":[-46.64559005,-23.55079503]},"properties":{"id":"sp_geosampa_museus:equipamento_cultura_museus.40261","source_id":"sp_geosampa_museus","name":"Museu Judaico de São Paulo (MUJ)","category":"culture","subcategory":"museum","geometry_type":"Point","address":"Rua Martinho Prado, 128, 01306-040","equipment_type":"Museu","administrative_sphere":"Particular","included_in_metrics":false,"exclusion_reason":"private provider","override_reason":null}},{"type":"Feature","geometry":{"type":"Point","coordinates":[-46.56646831,-23.37919384]},"properties":{"id":"sp_geosampa_museus:equipamento_cultura_museus.40262","source_id":"sp_geosampa_museus","name":"Parque Estadual da Serra da Cantareira - Núcleo Engordador","category":"culture","subcategory":"museum","geometry_type":"Point","address":"Avenida Coronel Sezefredo Fagundes, 19100, 02368-000","equipment_type":"Museu","administrative_sphere":"Estadual","included_in_metrics":true,"exclusion_reason":null,"override_reason":null}},{"type":"Feature","geometry":{"type":"Point","coordinates":[-46.7110742,-23.60354037]},"properties":{"id":"sp_geosampa_museus:equipamento_cultura_museus.40263","source_id":"sp_geosampa_museus","name":"Fundação Maria Luisa e Oscar Americano","category":"culture","subcategory":"museum","geometry_type":"Point","address":"Avenida Morumbi, 4077, 05650-000","equipment_type":"Museu","administrative_sphere":"Particular","included_in_metrics":false,"exclusion_reason":"private provider","override_reason":null}},{"type":"Feature","geometry":{"type":"Point","coordinates":[-46.63699089,-23.55012915]},"properties":{"id":"sp_geosampa_museus:equipamento_cultura_museus.40264","source_id":"sp_geosampa_museus","name":"Museu da Faculdade de Direito - Universidade de São Paulo","category":"culture","subcategory":"museum","geometry_type":"Point","address":"Faculdade de Direito - Largo São Francisco, 95, 01005-010","equipment_type":"Museu","administrative_sphere":"Estadual","included_in_metrics":true,"exclusion_reason":null,"override_reason":null}},{"type":"Feature","geometry":{"type":"Point","coordinates":[-46.47064646,-23.57062253]},"properties":{"id":"sp_geosampa_museus:equipamento_cultura_museus.40265","source_id":"sp_geosampa_museus","name":"Museu do Meio Ambiente - Parque do Carmo","category":"culture","subcategory":"museum","geometry_type":"Point","address":"Avenida Afonso De Sampaio E Sousa, 951, 08270-001","equipment_type":"Museu","administrative_sphere":"Municipal","included_in_metrics":true,"exclusion_reason":null,"override_reason":null}},{"type":"Feature","geometry":{"type":"Point","coordinates":[-46.64729838,-23.55886482]},"properties":{"id":"sp_geosampa_museus:equipamento_cultura_museus.40266","source_id":"sp_geosampa_museus","name":"Museu dos Óculos Gioconda Giannini","category":"culture","subcategory":"museum","geometry_type":"Point","address":"Rua dos Ingleses, 108, 01329-000","equipment_type":"Museu","administrative_sphere":"Particular","included_in_metrics":false,"exclusion_reason":"private provider","override_reason":null}},{"type":"Feature","geometry":{"type":"Point","coordinates":[-46.66360403,-23.52691953]},"properties":{"id":"sp_geosampa_museus:equipamento_cultura_museus.40267","source_id":"sp_geosampa_museus","name":"Museu Memorial da Inclusão - Os Caminhos da Pessoa com Deficiência","category":"culture","subcategory":"museum","geometry_type":"Point","address":"Avenida Auro Soares de Moura Andrade, 564, 01156-001","equipment_type":"Museu","administrative_sphere":"Estadual","included_in_metrics":true,"exclusion_reason":null,"override_reason":null}},{"type":"Feature","geometry":{"type":"Point","coordinates":[-46.71687767,-23.56846533]},"properties":{"id":"sp_geosampa_museus:equipamento_cultura_museus.40268","source_id":"sp_geosampa_museus","name":"Museu Biológico - Instituto Butantan","category":"culture","subcategory":"museum","geometry_type":"Point","address":"Avenida Vital Brasil, 1500, 05503-900","equipment_type":"Museu","administrative_sphere":"Estadual","included_in_metrics":true,"exclusion_reason":null,"override_reason":null}},{"type":"Feature","geometry":{"type":"Point","coordinates":[-46.6456908,-23.53331408]},"properties":{"id":"sp_geosampa_museus:equipamento_cultura_museus.40269","source_id":"sp_geosampa_museus","name":"Museu das Favelas","category":"culture","subcategory":"museum","geometry_type":"Point","address":"Rua Guaianases, 1024, 01205-903","equipment_type":"Museu","administrative_sphere":"Estadual","included_in_metrics":true,"exclusion_reason":null,"override_reason":null}},{"type":"Feature","geometry":{"type":"Point","coordinates":[-46.65905593,-23.58360671]},"properties":{"id":"sp_geosampa_museus:equipamento_cultura_museus.40270","source_id":"sp_geosampa_museus","name":"Museu Afro Brasil Emanoel Araújo","category":"culture","subcategory":"museum","geometry_type":"Point","address":"Avenida Pedro Álvares Cabral, s/n, 04094-050","equipment_type":"Museu","administrative_sphere":"Estadual","included_in_metrics":true,"exclusion_reason":null,"override_reason":null}},{"type":"Feature","geometry":{"type":"Point","coordinates":[-46.66521587,-23.52771269]},"properties":{"id":"sp_geosampa_museus:equipamento_cultura_museus.40271","source_id":"sp_geosampa_museus","name":"Memorial da América Latina","category":"culture","subcategory":"museum","geometry_type":"Point","address":"Av. Mário de Andrade, 664, 01156-001","equipment_type":"Museu","administrative_sphere":"Estadual","included_in_metrics":true,"exclusion_reason":null,"override_reason":null}},{"type":"Feature","geometry":{"type":"Point","coordinates":[-46.66034101,-23.53061615]},"properties":{"id":"sp_geosampa_museus:equipamento_cultura_museus.40272","source_id":"sp_geosampa_museus","name":"Casa Mário de Andrade","category":"culture","subcategory":"museum","geometry_type":"Point","address":"Rua Lopes Chaves, 546, 01154-010","equipment_type":"Museu","administrative_sphere":"Estadual","included_in_metrics":true,"exclusion_reason":null,"override_reason":null}},{"type":"Feature","geometry":{"type":"Point","coordinates":[-46.63738581,-23.53389475]},"properties":{"id":"sp_geosampa_museus:equipamento_cultura_museus.40273","source_id":"sp_geosampa_museus","name":"Pinacoteca de São Paulo (Pinacoteca da Luz)","category":"culture","subcategory":"museum","geometry_type":"Point","address":"Praça da Luz, 2, 01120-010","equipment_type":"Museu","administrative_sphere":"Estadual","included_in_metrics":true,"exclusion_reason":null,"override_reason":null}},{"type":"Feature","geometry":{"type":"Point","coordinates":[-46.71235238,-23.60099173]},"properties":{"id":"sp_geosampa_museus:equipamento_cultura_museus.40274","source_id":"sp_geosampa_museus","name":"Acervo Artístico-Cultural dos Palácios do Governo do Estado de São Paulo - Palácio dos Bandeirantes","category":"culture","subcategory":"museum","geometry_type":"Point","address":"Avenida Morumbi, 4500, 05650-905","equipment_type":"Museu","administrative_sphere":"Estadual","included_in_metrics":true,"exclusion_reason":null,"override_reason":null}},{"type":"Feature","geometry":{"type":"Point","coordinates":[-46.44545334,-23.49323097]},"properties":{"id":"sp_geosampa_museus:equipamento_cultura_museus.40275","source_id":"sp_geosampa_museus","name":"Museu Diocesano Dom Fernando Legal","category":"culture","subcategory":"museum","geometry_type":"Point","address":"Praça Padre Aleixo Monteiro Mafra, 11, 08011-020","equipment_type":"Museu","administrative_sphere":"Particular","included_in_metrics":false,"exclusion_reason":"private provider","override_reason":null}},{"type":"Feature","geometry":{"type":"Point","coordinates":[-46.64532694,-23.57113165]},"properties":{"id":"sp_geosampa_museus:equipamento_cultura_museus.40276","source_id":"sp_geosampa_museus","name":"Casa das Rosas","category":"culture","subcategory":"museum","geometry_type":"Point","address":"Avenida Paulista, 37, 01311-902","equipment_type":"Museu","administrative_sphere":"Estadual","included_in_metrics":true,"exclusion_reason":null,"override_reason":null}},{"type":"Feature","geometry":{"type":"Point","coordinates":[-46.64555272,-23.56945142]},"properties":{"id":"sp_geosampa_museus:equipamento_cultura_museus.40277","source_id":"sp_geosampa_museus","name":"Acervo Histórico Irmã Beata Heinrich","category":"culture","subcategory":"museum","geometry_type":"Point","address":"Avenida Paulista, 200, 01310-000","equipment_type":"Museu","administrative_sphere":"Particular","included_in_metrics":false,"exclusion_reason":"private provider","override_reason":null}},{"type":"Feature","geometry":{"type":"Point","coordinates":[-46.66093348,-23.58442282]},"properties":{"id":"sp_geosampa_museus:equipamento_cultura_museus.40278","source_id":"sp_geosampa_museus","name":"Planetário Aristóteles Orsini","category":"culture","subcategory":"museum","geometry_type":"Point","address":"Avenida Pedro Álvares Cabral, s/n, 04094-000","equipment_type":"Museu","administrative_sphere":"Municipal","included_in_metrics":true,"exclusion_reason":null,"override_reason":null}},{"type":"Feature","geometry":{"type":"Point","coordinates":[-46.64276426,-23.54470103]},"properties":{"id":"sp_geosampa_museus:equipamento_cultura_museus.40279","source_id":"sp_geosampa_museus","name":"Museu da Diversidade - Centro de Cultura, Memória e Estudos da Diversidade Sexual","category":"culture","subcategory":"museum","geometry_type":"Point","address":"Rua do Arouche, 24, 1043010","equipment_type":"Museu","administrative_sphere":"Estadual","included_in_metrics":true,"exclusion_reason":null,"override_reason":null}},{"type":"Feature","geometry":{"type":"Point","coordinates":[-46.65010779,-23.54271925]},"properties":{"id":"sp_geosampa_museus:equipamento_cultura_museus.40280","source_id":"sp_geosampa_museus","name":"Museu da Santa Casa de São Paulo","category":"culture","subcategory":"museum","geometry_type":"Point","address":"Rua Doutor Cesário Mota Júnior, 112, 01221-900","equipment_type":"Museu","administrative_sphere":"Particular","included_in_metrics":false,"exclusion_reason":"private provider","override_reason":null}},{"type":"Feature","geometry":{"type":"Point","coordinates":[-46.64959798,-23.52570746]},"properties":{"id":"sp_geosampa_museus:equipamento_cultura_museus.40281","source_id":"sp_geosampa_museus","name":"Museu do Computador & Futuro da Tecnologia","category":"culture","subcategory":"museum","geometry_type":"Point","address":"Avenida Rudge, 315, 01133-000","equipment_type":"Museu","administrative_sphere":"Particular","included_in_metrics":false,"exclusion_reason":"private provider","override_reason":null}},{"type":"Feature","geometry":{"type":"Point","coordinates":[-46.73970845,-23.56939103]},"properties":{"id":"sp_geosampa_museus:equipamento_cultura_museus.40282","source_id":"sp_geosampa_museus","name":"Museu de Anatomia Veterinária Professor Doutor Plínio Pinto e Silva - Faculdade de Medicina Veterinária e Zootecnia da USP","category":"culture","subcategory":"museum","geometry_type":"Point","address":"Avenida Professor Doutor Orlando Marques de Paiva, 87, 05508-270","equipment_type":"Museu","administrative_sphere":"Estadual","included_in_metrics":true,"exclusion_reason":null,"override_reason":null}},{"type":"Feature","geometry":{"type":"Point","coordinates":[-46.71165687,-23.61312961]},"properties":{"id":"sp_geosampa_museus:equipamento_cultura_museus.40283","source_id":"sp_geosampa_museus","name":"Instituto Lina Bo. e P. M. Bardi","category":"culture","subcategory":"museum","geometry_type":"Point","address":"General Almerio de Moura, 200, 05690-080","equipment_type":"Museu","administrative_sphere":"Particular","included_in_metrics":false,"exclusion_reason":"private provider","override_reason":null}},{"type":"Feature","geometry":{"type":"Point","coordinates":[-46.66513363,-23.54764088]},"properties":{"id":"sp_geosampa_museus:equipamento_cultura_museus.40284","source_id":"sp_geosampa_museus","name":"Museu do Futebol","category":"culture","subcategory":"museum","geometry_type":"Point","address":"Praça Charles Miller, s/n, 01234-010","equipment_type":"Museu","administrative_sphere":"Estadual","included_in_metrics":true,"exclusion_reason":null,"override_reason":null}},{"type":"Feature","geometry":{"type":"Point","coordinates":[-46.61892826,-23.5252842]},"properties":{"id":"sp_geosampa_museus:equipamento_cultura_museus.40285","source_id":"sp_geosampa_museus","name":"Museu Histórico da Portuguesa - Associação Portuguesa de Desportos","category":"culture","subcategory":"museum","geometry_type":"Point","address":"Rua Comendador Nestor Pereira, 33, 03034-070","equipment_type":"Museu","administrative_sphere":"Particular","included_in_metrics":false,"exclusion_reason":"private provider","override_reason":null}},{"type":"Feature","geometry":{"type":"Point","coordinates":[-46.63162732,-23.5232886]},"properties":{"id":"sp_geosampa_museus:equipamento_cultura_museus.40286","source_id":"sp_geosampa_museus","name":"Museu do Saneamento (São Paulo)","category":"culture","subcategory":"museum","geometry_type":"Point","address":"Avenida do Estado, s/n, 01218-000","equipment_type":"Museu","administrative_sphere":"Particular","included_in_metrics":false,"exclusion_reason":"private provider","override_reason":null}},{"type":"Feature","geometry":{"type":"Point","coordinates":[-46.67134242,-23.53852771]},"properties":{"id":"sp_geosampa_museus:equipamento_cultura_museus.40287","source_id":"sp_geosampa_museus","name":"Museu da Cultura - Pontifícia Universidade Católica de São Paulo","category":"culture","subcategory":"museum","geometry_type":"Point","address":"Rua Monte Alegre, 984, 05014-901","equipment_type":"Museu","administrative_sphere":"Particular","included_in_metrics":false,"exclusion_reason":"private provider","override_reason":null}},{"type":"Feature","geometry":{"type":"Point","coordinates":[-46.63822131,-23.5348979]},"properties":{"id":"sp_geosampa_museus:equipamento_cultura_museus.40288","source_id":"sp_geosampa_museus","name":"Estação Pinacoteca","category":"culture","subcategory":"museum","geometry_type":"Point","address":"Largo General Osório, 66, 01213-010","equipment_type":"Museu","administrative_sphere":"Estadual","included_in_metrics":true,"exclusion_reason":null,"override_reason":null}},{"type":"Feature","geometry":{"type":"Point","coordinates":[-46.71687767,-23.56846533]},"properties":{"id":"sp_geosampa_museus:equipamento_cultura_museus.40289","source_id":"sp_geosampa_museus","name":"Museu Histórico - Instituto Butantan","category":"culture","subcategory":"museum","geometry_type":"Point","address":"Avenida Vital Brasil, 1500, 05503-900","equipment_type":"Museu","administrative_sphere":"Estadual","included_in_metrics":true,"exclusion_reason":null,"override_reason":null}},{"type":"Feature","geometry":{"type":"Point","coordinates":[-46.70965495,-23.56123533]},"properties":{"id":"sp_geosampa_museus:equipamento_cultura_museus.40290","source_id":"sp_geosampa_museus","name":"Museu da Cidade de São Paulo - Casa do Butantã","category":"culture","subcategory":"museum","geometry_type":"Point","address":"Praça Monteiro Lobato, s/n, 05506-030","equipment_type":"Museu","administrative_sphere":"Municipal","included_in_metrics":true,"exclusion_reason":null,"override_reason":null}},{"type":"Feature","geometry":{"type":"Point","coordinates":[-46.62278078,-23.6387033]},"properties":{"id":"sp_geosampa_museus:equipamento_cultura_museus.40291","source_id":"sp_geosampa_museus","name":"Jardim Botânico de São Paulo","category":"culture","subcategory":"museum","geometry_type":"Point","address":"Avenida Miguel Stéfano, 3031, 04045-972","equipment_type":"Museu","administrative_sphere":"Estadual","included_in_metrics":true,"exclusion_reason":null,"override_reason":null}},{"type":"Feature","geometry":{"type":"Point","coordinates":[-46.74409862,-23.52936359]},"properties":{"id":"sp_geosampa_museus:equipamento_cultura_museus.40292","source_id":"sp_geosampa_museus","name":"Museu do Relógio Professor Dimas de Melo Pimenta","category":"culture","subcategory":"museum","geometry_type":"Point","address":"Av. Mofarrej, 840, 05311-000","equipment_type":"Museu","administrative_sphere":"Particular","included_in_metrics":false,"exclusion_reason":"private provider","override_reason":null}},{"type":"Feature","geometry":{"type":"Point","coordinates":[-46.61104273,-23.59120424]},"properties":{"id":"sp_geosampa_museus:equipamento_cultura_museus.40293","source_id":"sp_geosampa_museus","name":"Museu Vicente de Azevedo","category":"culture","subcategory":"museum","geometry_type":"Point","address":"Rua Dom Luís Lasagna, 300, 04266-030","equipment_type":"Museu","administrative_sphere":"Particular","included_in_metrics":false,"exclusion_reason":"private provider","override_reason":null}},{"type":"Feature","geometry":{"type":"Point","coordinates":[-46.62497281,-23.5248503]},"properties":{"id":"sp_geosampa_museus:equipamento_cultura_museus.40294","source_id":"sp_geosampa_museus","name":"Museu dos Transportes Públicos Gaetano Ferolla","category":"culture","subcategory":"museum","geometry_type":"Point","address":"Avenida Cruzeiro do Sul, 780, 03033-020","equipment_type":"Museu","administrative_sphere":"Municipal","included_in_metrics":true,"exclusion_reason":null,"override_reason":null}},{"type":"Feature","geometry":{"type":"Point","coordinates":[-46.67625753,-23.57265087]},"properties":{"id":"sp_geosampa_museus:equipamento_cultura_museus.40295","source_id":"sp_geosampa_museus","name":"Paço das Artes Francisco Matarazzo Sobrinho","category":"culture","subcategory":"museum","geometry_type":"Point","address":"Avenida Europa, 158, 01449-000","equipment_type":"Museu","administrative_sphere":"Estadual","included_in_metrics":true,"exclusion_reason":null,"override_reason":null}},{"type":"Feature","geometry":{"type":"Point","coordinates":[-46.64508778,-23.51993939]},"properties":{"id":"sp_geosampa_museus:equipamento_cultura_museus.40296","source_id":"sp_geosampa_museus","name":"Acervo Gaviões da Fiel - Tia Geni","category":"culture","subcategory":"museum","geometry_type":"Point","address":"R. Cristina Tomás, 183, 01129-020","equipment_type":"Museu","administrative_sphere":"Particular","included_in_metrics":false,"exclusion_reason":"private provider","override_reason":null}},{"type":"Feature","geometry":{"type":"Point","coordinates":[-46.64277402,-23.52616485]},"properties":{"id":"sp_geosampa_museus:equipamento_cultura_museus.40297","source_id":"sp_geosampa_museus","name":"Instituto Butantan - Museu de Saúde Pública Emílio Ribas","category":"culture","subcategory":"museum","geometry_type":"Point","address":"Rua Tenente Pena, 100, 01127-020","equipment_type":"Museu","administrative_sphere":"Estadual","included_in_metrics":true,"exclusion_reason":null,"override_reason":null}},{"type":"Feature","geometry":{"type":"Point","coordinates":[-46.71253566,-23.56329938]},"properties":{"id":"sp_geosampa_museus:equipamento_cultura_museus.40298","source_id":"sp_geosampa_museus","name":"Coleção de Artes Visuais/Instituto de Estudos Brasileiros da Universidade de São Paulo","category":"culture","subcategory":"museum","geometry_type":"Point","address":"Avenida Professor Mello Moraes, 140, 05508-900","equipment_type":"Museu","administrative_sphere":"Estadual","included_in_metrics":true,"exclusion_reason":null,"override_reason":null}},{"type":"Feature","geometry":{"type":"Point","coordinates":[-46.68090543,-23.54176425]},"properties":{"id":"sp_geosampa_museus:equipamento_cultura_museus.40299","source_id":"sp_geosampa_museus","name":"Museu do Rádio, da Televisão e Novas Mídias","category":"culture","subcategory":"museum","geometry_type":"Point","address":"Rua Vargem do Cedro, 140, 01252-050","equipment_type":"Museu","administrative_sphere":"Particular","included_in_metrics":false,"exclusion_reason":"private provider","override_reason":null}},{"type":"Feature","geometry":{"type":"Point","coordinates":[-46.65587216,-23.56134353]},"properties":{"id":"sp_geosampa_museus:equipamento_cultura_museus.40300","source_id":"sp_geosampa_museus","name":"MASP - Museu de Arte de São Paulo Assis Chateaubriand","category":"culture","subcategory":"museum","geometry_type":"Point","address":"Avenida Paulista, 1578, 01310-200","equipment_type":"Museu","administrative_sphere":"Particular","included_in_metrics":false,"exclusion_reason":"private provider","override_reason":null}},{"type":"Feature","geometry":{"type":"Point","coordinates":[-46.63282869,-23.54924821]},"properties":{"id":"sp_geosampa_museus:equipamento_cultura_museus.40301","source_id":"sp_geosampa_museus","name":"Museu da Caixa Econômica Federal","category":"culture","subcategory":"museum","geometry_type":"Point","address":"Praça da Sé, 111, 01001-001","equipment_type":"Museu","administrative_sphere":"Federal","included_in_metrics":true,"exclusion_reason":null,"override_reason":null}},{"type":"Feature","geometry":{"type":"Point","coordinates":[-46.6158478,-23.50730164]},"properties":{"id":"sp_geosampa_museus:equipamento_cultura_museus.40302","source_id":"sp_geosampa_museus","name":"Museu Penitenciário Paulista","category":"culture","subcategory":"museum","geometry_type":"Point","address":"Avenida Zaki Narchi, 1207, 02029-001","equipment_type":"Museu","administrative_sphere":"Estadual","included_in_metrics":true,"exclusion_reason":null,"override_reason":null}},{"type":"Feature","geometry":{"type":"Point","coordinates":[-46.72387125,-23.56474826]},"properties":{"id":"sp_geosampa_museus:equipamento_cultura_museus.40303","source_id":"sp_geosampa_museus","name":"Museu da Farmácia - Universidade de São Paulo","category":"culture","subcategory":"museum","geometry_type":"Point","address":"Avenida Professor Lineu Prestes, 580, 05508-900","equipment_type":"Museu","administrative_sphere":"Estadual","included_in_metrics":true,"exclusion_reason":null,"override_reason":null}},{"type":"Feature","geometry":{"type":"Point","coordinates":[-46.63515897,-23.53494293]},"properties":{"id":"sp_geosampa_museus:equipamento_cultura_museus.40304","source_id":"sp_geosampa_museus","name":"Museu da Língua Portuguesa","category":"culture","subcategory":"museum","geometry_type":"Point","address":"Praça da Luz, s/n, 01120-010","equipment_type":"Museu","administrative_sphere":"Estadual","included_in_metrics":true,"exclusion_reason":null,"override_reason":null}},{"type":"Feature","geometry":{"type":"Point","coordinates":[-46.68447523,-23.57989063]},"properties":{"id":"sp_geosampa_museus:equipamento_cultura_museus.40305","source_id":"sp_geosampa_museus","name":"Museu da Casa Brasileira - MCB","category":"culture","subcategory":"museum","geometry_type":"Point","address":"Brigadeiro Faria Lima, 2705, 01451-000","equipment_type":"Museu","administrative_sphere":"Estadual","included_in_metrics":true,"exclusion_reason":null,"override_reason":null}},{"type":"Feature","geometry":{"type":"Point","coordinates":[-46.66909583,-23.53226017]},"properties":{"id":"sp_geosampa_museus:equipamento_cultura_museus.40306","source_id":"sp_geosampa_museus","name":"Museu Geológico Valdemar Lefèvre","category":"culture","subcategory":"museum","geometry_type":"Point","address":"Rua Ministro de Godoy, 310, 05015-000","equipment_type":"Museu","administrative_sphere":"Estadual","included_in_metrics":true,"exclusion_reason":null,"override_reason":null}},{"type":"Feature","geometry":{"type":"Point","coordinates":[-46.62278078,-23.6387033]},"properties":{"id":"sp_geosampa_museus:equipamento_cultura_museus.40307","source_id":"sp_geosampa_museus","name":"Museu Botânico Doutor João Barbosa Rodrigues","category":"culture","subcategory":"museum","geometry_type":"Point","address":"Avenida Miguel Stéfano, 3031, 04301-905","equipment_type":"Museu","administrative_sphere":"Particular","included_in_metrics":false,"exclusion_reason":"private provider","override_reason":null}},{"type":"Feature","geometry":{"type":"Point","coordinates":[-46.63049285,-23.54359436]},"properties":{"id":"sp_geosampa_museus:equipamento_cultura_museus.40308","source_id":"sp_geosampa_museus","name":"Centro Cultural do Liceu de Artes e Ofícios de São Paulo","category":"culture","subcategory":"museum","geometry_type":"Point","address":"Rua da Cantareira, 1351, 01103-201","equipment_type":"Museu","administrative_sphere":"Particular","included_in_metrics":false,"exclusion_reason":"private provider","override_reason":null}},{"type":"Feature","geometry":{"type":"Point","coordinates":[-46.71724716,-23.73155892]},"properties":{"id":"sp_geosampa_museus:equipamento_cultura_museus.40309","source_id":"sp_geosampa_museus","name":"Museu da Gastronomia Brasileira","category":"culture","subcategory":"museum","geometry_type":"Point","address":"Rua Bernardo de Claraval, 77, 04832-000","equipment_type":"Museu","administrative_sphere":"Particular","included_in_metrics":false,"exclusion_reason":"private provider","override_reason":null}},{"type":"Feature","geometry":{"type":"Point","coordinates":[-46.67571651,-23.57351151]},"properties":{"id":"sp_geosampa_museus:equipamento_cultura_museus.40310","source_id":"sp_geosampa_museus","name":"Fundação Cultural Ema Gordon Klabin","category":"culture","subcategory":"museum","geometry_type":"Point","address":"Rua Portugal, 43, 01446-020","equipment_type":"Museu","administrative_sphere":"Particular","included_in_metrics":false,"exclusion_reason":"private provider","override_reason":null}},{"type":"Feature","geometry":{"type":"Point","coordinates":[-46.63460908,-23.54745544]},"properties":{"id":"sp_geosampa_museus:equipamento_cultura_museus.40311","source_id":"sp_geosampa_museus","name":"Centro Cultural Banco do Brasil São Paulo","category":"culture","subcategory":"museum","geometry_type":"Point","address":"Rua Álvares Penteado, 112, 01012-000","equipment_type":"Museu","administrative_sphere":"Particular","included_in_metrics":false,"exclusion_reason":"private provider","override_reason":null}},{"type":"Feature","geometry":{"type":"Point","coordinates":[-46.67241868,-23.53035903]},"properties":{"id":"sp_geosampa_museus:equipamento_cultura_museus.40312","source_id":"sp_geosampa_museus","name":"Museu das Culturas Indígenas","category":"culture","subcategory":"museum","geometry_type":"Point","address":"Rua Dona Germaine Burchard, 451, 05002-060","equipment_type":"Museu","administrative_sphere":"Estadual","included_in_metrics":true,"exclusion_reason":null,"override_reason":null}},{"type":"Feature","geometry":{"type":"Point","coordinates":[-46.61041189,-23.58755458]},"properties":{"id":"sp_geosampa_museus:equipamento_cultura_museus.40313","source_id":"sp_geosampa_museus","name":"Museu de Zoologia da Universidade de São Paulo - MZUSP","category":"culture","subcategory":"museum","geometry_type":"Point","address":"Avenida Nazaré, 481, 04263-000","equipment_type":"Museu","administrative_sphere":"Estadual","included_in_metrics":true,"exclusion_reason":null,"override_reason":null}},{"type":"Feature","geometry":{"type":"Point","coordinates":[-46.63241226,-23.55396059]},"properties":{"id":"sp_geosampa_museus:equipamento_cultura_museus.40314","source_id":"sp_geosampa_museus","name":"Museu do Tribunal de Justiça de São Paulo","category":"culture","subcategory":"museum","geometry_type":"Point","address":"Rua Conde de Sarzedas, 100, 01512-000","equipment_type":"Museu","administrative_sphere":"Estadual","included_in_metrics":true,"exclusion_reason":null,"override_reason":null}},{"type":"Feature","geometry":{"type":"Point","coordinates":[-46.62729876,-23.54430918]},"properties":{"id":"sp_geosampa_museus:equipamento_cultura_museus.40315","source_id":"sp_geosampa_museus","name":"Museu Catavento","category":"culture","subcategory":"museum","geometry_type":"Point","address":"Parque Dom Pedro II - Avenida Mercúrio, s/n, 03003-060","equipment_type":"Museu","administrative_sphere":"Estadual","included_in_metrics":true,"exclusion_reason":null,"override_reason":null}},{"type":"Feature","geometry":{"type":"Point","coordinates":[-46.64345919,-23.5324739]},"properties":{"id":"sp_geosampa_museus:equipamento_cultura_museus.40316","source_id":"sp_geosampa_museus","name":"Museu da Obra Salesiana no Brasil","category":"culture","subcategory":"museum","geometry_type":"Point","address":"Largo Coração de Jesus, 154, 01215-020","equipment_type":"Museu","administrative_sphere":"Particular","included_in_metrics":false,"exclusion_reason":"private provider","override_reason":null}},{"type":"Feature","geometry":{"type":"Point","coordinates":[-46.64007453,-23.58925957]},"properties":{"id":"sp_geosampa_museus:equipamento_cultura_museus.40317","source_id":"sp_geosampa_museus","name":"Museu Belas Artes de São Paulo - MUBA","category":"culture","subcategory":"museum","geometry_type":"Point","address":"Rua Doutor Álvaro Alvim, 76, 04018-010","equipment_type":"Museu","administrative_sphere":"Particular","included_in_metrics":false,"exclusion_reason":"private provider","override_reason":null}},{"type":"Feature","geometry":{"type":"Point","coordinates":[-46.7256073,-23.55662797]},"properties":{"id":"sp_geosampa_museus:equipamento_cultura_museus.40318","source_id":"sp_geosampa_museus","name":"Museu de Ciências da Universidade de São Paulo","category":"culture","subcategory":"museum","geometry_type":"Point","address":"Avenida Professor Luciano Gualberto - Travessa J, 374, 05508-900","equipment_type":"Museu","administrative_sphere":"Estadual","included_in_metrics":true,"exclusion_reason":null,"override_reason":null}},{"type":"Feature","geometry":{"type":"Point","coordinates":[-46.71687767,-23.56846533]},"properties":{"id":"sp_geosampa_museus:equipamento_cultura_museus.40319","source_id":"sp_geosampa_museus","name":"Museu de Microbiologia - Instituto Butantan","category":"culture","subcategory":"museum","geometry_type":"Point","address":"Avenida Vital Brasil, 1500, 05503-900","equipment_type":"Museu","administrative_sphere":"Estadual","included_in_metrics":true,"exclusion_reason":null,"override_reason":null}},{"type":"Feature","geometry":{"type":"Point","coordinates":[-46.61225742,-23.5501867]},"properties":{"id":"sp_geosampa_museus:equipamento_cultura_museus.40320","source_id":"sp_geosampa_museus","name":"Museu da Imigração","category":"culture","subcategory":"museum","geometry_type":"Point","address":"Rua Visconde de Parnaíba, 1.3160000000000001, 3164300","equipment_type":"Museu","administrative_sphere":"Estadual","included_in_metrics":true,"exclusion_reason":null,"override_reason":null}},{"type":"Feature","geometry":{"type":"Point","coordinates":[-46.67116615,-23.55665465]},"properties":{"id":"sp_geosampa_museus:equipamento_cultura_museus.40321","source_id":"sp_geosampa_museus","name":"Centro Histórico Cultural da Enfermagem Ibero Americana","category":"culture","subcategory":"museum","geometry_type":"Point","address":"Avenida Doutor Enéas de Carvalho Aguiar, 419, 05400-970","equipment_type":"Museu","administrative_sphere":"Estadual","included_in_metrics":true,"exclusion_reason":null,"override_reason":null}},{"type":"Feature","geometry":{"type":"Point","coordinates":[-46.63454362,-23.54648782]},"properties":{"id":"sp_geosampa_museus:equipamento_cultura_museus.40322","source_id":"sp_geosampa_museus","name":"MUB3 - Museu da Bolsa do Brasil","category":"culture","subcategory":"museum","geometry_type":"Point","address":"Rua XV de novembro, 275, 01013-906","equipment_type":"Museu","administrative_sphere":"Particular","included_in_metrics":false,"exclusion_reason":"private provider","override_reason":null}},{"type":"Feature","geometry":{"type":"Point","coordinates":[-46.66586023,-23.55561227]},"properties":{"id":"sp_geosampa_museus:equipamento_cultura_museus.40323","source_id":"sp_geosampa_museus","name":"Instituto de Arte Contemporânea","category":"culture","subcategory":"museum","geometry_type":"Point","address":"Avenida Doutor Arnaldo, 120/126, 01246-000","equipment_type":"Museu","administrative_sphere":"Particular","included_in_metrics":false,"exclusion_reason":"private provider","override_reason":null}},{"type":"Feature","geometry":{"type":"Point","coordinates":[-46.73075485,-23.53224529]},"properties":{"id":"sp_geosampa_museus:equipamento_cultura_museus.40324","source_id":"sp_geosampa_museus","name":"Associação Cultural Videobrasil","category":"culture","subcategory":"museum","geometry_type":"Point","address":"Avenida Imperatriz Leopoldina, 1150, 05305-002","equipment_type":"Museu","administrative_sphere":"Particular","included_in_metrics":false,"exclusion_reason":"private provider","override_reason":null}},{"type":"Feature","geometry":{"type":"Point","coordinates":[-46.64296722,-23.59802057]},"properties":{"id":"sp_geosampa_museus:equipamento_cultura_museus.40325","source_id":"sp_geosampa_museus","name":"Museu de Anatomia Prof. Renato Locchi - Universidade Federal de São Paulo","category":"culture","subcategory":"museum","geometry_type":"Point","address":"Rua Botucatu, 740, 04023-900","equipment_type":"Museu","administrative_sphere":"Federal","included_in_metrics":true,"exclusion_reason":null,"override_reason":null}},{"type":"Feature","geometry":{"type":"Point","coordinates":[-46.64806553,-23.58562353]},"properties":{"id":"sp_geosampa_museus:equipamento_cultura_museus.40326","source_id":"sp_geosampa_museus","name":"Museu do Instituto Biológico","category":"culture","subcategory":"museum","geometry_type":"Point","address":"Rua Amâncio de Carvalho, 546, 04012-080","equipment_type":"Museu","administrative_sphere":"Estadual","included_in_metrics":true,"exclusion_reason":null,"override_reason":null}},{"type":"Feature","geometry":{"type":"Point","coordinates":[-46.65340081,-23.52151199]},"properties":{"id":"sp_geosampa_museus:equipamento_cultura_museus.40327","source_id":"sp_geosampa_museus","name":"Museu das Artes Gráficas","category":"culture","subcategory":"museum","geometry_type":"Point","address":"Rua Anhangüera, 697, 01135-000","equipment_type":"Museu","administrative_sphere":"Particular","included_in_metrics":false,"exclusion_reason":"private provider","override_reason":null}},{"type":"Feature","geometry":{"type":"Point","coordinates":[-46.7151899,-23.49306964]},"properties":{"id":"sp_geosampa_museus:equipamento_cultura_museus.40328","source_id":"sp_geosampa_museus","name":"Museu Leasowe Castle House","category":"culture","subcategory":"museum","geometry_type":"Point","address":"Avenida Paula Ferreira, 2159, 02915-100","equipment_type":"Museu","administrative_sphere":"Particular","included_in_metrics":false,"exclusion_reason":"private provider","override_reason":null}},{"type":"Feature","geometry":{"type":"Point","coordinates":[-46.7427064,-23.56933443]},"properties":{"id":"sp_geosampa_museus:equipamento_cultura_museus.40329","source_id":"sp_geosampa_museus","name":"Museu Drogasil","category":"culture","subcategory":"museum","geometry_type":"Point","address":"Avenida Corifeu de Azevedo Marques, 3097, 05339-900","equipment_type":"Museu","administrative_sphere":"Particular","included_in_metrics":false,"exclusion_reason":"private provider","override_reason":null}},{"type":"Feature","geometry":{"type":"Point","coordinates":[-46.67210916,-23.55446944]},"properties":{"id":"sp_geosampa_museus:equipamento_cultura_museus.40330","source_id":"sp_geosampa_museus","name":"Museu Técnico Científico do Instituto Oscar Freire (Universidade de São Paulo) (fechado temporariamente)","category":"culture","subcategory":"museum","geometry_type":"Point","address":"Rua Teodoro Sampaio, 115, 05405-000","equipment_type":"Museu","administrative_sphere":"Estadual","included_in_metrics":true,"exclusion_reason":null,"override_reason":null}},{"type":"Feature","geometry":{"type":"Point","coordinates":[-46.65845582,-23.54419528]},"properties":{"id":"sp_geosampa_museus:equipamento_cultura_museus.40331","source_id":"sp_geosampa_museus","name":"Instituto Moreira Salles - Centro Cultural","category":"culture","subcategory":"museum","geometry_type":"Point","address":"Rua Piauí, 844, 01310-915","equipment_type":"Museu","administrative_sphere":"Particular","included_in_metrics":false,"exclusion_reason":"private provider","override_reason":null}},{"type":"Feature","geometry":{"type":"Point","coordinates":[-46.63904946,-23.54345176]},"properties":{"id":"sp_geosampa_museus:equipamento_cultura_museus.40332","source_id":"sp_geosampa_museus","name":"Centro de Memória do Circo","category":"culture","subcategory":"museum","geometry_type":"Point","address":"Avenida São João, 473, 01035-000","equipment_type":"Museu","administrative_sphere":"Municipal","included_in_metrics":true,"exclusion_reason":null,"override_reason":null}},{"type":"Feature","geometry":{"type":"Point","coordinates":[-46.62682057,-23.51504984]},"properties":{"id":"sp_geosampa_museus:equipamento_cultura_museus.40333","source_id":"sp_geosampa_museus","name":"Instituto Museu e Biblioteca de Odontologia de São Paulo","category":"culture","subcategory":"museum","geometry_type":"Point","address":"Rua Voluntários da Pátria, 547, 02011-000","equipment_type":"Museu","administrative_sphere":"Particular","included_in_metrics":false,"exclusion_reason":"private provider","override_reason":null}},{"type":"Feature","geometry":{"type":"Point","coordinates":[-46.72113575,-23.59984182]},"properties":{"id":"sp_geosampa_museus:equipamento_cultura_museus.40334","source_id":"sp_geosampa_museus","name":"Memorial do São Paulo Futebol Clube","category":"culture","subcategory":"museum","geometry_type":"Point","address":"Avenida Giovanni Gronchi, s/n, 05653-070","equipment_type":"Museu","administrative_sphere":"Particular","included_in_metrics":false,"exclusion_reason":"private provider","override_reason":null}},{"type":"Feature","geometry":{"type":"Point","coordinates":[-46.63266222,-23.54778055]},"properties":{"id":"sp_geosampa_museus:equipamento_cultura_museus.40335","source_id":"sp_geosampa_museus","name":"Museu Anchieta","category":"culture","subcategory":"museum","geometry_type":"Point","address":"Praça Patteo do Collegio, 2, 01016-040","equipment_type":"Museu","administrative_sphere":"Particular","included_in_metrics":false,"exclusion_reason":"private provider","override_reason":null}},{"type":"Feature","geometry":{"type":"Point","coordinates":[-46.73069431,-23.56571624]},"properties":{"id":"sp_geosampa_museus:equipamento_cultura_museus.40336","source_id":"sp_geosampa_museus","name":"Herbário do Departamento de Botânica (Universidade de São Paulo)","category":"culture","subcategory":"museum","geometry_type":"Point","address":"Rua do Matão, 277, 05508-090","equipment_type":"Museu","administrative_sphere":"Estadual","included_in_metrics":true,"exclusion_reason":null,"override_reason":null}},{"type":"Feature","geometry":{"type":"Point","coordinates":[-46.67625753,-23.57265087]},"properties":{"id":"sp_geosampa_museus:equipamento_cultura_museus.40337","source_id":"sp_geosampa_museus","name":"Museu da Imagem e do Som - MIS - SP","category":"culture","subcategory":"museum","geometry_type":"Point","address":"Avenida Europa, 158, 1449000","equipment_type":"Museu","administrative_sphere":"Estadual","included_in_metrics":true,"exclusion_reason":null,"override_reason":null}},{"type":"Feature","geometry":{"type":"Point","coordinates":[-46.7396338,-23.5652382]},"properties":{"id":"sp_geosampa_museus:equipamento_cultura_museus.40338","source_id":"sp_geosampa_museus","name":"Museu de Anatomia Humana Professor Alfonso Bovero - Universidade de São Paulo","category":"culture","subcategory":"museum","geometry_type":"Point","address":"Avenida Professor Lineu Prestes, 2415, 05508-900","equipment_type":"Museu","administrative_sphere":"Estadual","included_in_metrics":true,"exclusion_reason":null,"override_reason":null}},{"type":"Feature","geometry":{"type":"Point","coordinates":[-46.7128865,-23.56610715]},"properties":{"id":"sp_geosampa_museus:equipamento_cultura_museus.40339","source_id":"sp_geosampa_museus","name":"Museu da Polícia Civil do Estado de São Paulo","category":"culture","subcategory":"museum","geometry_type":"Point","address":"Praça Professor Reynaldo Porchat, 219, 05507-040","equipment_type":"Museu","administrative_sphere":"Estadual","included_in_metrics":true,"exclusion_reason":null,"override_reason":null}},{"type":"Feature","geometry":{"type":"Point","coordinates":[-46.72773942,-23.56171303]},"properties":{"id":"sp_geosampa_museus:equipamento_cultura_museus.40340","source_id":"sp_geosampa_museus","name":"Museu de Geociências da Universidade de São Paulo","category":"culture","subcategory":"museum","geometry_type":"Point","address":"Rua do Lago, 562, 05508-080","equipment_type":"Museu","administrative_sphere":"Estadual","included_in_metrics":true,"exclusion_reason":null,"override_reason":null}},{"type":"Feature","geometry":{"type":"Point","coordinates":[-46.659258,-23.56658226]},"properties":{"id":"sp_geosampa_museus:equipamento_cultura_museus.40341","source_id":"sp_geosampa_museus","name":"Museu Xingu","category":"culture","subcategory":"museum","geometry_type":"Point","address":"Rua José Maria Lisboa, 838, 01423-001","equipment_type":"Museu","administrative_sphere":"Particular","included_in_metrics":false,"exclusion_reason":"private provider","override_reason":null}},{"type":"Feature","geometry":{"type":"Point","coordinates":[-46.7511497,-23.70097114]},"properties":{"id":"sp_geosampa_museus:equipamento_cultura_museus.40342","source_id":"sp_geosampa_museus","name":"Parque Ecológico Guarapiranga","category":"culture","subcategory":"museum","geometry_type":"Point","address":"Estrada da Riviera, 3286, 04916-000","equipment_type":"Museu","administrative_sphere":"Estadual","included_in_metrics":true,"exclusion_reason":null,"override_reason":null}},{"type":"Feature","geometry":{"type":"Point","coordinates":[-46.63362371,-23.46260129]},"properties":{"id":"sp_geosampa_museus:equipamento_cultura_museus.40343","source_id":"sp_geosampa_museus","name":"Acervo Artístico-Cultural dos Palácios do Governo do Estado de São Paulo - Palácio do Horto","category":"culture","subcategory":"museum","geometry_type":"Point","address":"Rua do Horto, 931, 02377-000","equipment_type":"Museu","administrative_sphere":"Estadual","included_in_metrics":true,"exclusion_reason":null,"override_reason":null}},{"type":"Feature","geometry":{"type":"Point","coordinates":[-46.6186584,-23.64169728]},"properties":{"id":"sp_geosampa_museus:equipamento_cultura_museus.40344","source_id":"sp_geosampa_museus","name":"Parque Estadual Fontes do Ipiranga","category":"culture","subcategory":"museum","geometry_type":"Point","address":"Avenida Miguel Estefno, 3687, 04301-012","equipment_type":"Museu","administrative_sphere":"Estadual","included_in_metrics":true,"exclusion_reason":null,"override_reason":null}},{"type":"Feature","geometry":{"type":"Point","coordinates":[-46.66065704,-23.57673214]},"properties":{"id":"sp_geosampa_museus:equipamento_cultura_museus.40345","source_id":"sp_geosampa_museus","name":"Centro Pró-Memória - Club Athlético Paulistano","category":"culture","subcategory":"museum","geometry_type":"Point","address":"Rua Honduras, 1400, 01428-900","equipment_type":"Museu","administrative_sphere":"Particular","included_in_metrics":false,"exclusion_reason":"private provider","override_reason":null}},{"type":"Feature","geometry":{"type":"Point","coordinates":[-46.63822131,-23.5348979]},"properties":{"id":"sp_geosampa_museus:equipamento_cultura_museus.40346","source_id":"sp_geosampa_museus","name":"Memorial da Resistência de São Paulo","category":"culture","subcategory":"museum","geometry_type":"Point","address":"Largo General Osório, 66, 01213-010","equipment_type":"Museu","administrative_sphere":"Estadual","included_in_metrics":true,"exclusion_reason":null,"override_reason":null}},{"type":"Feature","geometry":{"type":"Point","coordinates":[-46.62889734,-23.53196939]},"properties":{"id":"sp_geosampa_museus:equipamento_cultura_museus.40347","source_id":"sp_geosampa_museus","name":"Museu de Polícia Militar do Estado de São Paulo (fechado temporariamente)","category":"culture","subcategory":"museum","geometry_type":"Point","address":"Rua Dr Jorge Miranda, 308, 01106-000","equipment_type":"Museu","administrative_sphere":"Estadual","included_in_metrics":true,"exclusion_reason":null,"override_reason":null}},{"type":"Feature","geometry":{"type":"Point","coordinates":[-46.73407036,-23.56025981]},"properties":{"id":"sp_geosampa_museus:equipamento_cultura_museus.40348","source_id":"sp_geosampa_museus","name":"Laboratório de Demonstrações Físicas - Instituto de Física da Universidade de São Paulo","category":"culture","subcategory":"museum","geometry_type":"Point","address":"Rua do Matão, s/n, 05508-090","equipment_type":"Museu","administrative_sphere":"Estadual","included_in_metrics":true,"exclusion_reason":null,"override_reason":null}},{"type":"Feature","geometry":{"type":"Point","coordinates":[-46.67383021,-23.54686851]},"properties":{"id":"sp_geosampa_museus:equipamento_cultura_museus.40349","source_id":"sp_geosampa_museus","name":"Casa Guilherme de Almeida","category":"culture","subcategory":"museum","geometry_type":"Point","address":"Rua Macapá, 187, 01251-080","equipment_type":"Museu","administrative_sphere":"Estadual","included_in_metrics":true,"exclusion_reason":null,"override_reason":null}},{"type":"Feature","geometry":{"type":"Point","coordinates":[-46.44570144,-23.49137892]},"properties":{"id":"sp_geosampa_museus:equipamento_cultura_museus.40350","source_id":"sp_geosampa_museus","name":"Museu Capela de São Miguel Arcanjo","category":"culture","subcategory":"museum","geometry_type":"Point","address":"Praça Padre Aleixo Monteiro Mafra, 10, 08011-010","equipment_type":"Museu","administrative_sphere":"Particular","included_in_metrics":false,"exclusion_reason":"private provider","override_reason":null}},{"type":"Feature","geometry":{"type":"Point","coordinates":[-46.64469075,-23.59464289]},"properties":{"id":"sp_geosampa_museus:equipamento_cultura_museus.40351","source_id":"sp_geosampa_museus","name":"Memorial da Educação Municipal- MEM","category":"culture","subcategory":"museum","geometry_type":"Point","address":"Rua Estado de Israel, 509, 04022-002","equipment_type":"Museu","administrative_sphere":"Municipal","included_in_metrics":true,"exclusion_reason":null,"override_reason":null}},{"type":"Feature","geometry":{"type":"Point","coordinates":[-46.64066994,-23.54367468]},"properties":{"id":"sp_geosampa_museus:equipamento_cultura_museus.40352","source_id":"sp_geosampa_museus","name":"Museu Tattoo Brasil (fechado temporariamente)","category":"culture","subcategory":"museum","geometry_type":"Point","address":"Rua 24 de maio, 225, 01041-001","equipment_type":"Museu","administrative_sphere":"Particular","included_in_metrics":false,"exclusion_reason":"private provider","override_reason":null}},{"type":"Feature","geometry":{"type":"Point","coordinates":[-46.69420802,-23.56021701]},"properties":{"id":"sp_geosampa_museus:equipamento_cultura_museus.40353","source_id":"sp_geosampa_museus","name":"A Casa - Museu do Objeto Brasileiro","category":"culture","subcategory":"museum","geometry_type":"Point","address":"Avenida Pedroso de Morais, 1234, 05420-001","equipment_type":"Museu","administrative_sphere":"Particular","included_in_metrics":false,"exclusion_reason":"private provider","override_reason":null}},{"type":"Feature","geometry":{"type":"Point","coordinates":[-46.69436686,-23.51219788]},"properties":{"id":"sp_geosampa_museus:equipamento_cultura_museus.40354","source_id":"sp_geosampa_museus","name":"Fundação Padre Anchieta","category":"culture","subcategory":"museum","geometry_type":"Point","address":"Rua Cenno Sbrighi, 378, 05036-900","equipment_type":"Museu","administrative_sphere":"Particular","included_in_metrics":false,"exclusion_reason":"private provider","override_reason":null}},{"type":"Feature","geometry":{"type":"Point","coordinates":[-46.51985579,-23.49469641]},"properties":{"id":"sp_geosampa_museus:equipamento_cultura_museus.40355","source_id":"sp_geosampa_museus","name":"Parque Ecológico do Tietê","category":"culture","subcategory":"museum","geometry_type":"Point","address":"Rua Guira Acangatara, 70, 03719-000","equipment_type":"Museu","administrative_sphere":"Estadual","included_in_metrics":true,"exclusion_reason":null,"override_reason":null}},{"type":"Feature","geometry":{"type":"Point","coordinates":[-46.67912648,-23.59027386]},"properties":{"id":"sp_geosampa_museus:equipamento_cultura_museus.40356","source_id":"sp_geosampa_museus","name":"Centro de História Unilever","category":"culture","subcategory":"museum","geometry_type":"Point","address":"Avenida Presidente Juscelino Kubitschek, 1039, 04543-000","equipment_type":"Museu","administrative_sphere":"Particular","included_in_metrics":false,"exclusion_reason":"private provider","override_reason":null}},{"type":"Feature","geometry":{"type":"Point","coordinates":[-46.63829412,-23.55273173]},"properties":{"id":"sp_geosampa_museus:equipamento_cultura_museus.40357","source_id":"sp_geosampa_museus","name":"Museu de História da Medicina da Associação Paulista de Medicina","category":"culture","subcategory":"museum","geometry_type":"Point","address":"Avenida Brigadeiro Luiz Antônio, 278, 01318-901","equipment_type":"Museu","administrative_sphere":"Particular","included_in_metrics":false,"exclusion_reason":"private provider","override_reason":null}},{"type":"Feature","geometry":{"type":"Point","coordinates":[-46.73077924,-23.64821961]},"properties":{"id":"sp_geosampa_museus:equipamento_cultura_museus.40358","source_id":"sp_geosampa_museus","name":"Centro de Memória Bunge","category":"culture","subcategory":"museum","geometry_type":"Point","address":"Centro Empresarial de São Paulo - Avenida Maria Coelho Aguiar, 215, 05804-900","equipment_type":"Museu","administrative_sphere":"Particular","included_in_metrics":false,"exclusion_reason":"private provider","override_reason":null}},{"type":"Feature","geometry":{"type":"Point","coordinates":[-46.64597617,-23.57040396]},"properties":{"id":"sp_geosampa_museus:equipamento_cultura_museus.40359","source_id":"sp_geosampa_museus","name":"Itaú Numismática","category":"culture","subcategory":"museum","geometry_type":"Point","address":"Avenida Paulista, 149, 01311-000","equipment_type":"Museu","administrative_sphere":"Particular","included_in_metrics":false,"exclusion_reason":"private provider","override_reason":null}},{"type":"Feature","geometry":{"type":"Point","coordinates":[-46.71006141,-23.52343569]},"properties":{"id":"sp_geosampa_museus:equipamento_cultura_museus.40360","source_id":"sp_geosampa_museus","name":"Museu Espírita de São Paulo","category":"culture","subcategory":"museum","geometry_type":"Point","address":"Rua Guaricanga, 357, 05075-030","equipment_type":"Museu","administrative_sphere":"Particular","included_in_metrics":false,"exclusion_reason":"private provider","override_reason":null}},{"type":"Feature","geometry":{"type":"Point","coordinates":[-46.66229081,-23.54503994]},"properties":{"id":"sp_geosampa_museus:equipamento_cultura_museus.40361","source_id":"sp_geosampa_museus","name":"Museu de Arte Brasileira - Fundação Armando Álvares Penteado","category":"culture","subcategory":"museum","geometry_type":"Point","address":"Rua Alagoas, 903, 01242-902","equipment_type":"Museu","administrative_sphere":"Particular","included_in_metrics":false,"exclusion_reason":"private provider","override_reason":null}},{"type":"Feature","geometry":{"type":"Point","coordinates":[-46.64183596,-23.59552005]},"properties":{"id":"sp_geosampa_museus:equipamento_cultura_museus.40362","source_id":"sp_geosampa_museus","name":"Centro de Memória Dorina Nowill","category":"culture","subcategory":"museum","geometry_type":"Point","address":"Rua Doutor Diogo de Faria, 558, 04037-001","equipment_type":"Museu","administrative_sphere":"Particular","included_in_metrics":false,"exclusion_reason":"private provider","override_reason":null}},{"type":"Feature","geometry":{"type":"Point","coordinates":[-46.65561197,-23.58750041]},"properties":{"id":"sp_geosampa_museus:equipamento_cultura_museus.40363","source_id":"sp_geosampa_museus","name":"Museu de Arte Moderna de São Paulo - MAM","category":"culture","subcategory":"museum","geometry_type":"Point","address":"Avenida Pedro Álvares Cabral, s/n, 04094-000","equipment_type":"Museu","administrative_sphere":"Particular","included_in_metrics":false,"exclusion_reason":"private provider","override_reason":null}},{"type":"Feature","geometry":{"type":"Point","coordinates":[-46.71687767,-23.56846533]},"properties":{"id":"sp_geosampa_museus:equipamento_cultura_museus.40364","source_id":"sp_geosampa_museus","name":"Museu da Vacina","category":"culture","subcategory":"museum","geometry_type":"Point","address":"Avenida Vital Brasil, 1500, 05503-900","equipment_type":"Museu","administrative_sphere":"Estadual","included_in_metrics":true,"exclusion_reason":null,"override_reason":null}},{"type":"Feature","geometry":{"type":"Point","coordinates":[-46.68820731,-23.59328011]},"properties":{"id":"sp_geosampa_museus:equipamento_cultura_museus.40365","source_id":"sp_geosampa_museus","name":"Museu da Sociedade Brasileira de Cirurgia Plástica Ivo Pitanguy","category":"culture","subcategory":"museum","geometry_type":"Point","address":"Rua Funchal, 129, 04551-060","equipment_type":"Museu","administrative_sphere":"Particular","included_in_metrics":false,"exclusion_reason":"private provider","override_reason":null}},{"type":"Feature","geometry":{"type":"Point","coordinates":[-46.74191942,-23.56002097]},"properties":{"id":"sp_geosampa_museus:equipamento_cultura_museus.40366","source_id":"sp_geosampa_museus","name":"Museu de Arqueologia e Etnologia da Universidade de São Paulo - MAE","category":"culture","subcategory":"museum","geometry_type":"Point","address":"Avenida Professor Almeida Prado, 1466, 05508-070","equipment_type":"Museu","administrative_sphere":"Estadual","included_in_metrics":true,"exclusion_reason":null,"override_reason":null}},{"type":"Feature","geometry":{"type":"Point","coordinates":[-46.63608713,-23.45453702]},"properties":{"id":"sp_geosampa_museus:equipamento_cultura_museus.40367","source_id":"sp_geosampa_museus","name":"Parque Estadual da Serra da Cantareira - Núcleo Pedra Grande","category":"culture","subcategory":"museum","geometry_type":"Point","address":"Rua do Horto, 1799, 02377-000","equipment_type":"Museu","administrative_sphere":"Estadual","included_in_metrics":true,"exclusion_reason":null,"override_reason":null}},{"type":"Feature","geometry":{"type":"Point","coordinates":[-46.68865653,-23.57854915]},"properties":{"id":"sp_geosampa_museus:equipamento_cultura_museus.40368","source_id":"sp_geosampa_museus","name":"Centro Pró-Memória Hans Nobiling do Esporte Club Pinheiros","category":"culture","subcategory":"museum","geometry_type":"Point","address":"Rua Angelina Maffei Vita, 493, 01455-902","equipment_type":"Museu","administrative_sphere":"Particular","included_in_metrics":false,"exclusion_reason":"private provider","override_reason":null}},{"type":"Feature","geometry":{"type":"Point","coordinates":[-46.67300106,-23.55404615]},"properties":{"id":"sp_geosampa_museus:equipamento_cultura_museus.40369","source_id":"sp_geosampa_museus","name":"Coleção Entomológica de Referência","category":"culture","subcategory":"museum","geometry_type":"Point","address":"Avenida Doutor Arnaldo, 715, 01246-904","equipment_type":"Museu","administrative_sphere":"Estadual","included_in_metrics":true,"exclusion_reason":null,"override_reason":null}},{"type":"Feature","geometry":{"type":"Point","coordinates":[-46.71525893,-23.59990377]},"properties":{"id":"sp_geosampa_museus:equipamento_cultura_museus.40370","source_id":"sp_geosampa_museus","name":"Centro Histórico do Hospital Albert Einstein","category":"culture","subcategory":"museum","geometry_type":"Point","address":"Avenida Albert Einstein, 627-701, 05651-901","equipment_type":"Museu","administrative_sphere":"Particular","included_in_metrics":false,"exclusion_reason":"private provider","override_reason":null}},{"type":"Feature","geometry":{"type":"Point","coordinates":[-46.64296722,-23.59802057]},"properties":{"id":"sp_geosampa_museus:equipamento_cultura_museus.40371","source_id":"sp_geosampa_museus","name":"Sala Professor Roberto Baruzzi","category":"culture","subcategory":"museum","geometry_type":"Point","address":"Rua Botucatu, 740, 04023-900","equipment_type":"Museu","administrative_sphere":"Federal","included_in_metrics":true,"exclusion_reason":null,"override_reason":null}},{"type":"Feature","geometry":{"type":"Point","coordinates":[-46.63812221,-23.54479672]},"properties":{"id":"sp_geosampa_museus:equipamento_cultura_museus.40372","source_id":"sp_geosampa_museus","name":"Centro de Memória Votorantim","category":"culture","subcategory":"museum","geometry_type":"Point","address":"Praça Ramos de Azevedo, 254, 01037-912","equipment_type":"Museu","administrative_sphere":"Particular","included_in_metrics":false,"exclusion_reason":"private provider","override_reason":null}},{"type":"Feature","geometry":{"type":"Point","coordinates":[-46.53092192,-23.59663332]},"properties":{"id":"sp_geosampa_museus:equipamento_cultura_museus.40373","source_id":"sp_geosampa_museus","name":"Museu de Arte Mágica, Ilusionismo, Prestidigitação e Ventriloquia João Peixoto dos Santos","category":"culture","subcategory":"museum","geometry_type":"Point","address":"Rua Valdomiro Moreno Rodrigues, 136, 03286-050","equipment_type":"Museu","administrative_sphere":"Particular","included_in_metrics":false,"exclusion_reason":"private provider","override_reason":null}},{"type":"Feature","geometry":{"type":"Point","coordinates":[-46.62597878,-23.51541501]},"properties":{"id":"sp_geosampa_museus:equipamento_cultura_museus.40374","source_id":"sp_geosampa_museus","name":"Centro de Estudos e Memória do Teatro Paulista","category":"culture","subcategory":"museum","geometry_type":"Point","address":"Rua Voluntários da Pátria, 596, 02011-000","equipment_type":"Museu","administrative_sphere":"Estadual","included_in_metrics":true,"exclusion_reason":null,"override_reason":null}},{"type":"Feature","geometry":{"type":"Point","coordinates":[-46.67435081,-23.53335579]},"properties":{"id":"sp_geosampa_museus:equipamento_cultura_museus.40375","source_id":"sp_geosampa_museus","name":"Museu Contemporâneo das Invenções","category":"culture","subcategory":"museum","geometry_type":"Point","address":"Rua Doutor Homem de Melo, 1109, 05007-002","equipment_type":"Museu","administrative_sphere":"Particular","included_in_metrics":false,"exclusion_reason":"private provider","override_reason":null}},{"type":"Feature","geometry":{"type":"Point","coordinates":[-46.67063283,-23.55525069]},"properties":{"id":"sp_geosampa_museus:equipamento_cultura_museus.40376","source_id":"sp_geosampa_museus","name":"Museu Histórico Professor Carlos da Silva Lacaz - Faculdade de Medicina da Universidade de São Paulo","category":"culture","subcategory":"museum","geometry_type":"Point","address":"Avenida Doutor Arnaldo, 455, 01246-903","equipment_type":"Museu","administrative_sphere":"Estadual","included_in_metrics":true,"exclusion_reason":null,"override_reason":null}},{"type":"Feature","geometry":{"type":"Point","coordinates":[-46.68711485,-23.55703302]},"properties":{"id":"sp_geosampa_museus:equipamento_cultura_museus.40377","source_id":"sp_geosampa_museus","name":"Museu da Mineração","category":"culture","subcategory":"museum","geometry_type":"Point","address":"Rua Harmonia, 101, 05435-000","equipment_type":"Museu","administrative_sphere":"Particular","included_in_metrics":false,"exclusion_reason":"private provider","override_reason":null}},{"type":"Feature","geometry":{"type":"Point","coordinates":[-46.71461617,-23.56405728]},"properties":{"id":"sp_geosampa_museus:equipamento_cultura_museus.40378","source_id":"sp_geosampa_museus","name":"Museu da Educação e do Brinquedo - Universidade de São Paulo","category":"culture","subcategory":"museum","geometry_type":"Point","address":"Avenida da Universidade, 308, 05508-040","equipment_type":"Museu","administrative_sphere":"Estadual","included_in_metrics":true,"exclusion_reason":null,"override_reason":null}},{"type":"Feature","geometry":{"type":"Point","coordinates":[-46.7319721,-23.56104775]},"properties":{"id":"sp_geosampa_museus:equipamento_cultura_museus.40379","source_id":"sp_geosampa_museus","name":"Museu Oceanográfico do Instituto Oceanográfico da Universidade de São Paulo (fechado temporariamente)","category":"culture","subcategory":"museum","geometry_type":"Point","address":"Praça do Oceanográfico, 191, 05508-120","equipment_type":"Museu","administrative_sphere":"Estadual","included_in_metrics":true,"exclusion_reason":null,"override_reason":null}},{"type":"Feature","geometry":{"type":"Point","coordinates":[-46.65872045,-23.56370841]},"properties":{"id":"sp_geosampa_museus:equipamento_cultura_museus.40380","source_id":"sp_geosampa_museus","name":"Museu de História Natural do Colégio Dante Alighieri","category":"culture","subcategory":"museum","geometry_type":"Point","address":"Alameda Jaú, 1061, 01420-003","equipment_type":"Museu","administrative_sphere":"Particular","included_in_metrics":false,"exclusion_reason":"private provider","override_reason":null}},{"type":"Feature","geometry":{"type":"Point","coordinates":[-46.63362371,-23.46260129]},"properties":{"id":"sp_geosampa_museus:equipamento_cultura_museus.40381","source_id":"sp_geosampa_museus","name":"Museu Florestal Octávio Vecchi","category":"culture","subcategory":"museum","geometry_type":"Point","address":"Rua do Horto, 931, 02377-000","equipment_type":"Museu","administrative_sphere":"Estadual","included_in_metrics":true,"exclusion_reason":null,"override_reason":null}},{"type":"Feature","geometry":{"type":"Point","coordinates":[-46.64532594,-23.59923905]},"properties":{"id":"sp_geosampa_museus:equipamento_cultura_museus.40382","source_id":"sp_geosampa_museus","name":"Museu Histórico Prof. Dr. Wladimir da Prússia Gomez Ferraz","category":"culture","subcategory":"museum","geometry_type":"Point","address":"Rua Loefgren, 2032, 04040-003","equipment_type":"Museu","administrative_sphere":"Federal","included_in_metrics":true,"exclusion_reason":null,"override_reason":null}},{"type":"Feature","geometry":{"type":"Point","coordinates":[-46.6346879,-23.56064575]},"properties":{"id":"sp_geosampa_museus:equipamento_cultura_museus.40383","source_id":"sp_geosampa_museus","name":"Museu Maçônico José Bonifácio (fechado temporariamente)","category":"culture","subcategory":"museum","geometry_type":"Point","address":"Rua São Joaquim, 457, 01508-001","equipment_type":"Museu","administrative_sphere":"Particular","included_in_metrics":false,"exclusion_reason":"private provider","override_reason":null}},{"type":"Feature","geometry":{"type":"Point","coordinates":[-46.65083685,-23.58902483]},"properties":{"id":"sp_geosampa_museus:equipamento_cultura_museus.40384","source_id":"sp_geosampa_museus","name":"Museu de Arte Contemporânea da Universidade de São Paulo - MAC USP","category":"culture","subcategory":"museum","geometry_type":"Point","address":"Avenida Pedro Álvares Cabral, 1301, 04094-050","equipment_type":"Museu","administrative_sphere":"Estadual","included_in_metrics":true,"exclusion_reason":null,"override_reason":null}},{"type":"Feature","geometry":{"type":"Point","coordinates":[-46.67672059,-23.57319058]},"properties":{"id":"sp_geosampa_museus:equipamento_cultura_museus.40385","source_id":"sp_geosampa_museus","name":"Museu Brasileiro da Escultura e da Ecologia - MuBE","category":"culture","subcategory":"museum","geometry_type":"Point","address":"Rua Alemanha, 221, 01448-010","equipment_type":"Museu","administrative_sphere":"Municipal","included_in_metrics":true,"exclusion_reason":null,"override_reason":null}},{"type":"Feature","geometry":{"type":"Point","coordinates":[-46.63851224,-23.5297613]},"properties":{"id":"sp_geosampa_museus:equipamento_cultura_museus.40386","source_id":"sp_geosampa_museus","name":"Memorial da Imigração Judaica no Brasil","category":"culture","subcategory":"museum","geometry_type":"Point","address":"Rua da Graça, 160, 01125-000","equipment_type":"Museu","administrative_sphere":"Particular","included_in_metrics":false,"exclusion_reason":"private provider","override_reason":null}},{"type":"Feature","geometry":{"type":"Point","coordinates":[-46.64734122,-23.55897902]},"properties":{"id":"sp_geosampa_museus:equipamento_cultura_museus.40387","source_id":"sp_geosampa_museus","name":"Museu Memória do Bixiga","category":"culture","subcategory":"museum","geometry_type":"Point","address":"Rua dos Ingleses, 118, 01329-010","equipment_type":"Museu","administrative_sphere":"Particular","included_in_metrics":false,"exclusion_reason":"private provider","override_reason":null}},{"type":"Feature","geometry":{"type":"Point","coordinates":[-46.64027358,-23.57126215]},"properties":{"id":"sp_geosampa_museus:equipamento_cultura_museus.40388","source_id":"sp_geosampa_museus","name":"Acervos do Centro Cultural São Paulo","category":"culture","subcategory":"museum","geometry_type":"Point","address":"Rua Vergueiro, 1000","equipment_type":"Museu","administrative_sphere":"Municipal","included_in_metrics":true,"exclusion_reason":null,"override_reason":null}},{"type":"Feature","geometry":{"type":"Point","coordinates":[-46.64768881,-23.50618465]},"properties":{"id":"sp_geosampa_museus:equipamento_cultura_museus.40389","source_id":"sp_geosampa_museus","name":"Sítio Morrinhos - Centro de Arqueologia (fechado temporariamente)","category":"culture","subcategory":"museum","geometry_type":"Point","address":"Rua Santo Anselmo, 102","equipment_type":"Museu","administrative_sphere":"Municipal","included_in_metrics":true,"exclusion_reason":null,"override_reason":null}},{"type":"Feature","geometry":{"type":"Point","coordinates":[-46.46386127,-23.48906568]},"properties":{"id":"sp_geosampa_museus:equipamento_cultura_museus.40390","source_id":"sp_geosampa_museus","name":"Sítio Mirim (fechado temporariamente)","category":"culture","subcategory":"museum","geometry_type":"Point","address":"Estrada Assis Ribeiro, 10573","equipment_type":"Museu","administrative_sphere":"Municipal","included_in_metrics":true,"exclusion_reason":null,"override_reason":null}},{"type":"Feature","geometry":{"type":"Point","coordinates":[-46.63370541,-23.52978192]},"properties":{"id":"sp_geosampa_museus:equipamento_cultura_museus.40391","source_id":"sp_geosampa_museus","name":"Arquivo Histórico Municipal - Edifício Ramos de Azevedo","category":"culture","subcategory":"museum","geometry_type":"Point","address":"Praça Coronel Fernando Prestes, 152","equipment_type":"Museu","administrative_sphere":"Municipal","included_in_metrics":true,"exclusion_reason":null,"override_reason":null}},{"type":"Feature","geometry":{"type":"Point","coordinates":[-46.63370541,-23.52978192]},"properties":{"id":"sp_geosampa_museus:equipamento_cultura_museus.40392","source_id":"sp_geosampa_museus","name":"Arquivo Histórico Municipal - Edifício Anexo","category":"culture","subcategory":"museum","geometry_type":"Point","address":"Praça Coronel Fernando Prestes, 152","equipment_type":"Museu","administrative_sphere":"Municipal","included_in_metrics":true,"exclusion_reason":null,"override_reason":null}},{"type":"Feature","geometry":{"type":"Point","coordinates":[-46.63370541,-23.52978192]},"properties":{"id":"sp_geosampa_museus:equipamento_cultura_museus.40393","source_id":"sp_geosampa_museus","name":"Arquivo Histórico Municipal - Torre da Memória","category":"culture","subcategory":"museum","geometry_type":"Point","address":"Praça Coronel Fernando Prestes, 152","equipment_type":"Museu","administrative_sphere":"Municipal","included_in_metrics":true,"exclusion_reason":null,"override_reason":null}},{"type":"Feature","geometry":{"type":"Point","coordinates":[-46.70966383,-23.56122341]},"properties":{"id":"sp_geosampa_museus:equipamento_cultura_museus.40394","source_id":"sp_geosampa_museus","name":"Casa do Bandeirante","category":"culture","subcategory":"museum","geometry_type":"Point","address":"Pça. Monteiro Lobato, s/n","equipment_type":"Museu","administrative_sphere":"Municipal","included_in_metrics":true,"exclusion_reason":null,"override_reason":null}}]}
