{"type":"FeatureCollection","features":[{"type":"Feature","geometry":{"type":"Point","coordinates":[-46.64126194,-23.64675021]},"properties":{"id":"sp_geosampa_terminal_onibus:terminal_onibus.1","source_id":"sp_geosampa_terminal_onibus","name":"Terminal Rodoviario do Jabaquara","category":"transit","subcategory":"bus_terminal","geometry_type":"Point","address":"R. dos Jequitibas, Jabaquara. (Est. Jabaquara do metro)","equipment_type":"RODOVIARIO","administrative_sphere":null,"included_in_metrics":false,"exclusion_reason":"intercity terminal, not daily access","override_reason":null}},{"type":"Feature","geometry":{"type":"Point","coordinates":[-46.62501588,-23.51549485]},"properties":{"id":"sp_geosampa_terminal_onibus:terminal_onibus.2","source_id":"sp_geosampa_terminal_onibus","name":"Terminal Rodoviario do Tiete","category":"transit","subcategory":"bus_terminal","geometry_type":"Point","address":"Av. Cruzeiro do Sul, 1800, Santana (Est. Tiete do metro)","equipment_type":"RODOVIARIO","administrative_sphere":null,"included_in_metrics":false,"exclusion_reason":"intercity terminal, not daily access","override_reason":null}},{"type":"Feature","geometry":{"type":"Point","coordinates":[-46.66817985,-23.52607395]},"properties":{"id":"sp_geosampa_terminal_onibus:terminal_onibus.3","source_id":"sp_geosampa_terminal_onibus","name":"Terminal Rodoviario Intermodal Barra Funda","category":"transit","subcategory":"bus_terminal","geometry_type":"Point","address":"R. Auro Soares De Moura Andrade, 664, Barra Funda","equipment_type":"RODOVIARIO","administrative_sphere":null,"included_in_metrics":false,"exclusion_reason":"intercity terminal, not daily access","override_reason":null}},{"type":"Feature","geometry":{"type":"Point","coordinates":[-46.64814498,-23.53941823]},"properties":{"id":"sp_geosampa_terminal_onibus:terminal_onibus.4","source_id":"sp_geosampa_terminal_onibus","name":"Term. Amaral Gurgel","category":"transit","subcategory":"bus_terminal","geometry_type":"Point","address":"Ac A Rua Ana Cintra","equipment_type":"URBANO","administrative_sphere":null,"included_in_metrics":true,"exclusion_reason":null,"override_reason":null}},{"type":"Feature","geometry":{"type":"Point","coordinates":[-46.55437572,-23.52840123]},"properties":{"id":"sp_geosampa_terminal_onibus:terminal_onibus.5","source_id":"sp_geosampa_terminal_onibus","name":"Term. Aricanduva","category":"transit","subcategory":"bus_terminal","geometry_type":"Point","address":"Av Aricanduva","equipment_type":"URBANO","administrative_sphere":null,"included_in_metrics":true,"exclusion_reason":null,"override_reason":null}},{"type":"Feature","geometry":{"type":"Point","coordinates":[-46.63950962,-23.54966444]},"properties":{"id":"sp_geosampa_terminal_onibus:terminal_onibus.6","source_id":"sp_geosampa_terminal_onibus","name":"Term. Bandeira","category":"transit","subcategory":"bus_terminal","geometry_type":"Point","address":"Av Nove de Julho","equipment_type":"URBANO","administrative_sphere":null,"included_in_metrics":true,"exclusion_reason":null,"override_reason":null}},{"type":"Feature","geometry":{"type":"Point","coordinates":[-46.76204141,-23.65488209]},"properties":{"id":"sp_geosampa_terminal_onibus:terminal_onibus.7","source_id":"sp_geosampa_terminal_onibus","name":"Term. Capelinha","category":"transit","subcategory":"bus_terminal","geometry_type":"Point","address":"Est de Itapecerica","equipment_type":"URBANO","administrative_sphere":null,"included_in_metrics":true,"exclusion_reason":null,"override_reason":null}},{"type":"Feature","geometry":{"type":"Point","coordinates":[-46.52249836,-23.55850085]},"properties":{"id":"sp_geosampa_terminal_onibus:terminal_onibus.8","source_id":"sp_geosampa_terminal_onibus","name":"Term. Carrao","category":"transit","subcategory":"bus_terminal","geometry_type":"Point","address":"Av Rio das Pedras","equipment_type":"URBANO","administrative_sphere":null,"included_in_metrics":true,"exclusion_reason":null,"override_reason":null}},{"type":"Feature","geometry":{"type":"Point","coordinates":[-46.66250452,-23.49631242]},"properties":{"id":"sp_geosampa_terminal_onibus:terminal_onibus.9","source_id":"sp_geosampa_terminal_onibus","name":"Term. Casa Verde","category":"transit","subcategory":"bus_terminal","geometry_type":"Point","address":"Av Eng. Caetano Alvares","equipment_type":"URBANO","administrative_sphere":null,"included_in_metrics":true,"exclusion_reason":null,"override_reason":null}},{"type":"Feature","geometry":{"type":"Point","coordinates":[-46.40823027,-23.58334355]},"properties":{"id":"sp_geosampa_terminal_onibus:terminal_onibus.10","source_id":"sp_geosampa_terminal_onibus","name":"Term. Cid. Tiradentes","category":"transit","subcategory":"bus_terminal","geometry_type":"Point","address":"Av Metalurgicos","equipment_type":"URBANO","administrative_sphere":null,"included_in_metrics":true,"exclusion_reason":null,"override_reason":null}},{"type":"Feature","geometry":{"type":"Point","coordinates":[-46.69618865,-23.73563971]},"properties":{"id":"sp_geosampa_terminal_onibus:terminal_onibus.11","source_id":"sp_geosampa_terminal_onibus","name":"Term. Grajau","category":"transit","subcategory":"bus_terminal","geometry_type":"Point","address":"R Giovanni Bononcini","equipment_type":"URBANO","administrative_sphere":null,"included_in_metrics":true,"exclusion_reason":null,"override_reason":null}},{"type":"Feature","geometry":{"type":"Point","coordinates":[-46.73494023,-23.6687824]},"properties":{"id":"sp_geosampa_terminal_onibus:terminal_onibus.12","source_id":"sp_geosampa_terminal_onibus","name":"Term. Guarapiranga","category":"transit","subcategory":"bus_terminal","geometry_type":"Point","address":"Est do M'Boi Mirim","equipment_type":"URBANO","administrative_sphere":null,"included_in_metrics":true,"exclusion_reason":null,"override_reason":null}},{"type":"Feature","geometry":{"type":"Point","coordinates":[-46.77381804,-23.69046671]},"properties":{"id":"sp_geosampa_terminal_onibus:terminal_onibus.13","source_id":"sp_geosampa_terminal_onibus","name":"Term. Jardim Angela","category":"transit","subcategory":"bus_terminal","geometry_type":"Point","address":"Est do M'Boi Mirim","equipment_type":"URBANO","administrative_sphere":null,"included_in_metrics":true,"exclusion_reason":null,"override_reason":null}},{"type":"Feature","geometry":{"type":"Point","coordinates":[-46.78715697,-23.43110496]},"properties":{"id":"sp_geosampa_terminal_onibus:terminal_onibus.14","source_id":"sp_geosampa_terminal_onibus","name":"Term. Jardim Britania","category":"transit","subcategory":"bus_terminal","geometry_type":"Point","address":"Av Pierre Renoir","equipment_type":"URBANO","administrative_sphere":null,"included_in_metrics":true,"exclusion_reason":null,"override_reason":null}},{"type":"Feature","geometry":{"type":"Point","coordinates":[-46.73379711,-23.64401995]},"properties":{"id":"sp_geosampa_terminal_onibus:terminal_onibus.15","source_id":"sp_geosampa_terminal_onibus","name":"Term. Joao Dias","category":"transit","subcategory":"bus_terminal","geometry_type":"Point","address":"Av Joao Dias","equipment_type":"URBANO","administrative_sphere":null,"included_in_metrics":true,"exclusion_reason":null,"override_reason":null}},{"type":"Feature","geometry":{"type":"Point","coordinates":[-46.70023828,-23.52047978]},"properties":{"id":"sp_geosampa_terminal_onibus:terminal_onibus.16","source_id":"sp_geosampa_terminal_onibus","name":"Term. Lapa","category":"transit","subcategory":"bus_terminal","geometry_type":"Point","address":"R Guaicurus","equipment_type":"URBANO","administrative_sphere":null,"included_in_metrics":true,"exclusion_reason":null,"override_reason":null}},{"type":"Feature","geometry":{"type":"Point","coordinates":[-46.77229182,-23.63177865]},"properties":{"id":"sp_geosampa_terminal_onibus:terminal_onibus.17","source_id":"sp_geosampa_terminal_onibus","name":"Term. Largo do Campo Limpo","category":"transit","subcategory":"bus_terminal","geometry_type":"Point","address":"Est do Campo Limpo","equipment_type":"URBANO","administrative_sphere":null,"included_in_metrics":true,"exclusion_reason":null,"override_reason":null}},{"type":"Feature","geometry":{"type":"Point","coordinates":[-46.6304202,-23.5462444]},"properties":{"id":"sp_geosampa_terminal_onibus:terminal_onibus.18","source_id":"sp_geosampa_terminal_onibus","name":"Term. Parque D. Pedro II","category":"transit","subcategory":"bus_terminal","geometry_type":"Point","address":"Av do Estado","equipment_type":"URBANO","administrative_sphere":null,"included_in_metrics":true,"exclusion_reason":null,"override_reason":null}},{"type":"Feature","geometry":{"type":"Point","coordinates":[-46.54703137,-23.51878008]},"properties":{"id":"sp_geosampa_terminal_onibus:terminal_onibus.19","source_id":"sp_geosampa_terminal_onibus","name":"Term. Penha","category":"transit","subcategory":"bus_terminal","geometry_type":"Point","address":"Av Gabriela Mistral","equipment_type":"URBANO","administrative_sphere":null,"included_in_metrics":true,"exclusion_reason":null,"override_reason":null}},{"type":"Feature","geometry":{"type":"Point","coordinates":[-46.70175246,-23.56626961]},"properties":{"id":"sp_geosampa_terminal_onibus:terminal_onibus.20","source_id":"sp_geosampa_terminal_onibus","name":"Term. Pinheiros","category":"transit","subcategory":"bus_terminal","geometry_type":"Point","address":"R Capri","equipment_type":"URBANO","administrative_sphere":null,"included_in_metrics":true,"exclusion_reason":null,"override_reason":null}},{"type":"Feature","geometry":{"type":"Point","coordinates":[-46.72641937,-23.4863311]},"properties":{"id":"sp_geosampa_terminal_onibus:terminal_onibus.21","source_id":"sp_geosampa_terminal_onibus","name":"Term. Pirituba","category":"transit","subcategory":"bus_terminal","geometry_type":"Point","address":"Vd Raimundo Pereira de Magalhaes","equipment_type":"URBANO","administrative_sphere":null,"included_in_metrics":true,"exclusion_reason":null,"override_reason":null}},{"type":"Feature","geometry":{"type":"Point","coordinates":[-46.64463581,-23.53438015]},"properties":{"id":"sp_geosampa_terminal_onibus:terminal_onibus.22","source_id":"sp_geosampa_terminal_onibus","name":"Term. Princesa Isabel","category":"transit","subcategory":"bus_terminal","geometry_type":"Point","address":"Av Rio Branco","equipment_type":"URBANO","administrative_sphere":null,"included_in_metrics":true,"exclusion_reason":null,"override_reason":null}},{"type":"Feature","geometry":{"type":"Point","coordinates":[-46.6028341,-23.60298149]},"properties":{"id":"sp_geosampa_terminal_onibus:terminal_onibus.23","source_id":"sp_geosampa_terminal_onibus","name":"Term. Sacoma","category":"transit","subcategory":"bus_terminal","geometry_type":"Point","address":"Pc Altemar Dutra","equipment_type":"URBANO","administrative_sphere":null,"included_in_metrics":true,"exclusion_reason":null,"override_reason":null}},{"type":"Feature","geometry":{"type":"Point","coordinates":[-46.71247217,-23.65438619]},"properties":{"id":"sp_geosampa_terminal_onibus:terminal_onibus.24","source_id":"sp_geosampa_terminal_onibus","name":"Term. Santo Amaro","category":"transit","subcategory":"bus_terminal","geometry_type":"Point","address":"R Pe. Jose Maria","equipment_type":"URBANO","administrative_sphere":null,"included_in_metrics":true,"exclusion_reason":null,"override_reason":null}},{"type":"Feature","geometry":{"type":"Point","coordinates":[-46.43514625,-23.49166582]},"properties":{"id":"sp_geosampa_terminal_onibus:terminal_onibus.25","source_id":"sp_geosampa_terminal_onibus","name":"Term. Sao Miguel","category":"transit","subcategory":"bus_terminal","geometry_type":"Point","address":"R Idioma Esperanto","equipment_type":"URBANO","administrative_sphere":null,"included_in_metrics":true,"exclusion_reason":null,"override_reason":null}},{"type":"Feature","geometry":{"type":"Point","coordinates":[-46.50061751,-23.61426191]},"properties":{"id":"sp_geosampa_terminal_onibus:terminal_onibus.26","source_id":"sp_geosampa_terminal_onibus","name":"Term. Sapopemba","category":"transit","subcategory":"bus_terminal","geometry_type":"Point","address":"Av Sapopemba","equipment_type":"URBANO","administrative_sphere":null,"included_in_metrics":true,"exclusion_reason":null,"override_reason":null}},{"type":"Feature","geometry":{"type":"Point","coordinates":[-46.71623164,-23.76816426]},"properties":{"id":"sp_geosampa_terminal_onibus:terminal_onibus.27","source_id":"sp_geosampa_terminal_onibus","name":"Term. Varginha","category":"transit","subcategory":"bus_terminal","geometry_type":"Point","address":"Av Paulo Guilguer Reimberg","equipment_type":"URBANO","administrative_sphere":null,"included_in_metrics":true,"exclusion_reason":null,"override_reason":null}},{"type":"Feature","geometry":{"type":"Point","coordinates":[-46.62972017,-23.54691441]},"properties":{"id":"sp_geosampa_terminal_onibus:terminal_onibus.28","source_id":"sp_geosampa_terminal_onibus","name":"Term. Mercado","category":"transit","subcategory":"bus_terminal","geometry_type":"Point","address":"Av do Estado","equipment_type":"URBANO","administrative_sphere":null,"included_in_metrics":true,"exclusion_reason":null,"override_reason":null}},{"type":"Feature","geometry":{"type":"Point","coordinates":[-46.66924177,-23.47460901]},"properties":{"id":"sp_geosampa_terminal_onibus:terminal_onibus.29","source_id":"sp_geosampa_terminal_onibus","name":"Term. Vila Nova Cachoeirinha","category":"transit","subcategory":"bus_terminal","geometry_type":"Point","address":"Av Inajar de Souza","equipment_type":"URBANO","administrative_sphere":null,"included_in_metrics":true,"exclusion_reason":null,"override_reason":null}},{"type":"Feature","geometry":{"type":"Point","coordinates":[-46.58519425,-23.58407118]},"properties":{"id":"sp_geosampa_terminal_onibus:terminal_onibus.30","source_id":"sp_geosampa_terminal_onibus","name":"Term. Vila Prudente","category":"transit","subcategory":"bus_terminal","geometry_type":"Point","address":"Av Prf. Luiz Ignacio Anhaia Mello","equipment_type":"URBANO","administrative_sphere":null,"included_in_metrics":true,"exclusion_reason":null,"override_reason":null}},{"type":"Feature","geometry":{"type":"Point","coordinates":[-46.47582815,-23.5175802]},"properties":{"id":"sp_geosampa_terminal_onibus:terminal_onibus.31","source_id":"sp_geosampa_terminal_onibus","name":"Term. A. E. Carvalho","category":"transit","subcategory":"bus_terminal","geometry_type":"Point","address":"Av Aguia de Haia","equipment_type":"URBANO","administrative_sphere":null,"included_in_metrics":true,"exclusion_reason":null,"override_reason":null}},{"type":"Feature","geometry":{"type":"Point","coordinates":[-46.72716929,-23.82823534]},"properties":{"id":"sp_geosampa_terminal_onibus:terminal_onibus.32","source_id":"sp_geosampa_terminal_onibus","name":"Term. Parelheiros","category":"transit","subcategory":"bus_terminal","geometry_type":"Point","address":"Est da Colonia","equipment_type":"URBANO","administrative_sphere":null,"included_in_metrics":true,"exclusion_reason":null,"override_reason":null}},{"type":"Feature","geometry":{"type":"Point","coordinates":[-46.92242485,-23.6041183]},"properties":{"id":"sp_geosampa_terminal_onibus:terminal_onibus.33","source_id":"sp_geosampa_terminal_onibus","name":"Cotia","category":"transit","subcategory":"bus_terminal","geometry_type":"Point","address":"Cotia","equipment_type":"EMTU","administrative_sphere":null,"included_in_metrics":true,"exclusion_reason":null,"override_reason":null}},{"type":"Feature","geometry":{"type":"Point","coordinates":[-46.76089257,-23.54722831]},"properties":{"id":"sp_geosampa_terminal_onibus:terminal_onibus.34","source_id":"sp_geosampa_terminal_onibus","name":"Vila Yara/Amador Bueno","category":"transit","subcategory":"bus_terminal","geometry_type":"Point","address":"Vila Yara/Amador Bueno","equipment_type":"EMTU","administrative_sphere":null,"included_in_metrics":true,"exclusion_reason":null,"override_reason":null}},{"type":"Feature","geometry":{"type":"Point","coordinates":[-46.83610431,-23.51909683]},"properties":{"id":"sp_geosampa_terminal_onibus:terminal_onibus.35","source_id":"sp_geosampa_terminal_onibus","name":"Carapicuíba","category":"transit","subcategory":"bus_terminal","geometry_type":"Point","address":"Carapicuíba","equipment_type":"EMTU","administrative_sphere":null,"included_in_metrics":true,"exclusion_reason":null,"override_reason":null}},{"type":"Feature","geometry":{"type":"Point","coordinates":[-46.81588652,-23.52397418]},"properties":{"id":"sp_geosampa_terminal_onibus:terminal_onibus.36","source_id":"sp_geosampa_terminal_onibus","name":"Km 21/Luiz Bortolosso","category":"transit","subcategory":"bus_terminal","geometry_type":"Point","address":"Km 21/Luiz Bortolosso","equipment_type":"EMTU","administrative_sphere":null,"included_in_metrics":true,"exclusion_reason":null,"override_reason":null}},{"type":"Feature","geometry":{"type":"Point","coordinates":[-46.49725952,-23.46164137]},"properties":{"id":"sp_geosampa_terminal_onibus:terminal_onibus.37","source_id":"sp_geosampa_terminal_onibus","name":"CECAP","category":"transit","subcategory":"bus_terminal","geometry_type":"Point","address":"CECAP","equipment_type":"EMTU","administrative_sphere":null,"included_in_metrics":true,"exclusion_reason":null,"override_reason":null}},{"type":"Feature","geometry":{"type":"Point","coordinates":[-46.4949793,-23.43473203]},"properties":{"id":"sp_geosampa_terminal_onibus:terminal_onibus.38","source_id":"sp_geosampa_terminal_onibus","name":"Taboão","category":"transit","subcategory":"bus_terminal","geometry_type":"Point","address":"Taboão","equipment_type":"EMTU","administrative_sphere":null,"included_in_metrics":true,"exclusion_reason":null,"override_reason":null}},{"type":"Feature","geometry":{"type":"Point","coordinates":[-46.56943797,-23.45805717]},"properties":{"id":"sp_geosampa_terminal_onibus:terminal_onibus.39","source_id":"sp_geosampa_terminal_onibus","name":"Vila Galvão","category":"transit","subcategory":"bus_terminal","geometry_type":"Point","address":"Vila Galvão","equipment_type":"EMTU","administrative_sphere":null,"included_in_metrics":true,"exclusion_reason":null,"override_reason":null}},{"type":"Feature","geometry":{"type":"Point","coordinates":[-46.6261931,-23.68445577]},"properties":{"id":"sp_geosampa_terminal_onibus:terminal_onibus.40","source_id":"sp_geosampa_terminal_onibus","name":"Diadema","category":"transit","subcategory":"bus_terminal","geometry_type":"Point","address":"Diadema","equipment_type":"EMTU","administrative_sphere":null,"included_in_metrics":true,"exclusion_reason":null,"override_reason":null}},{"type":"Feature","geometry":{"type":"Point","coordinates":[-46.55144358,-23.72022346]},"properties":{"id":"sp_geosampa_terminal_onibus:terminal_onibus.41","source_id":"sp_geosampa_terminal_onibus","name":"Ferrazópolis","category":"transit","subcategory":"bus_terminal","geometry_type":"Point","address":"Ferrazópolis","equipment_type":"EMTU","administrative_sphere":null,"included_in_metrics":true,"exclusion_reason":null,"override_reason":null}},{"type":"Feature","geometry":{"type":"Point","coordinates":[-46.63985836,-23.64682153]},"properties":{"id":"sp_geosampa_terminal_onibus:terminal_onibus.42","source_id":"sp_geosampa_terminal_onibus","name":"Jabaquara","category":"transit","subcategory":"bus_terminal","geometry_type":"Point","address":"Jabaquara","equipment_type":"EMTU","administrative_sphere":null,"included_in_metrics":true,"exclusion_reason":null,"override_reason":null}},{"type":"Feature","geometry":{"type":"Point","coordinates":[-46.58510037,-23.69160941]},"properties":{"id":"sp_geosampa_terminal_onibus:terminal_onibus.43","source_id":"sp_geosampa_terminal_onibus","name":"Piraporinha","category":"transit","subcategory":"bus_terminal","geometry_type":"Point","address":"Piraporinha","equipment_type":"EMTU","administrative_sphere":null,"included_in_metrics":true,"exclusion_reason":null,"override_reason":null}},{"type":"Feature","geometry":{"type":"Point","coordinates":[-46.52749805,-23.65180357]},"properties":{"id":"sp_geosampa_terminal_onibus:terminal_onibus.44","source_id":"sp_geosampa_terminal_onibus","name":"Santo André Leste","category":"transit","subcategory":"bus_terminal","geometry_type":"Point","address":"Santo André Leste","equipment_type":"EMTU","administrative_sphere":null,"included_in_metrics":true,"exclusion_reason":null,"override_reason":null}},{"type":"Feature","geometry":{"type":"Point","coordinates":[-46.52899554,-23.65255773]},"properties":{"id":"sp_geosampa_terminal_onibus:terminal_onibus.45","source_id":"sp_geosampa_terminal_onibus","name":"Santo André Oeste","category":"transit","subcategory":"bus_terminal","geometry_type":"Point","address":"Santo André Oeste","equipment_type":"EMTU","administrative_sphere":null,"included_in_metrics":true,"exclusion_reason":null,"override_reason":null}},{"type":"Feature","geometry":{"type":"Point","coordinates":[-46.55407462,-23.69485317]},"properties":{"id":"sp_geosampa_terminal_onibus:terminal_onibus.46","source_id":"sp_geosampa_terminal_onibus","name":"São Bernardo do Campo","category":"transit","subcategory":"bus_terminal","geometry_type":"Point","address":"São Bernardo do Campo","equipment_type":"EMTU","administrative_sphere":null,"included_in_metrics":true,"exclusion_reason":null,"override_reason":null}},{"type":"Feature","geometry":{"type":"Point","coordinates":[-46.47613549,-23.6130516]},"properties":{"id":"sp_geosampa_terminal_onibus:terminal_onibus.47","source_id":"sp_geosampa_terminal_onibus","name":"São Mateus","category":"transit","subcategory":"bus_terminal","geometry_type":"Point","address":"São Mateus","equipment_type":"EMTU","administrative_sphere":null,"included_in_metrics":true,"exclusion_reason":null,"override_reason":null}},{"type":"Feature","geometry":{"type":"Point","coordinates":[-46.48216867,-23.62448469]},"properties":{"id":"sp_geosampa_terminal_onibus:terminal_onibus.48","source_id":"sp_geosampa_terminal_onibus","name":"Sônia Maria","category":"transit","subcategory":"bus_terminal","geometry_type":"Point","address":"Sônia Maria","equipment_type":"EMTU","administrative_sphere":null,"included_in_metrics":true,"exclusion_reason":null,"override_reason":null}},{"type":"Feature","geometry":{"type":"Point","coordinates":[-46.6284052,-23.52505024]},"properties":{"id":"sp_geosampa_terminal_onibus:terminal_onibus.49","source_id":"sp_geosampa_terminal_onibus","name":"Armênia Norte","category":"transit","subcategory":"bus_terminal","geometry_type":"Point","address":"Armênia Norte","equipment_type":"EMTU","administrative_sphere":null,"included_in_metrics":true,"exclusion_reason":null,"override_reason":null}},{"type":"Feature","geometry":{"type":"Point","coordinates":[-46.81150115,-23.49732369]},"properties":{"id":"sp_geosampa_terminal_onibus:terminal_onibus.50","source_id":"sp_geosampa_terminal_onibus","name":"E.T. Munhoz Junior","category":"transit","subcategory":"bus_terminal","geometry_type":"Point","address":"E.T. Munhoz Junior","equipment_type":"EMTU","administrative_sphere":null,"included_in_metrics":true,"exclusion_reason":null,"override_reason":null}}]}
