{"type":"FeatureCollection","features":[{"type":"Feature","geometry":{"type":"Point","coordinates":[-46.56620454,-23.58561373]},"properties":{"id":"sp_geosampa_educacao_ceu:equipamento_educacao_ceu.51350","source_id":"sp_geosampa_educacao_ceu","name":"CEU CEMEI VILA ALPINA","category":"school","subcategory":"ceu","geometry_type":"Point","address":"JOAO PEDRO LECOR, 141, JARDIM AVELINO, 03227-190","equipment_type":"CEMEI","administrative_sphere":null,"included_in_metrics":true,"exclusion_reason":null,"override_reason":null}},{"type":"Feature","geometry":{"type":"Point","coordinates":[-46.47843435,-23.57530633]},"properties":{"id":"sp_geosampa_educacao_ceu:equipamento_educacao_ceu.51351","source_id":"sp_geosampa_educacao_ceu","name":"CEU CEMEI PARQUE DO CARMO","category":"school","subcategory":"ceu","geometry_type":"Point","address":"GASPAR DA SILVA, 240, JARDIM NOSSA SENHORA DO CARMO, 08275-250","equipment_type":"CEMEI","administrative_sphere":null,"included_in_metrics":true,"exclusion_reason":null,"override_reason":null}},{"type":"Feature","geometry":{"type":"Point","coordinates":[-46.69376656,-23.48322291]},"properties":{"id":"sp_geosampa_educacao_ceu:equipamento_educacao_ceu.51378","source_id":"sp_geosampa_educacao_ceu","name":"CEU CEMEI FREGUESIA DO O","category":"school","subcategory":"ceu","geometry_type":"Point","address":"JACUTIBA, 167, PARQUE SAO LUIS, 02832-240","equipment_type":"CEMEI","administrative_sphere":null,"included_in_metrics":true,"exclusion_reason":null,"override_reason":null}},{"type":"Feature","geometry":{"type":"Point","coordinates":[-46.59675226,-23.45022734]},"properties":{"id":"sp_geosampa_educacao_ceu:equipamento_educacao_ceu.51382","source_id":"sp_geosampa_educacao_ceu","name":"CEU CEMEI JARDIM TREMEMBE - ACELINO SCALQUETTE PROF","category":"school","subcategory":"ceu","geometry_type":"Point","address":"ADAUTO BEZERRA DELGADO, 84, PARQUE CASA DE PEDRA, 02320-110","equipment_type":"CEMEI","administrative_sphere":null,"included_in_metrics":true,"exclusion_reason":null,"override_reason":null}},{"type":"Feature","geometry":{"type":"Point","coordinates":[-46.42967157,-23.50020959]},"properties":{"id":"sp_geosampa_educacao_ceu:equipamento_educacao_ceu.51383","source_id":"sp_geosampa_educacao_ceu","name":"CEU CEMEI SAO MIGUEL","category":"school","subcategory":"ceu","geometry_type":"Point","address":"JOSE FERREIRA CRESPO, 495, JARDIM SAO VICENTE, 08021-480","equipment_type":"CEMEI","administrative_sphere":null,"included_in_metrics":true,"exclusion_reason":null,"override_reason":null}},{"type":"Feature","geometry":{"type":"Point","coordinates":[-46.73219088,-23.43824367]},"properties":{"id":"sp_geosampa_educacao_ceu:equipamento_educacao_ceu.51384","source_id":"sp_geosampa_educacao_ceu","name":"CEU CEMEI PINHEIRINHO DAGUA","category":"school","subcategory":"ceu","geometry_type":"Point","address":"CAMILLO ZANOTTI, 92, CONJUNTO CITY JARAGUA, 02998-080","equipment_type":"CEMEI","administrative_sphere":null,"included_in_metrics":true,"exclusion_reason":null,"override_reason":null}},{"type":"Feature","geometry":{"type":"Point","coordinates":[-46.71459139,-23.44826001]},"properties":{"id":"sp_geosampa_educacao_ceu:equipamento_educacao_ceu.51385","source_id":"sp_geosampa_educacao_ceu","name":"CEU CEMEI CORETO DE TAIPAS","category":"school","subcategory":"ceu","geometry_type":"Point","address":"JOAO AMADO COUTINHO, 240, CONJUNTO RESIDENCIAL ELISIO TEIXEIRA LEI, 02815-000","equipment_type":"CEMEI","administrative_sphere":null,"included_in_metrics":true,"exclusion_reason":null,"override_reason":null}},{"type":"Feature","geometry":{"type":"Point","coordinates":[-46.42799599,-23.54862194]},"properties":{"id":"sp_geosampa_educacao_ceu:equipamento_educacao_ceu.51388","source_id":"sp_geosampa_educacao_ceu","name":"CEU CEMEI JOSE BONIFACIO","category":"school","subcategory":"ceu","geometry_type":"Point","address":"PROFESSORA LUCILA CERQUEIRA, 194, JARDIM SAO PEDRO, 08420-690","equipment_type":"CEMEI","administrative_sphere":null,"included_in_metrics":true,"exclusion_reason":null,"override_reason":null}},{"type":"Feature","geometry":{"type":"Point","coordinates":[-46.39158045,-23.58691071]},"properties":{"id":"sp_geosampa_educacao_ceu:equipamento_educacao_ceu.51389","source_id":"sp_geosampa_educacao_ceu","name":"CEU CEMEI BARRO BRANCO III","category":"school","subcategory":"ceu","geometry_type":"Point","address":"SALVADOR VIGANO, 88, CONJUNTO HABITACIONAL BARRO BRANCO II, 08473-605","equipment_type":"CEMEI","administrative_sphere":null,"included_in_metrics":true,"exclusion_reason":null,"override_reason":null}},{"type":"Feature","geometry":{"type":"Point","coordinates":[-46.48694106,-23.5528617]},"properties":{"id":"sp_geosampa_educacao_ceu:equipamento_educacao_ceu.51392","source_id":"sp_geosampa_educacao_ceu","name":"CEU CEMEI HORIZONTE AZUL","category":"school","subcategory":"ceu","geometry_type":"Point","address":"SYLVIO TORRES, 295, CONJUNTO HABITACIONAL PADRE JOSE DE ANCH, 03589-010","equipment_type":"CEMEI","administrative_sphere":null,"included_in_metrics":true,"exclusion_reason":null,"override_reason":null}},{"type":"Feature","geometry":{"type":"Point","coordinates":[-46.57479148,-23.51801789]},"properties":{"id":"sp_geosampa_educacao_ceu:equipamento_educacao_ceu.51428","source_id":"sp_geosampa_educacao_ceu","name":"CEU CEMEI NOVO MUNDO","category":"school","subcategory":"ceu","geometry_type":"Point","address":"ERNESTO AUGUSTO LOPES, 100, PARQUE VILA MARIA, 02169-030","equipment_type":"CEMEI","administrative_sphere":null,"included_in_metrics":true,"exclusion_reason":null,"override_reason":null}},{"type":"Feature","geometry":{"type":"Point","coordinates":[-46.56358109,-23.5399865]},"properties":{"id":"sp_geosampa_educacao_ceu:equipamento_educacao_ceu.51437","source_id":"sp_geosampa_educacao_ceu","name":"CEU CEMEI MONTE SERRAT","category":"school","subcategory":"ceu","geometry_type":"Point","address":"MONTE SERRAT, 230, TATUAPE, 03312-000","equipment_type":"CEMEI","administrative_sphere":null,"included_in_metrics":true,"exclusion_reason":null,"override_reason":null}},{"type":"Feature","geometry":{"type":"Point","coordinates":[-46.59632704,-23.62705198]},"properties":{"id":"sp_geosampa_educacao_ceu:equipamento_educacao_ceu.52127","source_id":"sp_geosampa_educacao_ceu","name":"CEU EMEI ANTONIO FRANCISCO LISBOA","category":"school","subcategory":"ceu","geometry_type":"Point","address":"SAO JOAO CLIMACO, 12, SAO JOAO CLIMACO, 04255-010","equipment_type":"CEU EMEI","administrative_sphere":null,"included_in_metrics":true,"exclusion_reason":null,"override_reason":null}},{"type":"Feature","geometry":{"type":"Point","coordinates":[-46.50311373,-23.57017582]},"properties":{"id":"sp_geosampa_educacao_ceu:equipamento_educacao_ceu.52222","source_id":"sp_geosampa_educacao_ceu","name":"CEU EMEI JOSE GASPAR D","category":"school","subcategory":"ceu","geometry_type":"Point","address":"OLGA FADEL ABARCA, S/N, JARDIM SANTA TEREZINHA ZONA LESTE, 03572-020","equipment_type":"CEU EMEI","administrative_sphere":null,"included_in_metrics":true,"exclusion_reason":null,"override_reason":null}},{"type":"Feature","geometry":{"type":"Point","coordinates":[-46.59411068,-23.6157278]},"properties":{"id":"sp_geosampa_educacao_ceu:equipamento_educacao_ceu.52284","source_id":"sp_geosampa_educacao_ceu","name":"CEU EMEF CAMPOS SALLES PRES","category":"school","subcategory":"ceu","geometry_type":"Point","address":"DAS LAGRIMAS, 2385, IPIRANGA, 04232-000","equipment_type":"CEU EMEF","administrative_sphere":null,"included_in_metrics":true,"exclusion_reason":null,"override_reason":null}},{"type":"Feature","geometry":{"type":"Point","coordinates":[-46.64662842,-23.70598433]},"properties":{"id":"sp_geosampa_educacao_ceu:equipamento_educacao_ceu.52514","source_id":"sp_geosampa_educacao_ceu","name":"CEU EMEF PAULO GONCALO DOS SANTOS PROF","category":"school","subcategory":"ceu","geometry_type":"Point","address":"DO ALVARENGA, 3752, BALNEARIO SAO FRANCISCO, 04474-340","equipment_type":"CEU EMEF","administrative_sphere":null,"included_in_metrics":true,"exclusion_reason":null,"override_reason":null}},{"type":"Feature","geometry":{"type":"Point","coordinates":[-46.64662842,-23.70598433]},"properties":{"id":"sp_geosampa_educacao_ceu:equipamento_educacao_ceu.52515","source_id":"sp_geosampa_educacao_ceu","name":"CEU EMEI ALVARENGA","category":"school","subcategory":"ceu","geometry_type":"Point","address":"DO ALVARENGA, 3752, BALNEARIO SAO FRANCISCO, 04474-340","equipment_type":"CEU EMEI","administrative_sphere":null,"included_in_metrics":true,"exclusion_reason":null,"override_reason":null}},{"type":"Feature","geometry":{"type":"Point","coordinates":[-46.64662842,-23.70598433]},"properties":{"id":"sp_geosampa_educacao_ceu:equipamento_educacao_ceu.52516","source_id":"sp_geosampa_educacao_ceu","name":"CEU CEI ALVARENGA","category":"school","subcategory":"ceu","geometry_type":"Point","address":"DO ALVARENGA, 3752, BALNEARIO SAO FRANCISCO, 04474-340","equipment_type":"CEU CEI","administrative_sphere":null,"included_in_metrics":true,"exclusion_reason":null,"override_reason":null}},{"type":"Feature","geometry":{"type":"Point","coordinates":[-46.50316476,-23.57083139]},"properties":{"id":"sp_geosampa_educacao_ceu:equipamento_educacao_ceu.52517","source_id":"sp_geosampa_educacao_ceu","name":"CEU EMEF PAULO GOMES CARDIM PROF DR","category":"school","subcategory":"ceu","geometry_type":"Point","address":"OLGA FADEL ABARCA, S/N, JARDIM SANTA TERESINHA, 03572-020","equipment_type":"CEU EMEF","administrative_sphere":null,"included_in_metrics":true,"exclusion_reason":null,"override_reason":null}},{"type":"Feature","geometry":{"type":"Point","coordinates":[-46.5035066,-23.56985429]},"properties":{"id":"sp_geosampa_educacao_ceu:equipamento_educacao_ceu.52518","source_id":"sp_geosampa_educacao_ceu","name":"CEU EMEI ARICANDUVA","category":"school","subcategory":"ceu","geometry_type":"Point","address":"OLGA FADEL ABARCA, S/N, JARDIM SANTA TEREZINHA ZONA LESTE, 03572-020","equipment_type":"CEU EMEI","administrative_sphere":null,"included_in_metrics":true,"exclusion_reason":null,"override_reason":null}},{"type":"Feature","geometry":{"type":"Point","coordinates":[-46.50301717,-23.57032332]},"properties":{"id":"sp_geosampa_educacao_ceu:equipamento_educacao_ceu.52519","source_id":"sp_geosampa_educacao_ceu","name":"CEU CEI DIRCE MIGLIACCIO","category":"school","subcategory":"ceu","geometry_type":"Point","address":"OLGA FADEL ABARCA, S/N, JARDIM SANTA TEREZINHA ZONA LESTE, 03572-020","equipment_type":"CEU CEI","administrative_sphere":null,"included_in_metrics":true,"exclusion_reason":null,"override_reason":null}},{"type":"Feature","geometry":{"type":"Point","coordinates":[-46.75001142,-23.58184007]},"properties":{"id":"sp_geosampa_educacao_ceu:equipamento_educacao_ceu.52520","source_id":"sp_geosampa_educacao_ceu","name":"CEU EMEF BUTANTA","category":"school","subcategory":"ceu","geometry_type":"Point","address":"ENGENHEIRO HEITOR ANTONIO EIRAS GARCIA, 1870, JARDIM ESMERALDA, 05588-001","equipment_type":"CEU EMEF","administrative_sphere":null,"included_in_metrics":true,"exclusion_reason":null,"override_reason":null}},{"type":"Feature","geometry":{"type":"Point","coordinates":[-46.75001142,-23.58184007]},"properties":{"id":"sp_geosampa_educacao_ceu:equipamento_educacao_ceu.52521","source_id":"sp_geosampa_educacao_ceu","name":"CEU EMEI BUTANTA","category":"school","subcategory":"ceu","geometry_type":"Point","address":"ENGENHEIRO HEITOR ANTONIO EIRAS GARCIA, 1870, JARDIM ESMERALDA, 05588-001","equipment_type":"CEU EMEI","administrative_sphere":null,"included_in_metrics":true,"exclusion_reason":null,"override_reason":null}},{"type":"Feature","geometry":{"type":"Point","coordinates":[-46.75001142,-23.58184007]},"properties":{"id":"sp_geosampa_educacao_ceu:equipamento_educacao_ceu.52522","source_id":"sp_geosampa_educacao_ceu","name":"CEU CEI BUTANTA","category":"school","subcategory":"ceu","geometry_type":"Point","address":"ENGENHEIRO HEITOR ANTONIO EIRAS GARCIA, 1870, JARDIM ESMERALDA, 05564-000","equipment_type":"CEU CEI","administrative_sphere":null,"included_in_metrics":true,"exclusion_reason":null,"override_reason":null}},{"type":"Feature","geometry":{"type":"Point","coordinates":[-46.70455502,-23.71088168]},"properties":{"id":"sp_geosampa_educacao_ceu:equipamento_educacao_ceu.52523","source_id":"sp_geosampa_educacao_ceu","name":"CEU EMEF CIDADE DUTRA","category":"school","subcategory":"ceu","geometry_type":"Point","address":"INTERLAGOS, 7350, INTERLAGOS, 04777-000","equipment_type":"CEU EMEF","administrative_sphere":null,"included_in_metrics":true,"exclusion_reason":null,"override_reason":null}},{"type":"Feature","geometry":{"type":"Point","coordinates":[-46.70455502,-23.71088168]},"properties":{"id":"sp_geosampa_educacao_ceu:equipamento_educacao_ceu.52524","source_id":"sp_geosampa_educacao_ceu","name":"CEU CEI CIDADE DUTRA","category":"school","subcategory":"ceu","geometry_type":"Point","address":"INTERLAGOS, 7350, INTERLAGOS, 04777-000","equipment_type":"CEU CEI","administrative_sphere":null,"included_in_metrics":true,"exclusion_reason":null,"override_reason":null}},{"type":"Feature","geometry":{"type":"Point","coordinates":[-46.41059698,-23.56778135]},"properties":{"id":"sp_geosampa_educacao_ceu:equipamento_educacao_ceu.52525","source_id":"sp_geosampa_educacao_ceu","name":"CEU EMEF INACIO MONTEIRO","category":"school","subcategory":"ceu","geometry_type":"Point","address":"BARAO BARROSO DO AMAZONAS, 155, COHAB INACIO MONTEIRO, 08472-721","equipment_type":"CEU EMEF","administrative_sphere":null,"included_in_metrics":true,"exclusion_reason":null,"override_reason":null}},{"type":"Feature","geometry":{"type":"Point","coordinates":[-46.41152132,-23.56956559]},"properties":{"id":"sp_geosampa_educacao_ceu:equipamento_educacao_ceu.52526","source_id":"sp_geosampa_educacao_ceu","name":"CEU EMEI INACIO MONTEIRO","category":"school","subcategory":"ceu","geometry_type":"Point","address":"BARAO JOAQUIM DO AMPARO, 115, CIDADE TIRADENTES, 08472-725","equipment_type":"CEU EMEI","administrative_sphere":null,"included_in_metrics":true,"exclusion_reason":null,"override_reason":null}},{"type":"Feature","geometry":{"type":"Point","coordinates":[-46.41128293,-23.5692607]},"properties":{"id":"sp_geosampa_educacao_ceu:equipamento_educacao_ceu.52527","source_id":"sp_geosampa_educacao_ceu","name":"CEU CEI JOSELY MARIA CARDOSO BENTO","category":"school","subcategory":"ceu","geometry_type":"Point","address":"BARAO BARROSO DO AMAZONAS, 115, COHAB INACIO MONTEIRO, 08472-721","equipment_type":"CEU CEI","administrative_sphere":null,"included_in_metrics":true,"exclusion_reason":null,"override_reason":null}},{"type":"Feature","geometry":{"type":"Point","coordinates":[-46.42404792,-23.53897086]},"properties":{"id":"sp_geosampa_educacao_ceu:equipamento_educacao_ceu.52528","source_id":"sp_geosampa_educacao_ceu","name":"CEU EMEF JAMBEIRO","category":"school","subcategory":"ceu","geometry_type":"Point","address":"JOSE PINHEIRO BORGES, 60, JARDIM HELENA, 08420-092","equipment_type":"CEU EMEF","administrative_sphere":null,"included_in_metrics":true,"exclusion_reason":null,"override_reason":null}},{"type":"Feature","geometry":{"type":"Point","coordinates":[-46.42404792,-23.53897086]},"properties":{"id":"sp_geosampa_educacao_ceu:equipamento_educacao_ceu.52529","source_id":"sp_geosampa_educacao_ceu","name":"CEU EMEI THERESINHA SQUINCA DA SILVA PROFA","category":"school","subcategory":"ceu","geometry_type":"Point","address":"JOSE PINHEIRO BORGES, 60, JARDIM HELENA, 08420-092","equipment_type":"CEU EMEI","administrative_sphere":null,"included_in_metrics":true,"exclusion_reason":null,"override_reason":null}},{"type":"Feature","geometry":{"type":"Point","coordinates":[-46.42404792,-23.53897086]},"properties":{"id":"sp_geosampa_educacao_ceu:equipamento_educacao_ceu.52530","source_id":"sp_geosampa_educacao_ceu","name":"CEU CEI EVANIR APARECIDA HILARIO PROFA","category":"school","subcategory":"ceu","geometry_type":"Point","address":"JOSE PINHEIRO BORGES, 60, JARDIM HELENA, 08420-092","equipment_type":"CEU CEI","administrative_sphere":null,"included_in_metrics":true,"exclusion_reason":null,"override_reason":null}},{"type":"Feature","geometry":{"type":"Point","coordinates":[-46.58462297,-23.62133273]},"properties":{"id":"sp_geosampa_educacao_ceu:equipamento_educacao_ceu.52531","source_id":"sp_geosampa_educacao_ceu","name":"CEU EMEF MENINOS","category":"school","subcategory":"ceu","geometry_type":"Point","address":"BARBINOS, 111, SAO JOAO CLIMACO, 04240-110","equipment_type":"CEU EMEF","administrative_sphere":null,"included_in_metrics":true,"exclusion_reason":null,"override_reason":null}},{"type":"Feature","geometry":{"type":"Point","coordinates":[-46.58462297,-23.62133273]},"properties":{"id":"sp_geosampa_educacao_ceu:equipamento_educacao_ceu.52532","source_id":"sp_geosampa_educacao_ceu","name":"CEU CEI MENINOS","category":"school","subcategory":"ceu","geometry_type":"Point","address":"BARBINOS, 111, SAO JOAO CLIMACO, 04240-110","equipment_type":"CEU CEI","administrative_sphere":null,"included_in_metrics":true,"exclusion_reason":null,"override_reason":null}},{"type":"Feature","geometry":{"type":"Point","coordinates":[-46.66039621,-23.74390707]},"properties":{"id":"sp_geosampa_educacao_ceu:equipamento_educacao_ceu.52533","source_id":"sp_geosampa_educacao_ceu","name":"CEU EMEI NAVEGANTES","category":"school","subcategory":"ceu","geometry_type":"Point","address":"MARIA MOASSAB BARBOUR, S/N, CANTINHO DO CEU, 04849-503","equipment_type":"CEU EMEI","administrative_sphere":null,"included_in_metrics":true,"exclusion_reason":null,"override_reason":null}},{"type":"Feature","geometry":{"type":"Point","coordinates":[-46.66010679,-23.74379696]},"properties":{"id":"sp_geosampa_educacao_ceu:equipamento_educacao_ceu.52534","source_id":"sp_geosampa_educacao_ceu","name":"CEU CEI NAVEGANTES","category":"school","subcategory":"ceu","geometry_type":"Point","address":"MARIA MOASSAB BARBOUR, S/N, CANTINHO DO CEU, 04849-503","equipment_type":"CEU CEI","administrative_sphere":null,"included_in_metrics":true,"exclusion_reason":null,"override_reason":null}},{"type":"Feature","geometry":{"type":"Point","coordinates":[-46.47380768,-23.51251798]},"properties":{"id":"sp_geosampa_educacao_ceu:equipamento_educacao_ceu.52535","source_id":"sp_geosampa_educacao_ceu","name":"CEU EMEF PARQUE SAO CARLOS","category":"school","subcategory":"ceu","geometry_type":"Point","address":"CLAREAR, 643, JARDIM SAO CARLOS ZONA LESTE, 08062-590","equipment_type":"CEU EMEF","administrative_sphere":null,"included_in_metrics":true,"exclusion_reason":null,"override_reason":null}},{"type":"Feature","geometry":{"type":"Point","coordinates":[-46.47380768,-23.51251798]},"properties":{"id":"sp_geosampa_educacao_ceu:equipamento_educacao_ceu.52536","source_id":"sp_geosampa_educacao_ceu","name":"CEU CEI PARQUE SAO CARLOS","category":"school","subcategory":"ceu","geometry_type":"Point","address":"CLAREAR, 643, JARDIM SAO CARLOS ZONA LESTE, 08062-590","equipment_type":"CEU CEI","administrative_sphere":null,"included_in_metrics":true,"exclusion_reason":null,"override_reason":null}},{"type":"Feature","geometry":{"type":"Point","coordinates":[-46.38977398,-23.51327898]},"properties":{"id":"sp_geosampa_educacao_ceu:equipamento_educacao_ceu.52537","source_id":"sp_geosampa_educacao_ceu","name":"CEU EMEI ANTON MAKARENKO","category":"school","subcategory":"ceu","geometry_type":"Point","address":"DANIEL MULLER, 347, CHACARA DONA OLIVIA, 08141-290","equipment_type":"CEU EMEI","administrative_sphere":null,"included_in_metrics":true,"exclusion_reason":null,"override_reason":null}},{"type":"Feature","geometry":{"type":"Point","coordinates":[-46.38977398,-23.51327898]},"properties":{"id":"sp_geosampa_educacao_ceu:equipamento_educacao_ceu.52538","source_id":"sp_geosampa_educacao_ceu","name":"CEU CEI BENEDITO GALAVOTE PROF","category":"school","subcategory":"ceu","geometry_type":"Point","address":"DANIEL MULLER, 347, CHACARA DONA OLIVIA, 08141-290","equipment_type":"CEU CEI","administrative_sphere":null,"included_in_metrics":true,"exclusion_reason":null,"override_reason":null}},{"type":"Feature","geometry":{"type":"Point","coordinates":[-46.75042776,-23.43706917]},"properties":{"id":"sp_geosampa_educacao_ceu:equipamento_educacao_ceu.52539","source_id":"sp_geosampa_educacao_ceu","name":"CEU EMEF PERA MARMELO","category":"school","subcategory":"ceu","geometry_type":"Point","address":"PERAMARMELO, 226, JARDIM SANTA LUCRECIA, 05185-420","equipment_type":"CEU EMEF","administrative_sphere":null,"included_in_metrics":true,"exclusion_reason":null,"override_reason":null}},{"type":"Feature","geometry":{"type":"Point","coordinates":[-46.75042776,-23.43706917]},"properties":{"id":"sp_geosampa_educacao_ceu:equipamento_educacao_ceu.52540","source_id":"sp_geosampa_educacao_ceu","name":"CEU EMEI PERA MARMELO","category":"school","subcategory":"ceu","geometry_type":"Point","address":"PERAMARMELO, 226, JARDIM SANTA LUCRECIA, 05185-420","equipment_type":"CEU EMEI","administrative_sphere":null,"included_in_metrics":true,"exclusion_reason":null,"override_reason":null}},{"type":"Feature","geometry":{"type":"Point","coordinates":[-46.75042776,-23.43706917]},"properties":{"id":"sp_geosampa_educacao_ceu:equipamento_educacao_ceu.52541","source_id":"sp_geosampa_educacao_ceu","name":"CEU CEI PERA MARMELO","category":"school","subcategory":"ceu","geometry_type":"Point","address":"PERAMARMELO, 226, JARDIM SANTA LUCRECIA, 05185-420","equipment_type":"CEU CEI","administrative_sphere":null,"included_in_metrics":true,"exclusion_reason":null,"override_reason":null}},{"type":"Feature","geometry":{"type":"Point","coordinates":[-46.75199609,-23.40628307]},"properties":{"id":"sp_geosampa_educacao_ceu:equipamento_educacao_ceu.52542","source_id":"sp_geosampa_educacao_ceu","name":"CEU EMEF PERUS","category":"school","subcategory":"ceu","geometry_type":"Point","address":"BERNARDO JOSE DE LORENA, S/N, VILA FANTON, 05203-200","equipment_type":"CEU EMEF","administrative_sphere":null,"included_in_metrics":true,"exclusion_reason":null,"override_reason":null}},{"type":"Feature","geometry":{"type":"Point","coordinates":[-46.7519639,-23.40624369]},"properties":{"id":"sp_geosampa_educacao_ceu:equipamento_educacao_ceu.52543","source_id":"sp_geosampa_educacao_ceu","name":"CEU CEI PERUS","category":"school","subcategory":"ceu","geometry_type":"Point","address":"BERNARDO JOSE DE LORENA, S/N, VILA FANTON, 05203-200","equipment_type":"CEU CEI","administrative_sphere":null,"included_in_metrics":true,"exclusion_reason":null,"override_reason":null}},{"type":"Feature","geometry":{"type":"Point","coordinates":[-46.50189258,-23.62290017]},"properties":{"id":"sp_geosampa_educacao_ceu:equipamento_educacao_ceu.52544","source_id":"sp_geosampa_educacao_ceu","name":"CEU EMEI ROSA DA CHINA","category":"school","subcategory":"ceu","geometry_type":"Point","address":"CLARA PETRELA, 113, JARDIM SAO ROBERTO, 03978-500","equipment_type":"CEU EMEI","administrative_sphere":null,"included_in_metrics":true,"exclusion_reason":null,"override_reason":null}},{"type":"Feature","geometry":{"type":"Point","coordinates":[-46.50189258,-23.62290017]},"properties":{"id":"sp_geosampa_educacao_ceu:equipamento_educacao_ceu.52545","source_id":"sp_geosampa_educacao_ceu","name":"CEU CEI ROSA DA CHINA","category":"school","subcategory":"ceu","geometry_type":"Point","address":"CLARA PETRELA, 113, JARDIM SAO ROBERTO, 03978-500","equipment_type":"CEU CEI","administrative_sphere":null,"included_in_metrics":true,"exclusion_reason":null,"override_reason":null}},{"type":"Feature","geometry":{"type":"Point","coordinates":[-46.44953796,-23.60248705]},"properties":{"id":"sp_geosampa_educacao_ceu:equipamento_educacao_ceu.52546","source_id":"sp_geosampa_educacao_ceu","name":"CEU EMEI SAO MATEUS","category":"school","subcategory":"ceu","geometry_type":"Point","address":"CURUMATIM, 201, PARQUE BOA ESPERANCA, 08341-240","equipment_type":"CEU EMEI","administrative_sphere":null,"included_in_metrics":true,"exclusion_reason":null,"override_reason":null}},{"type":"Feature","geometry":{"type":"Point","coordinates":[-46.44953796,-23.60248705]},"properties":{"id":"sp_geosampa_educacao_ceu:equipamento_educacao_ceu.52547","source_id":"sp_geosampa_educacao_ceu","name":"CEU CEI SAO MATEUS","category":"school","subcategory":"ceu","geometry_type":"Point","address":"CURUMATIM, 201, PARQUE BOA ESPERANCA, 08341-240","equipment_type":"CEU CEI","administrative_sphere":null,"included_in_metrics":true,"exclusion_reason":null,"override_reason":null}},{"type":"Feature","geometry":{"type":"Point","coordinates":[-46.76261439,-23.48191893]},"properties":{"id":"sp_geosampa_educacao_ceu:equipamento_educacao_ceu.52548","source_id":"sp_geosampa_educacao_ceu","name":"CEU EMEF VILA ATLANTICA","category":"school","subcategory":"ceu","geometry_type":"Point","address":"CORONEL JOSE VENANCIO DIAS, 840, JARAGUA, 05160-030","equipment_type":"CEU EMEF","administrative_sphere":null,"included_in_metrics":true,"exclusion_reason":null,"override_reason":null}},{"type":"Feature","geometry":{"type":"Point","coordinates":[-46.76261439,-23.48191893]},"properties":{"id":"sp_geosampa_educacao_ceu:equipamento_educacao_ceu.52549","source_id":"sp_geosampa_educacao_ceu","name":"CEU EMEI VILA ATLANTICA","category":"school","subcategory":"ceu","geometry_type":"Point","address":"CORONEL JOSE VENANCIO DIAS, 840, JARAGUA, 05160-030","equipment_type":"CEU EMEI","administrative_sphere":null,"included_in_metrics":true,"exclusion_reason":null,"override_reason":null}},{"type":"Feature","geometry":{"type":"Point","coordinates":[-46.76261439,-23.48191893]},"properties":{"id":"sp_geosampa_educacao_ceu:equipamento_educacao_ceu.52550","source_id":"sp_geosampa_educacao_ceu","name":"CEU CEI VILA ATLANTICA","category":"school","subcategory":"ceu","geometry_type":"Point","address":"CORONEL JOSE VENANCIO DIAS, 840, JARAGUA, 05160-030","equipment_type":"CEU CEI","administrative_sphere":null,"included_in_metrics":true,"exclusion_reason":null,"override_reason":null}},{"type":"Feature","geometry":{"type":"Point","coordinates":[-46.41135153,-23.49536602]},"properties":{"id":"sp_geosampa_educacao_ceu:equipamento_educacao_ceu.52551","source_id":"sp_geosampa_educacao_ceu","name":"CEU EMEF VILA CURUCA","category":"school","subcategory":"ceu","geometry_type":"Point","address":"MARECHAL TITO, 3452, ITAIM PAULISTA, 08115-000","equipment_type":"CEU EMEF","administrative_sphere":null,"included_in_metrics":true,"exclusion_reason":null,"override_reason":null}},{"type":"Feature","geometry":{"type":"Point","coordinates":[-46.41143125,-23.49536302]},"properties":{"id":"sp_geosampa_educacao_ceu:equipamento_educacao_ceu.52552","source_id":"sp_geosampa_educacao_ceu","name":"CEU EMEI APPARECIDO DOMINGUES PROF","category":"school","subcategory":"ceu","geometry_type":"Point","address":"MARECHAL TITO, 3400, ITAIM PAULISTA, 08115-000","equipment_type":"CEU EMEI","administrative_sphere":null,"included_in_metrics":true,"exclusion_reason":null,"override_reason":null}},{"type":"Feature","geometry":{"type":"Point","coordinates":[-46.41143125,-23.49536302]},"properties":{"id":"sp_geosampa_educacao_ceu:equipamento_educacao_ceu.52553","source_id":"sp_geosampa_educacao_ceu","name":"CEU CEI ANA LUCIA DE HOLANDA GAMBOA PROFA","category":"school","subcategory":"ceu","geometry_type":"Point","address":"MARECHAL TITO, 3400, ITAIM PAULISTA, 08115-000","equipment_type":"CEU CEI","administrative_sphere":null,"included_in_metrics":true,"exclusion_reason":null,"override_reason":null}},{"type":"Feature","geometry":{"type":"Point","coordinates":[-46.68038403,-23.76744814]},"properties":{"id":"sp_geosampa_educacao_ceu:equipamento_educacao_ceu.52554","source_id":"sp_geosampa_educacao_ceu","name":"CEU EMEF TRES LAGOS","category":"school","subcategory":"ceu","geometry_type":"Point","address":"MARIA MOURA DA CONCEICAO, S/N, JARDIM BELCITO, 04855-257","equipment_type":"CEU EMEF","administrative_sphere":null,"included_in_metrics":true,"exclusion_reason":null,"override_reason":null}},{"type":"Feature","geometry":{"type":"Point","coordinates":[-46.6805235,-23.76748742]},"properties":{"id":"sp_geosampa_educacao_ceu:equipamento_educacao_ceu.52555","source_id":"sp_geosampa_educacao_ceu","name":"CEU EMEI TRES LAGOS","category":"school","subcategory":"ceu","geometry_type":"Point","address":"MARIA MOURA DA CONCEICAO, S/N, JARDIM BELCITO, 04855-257","equipment_type":"CEU EMEI","administrative_sphere":null,"included_in_metrics":true,"exclusion_reason":null,"override_reason":null}},{"type":"Feature","geometry":{"type":"Point","coordinates":[-46.68054496,-23.76765434]},"properties":{"id":"sp_geosampa_educacao_ceu:equipamento_educacao_ceu.52556","source_id":"sp_geosampa_educacao_ceu","name":"CEU CEI TRES LAGOS","category":"school","subcategory":"ceu","geometry_type":"Point","address":"MARIA MOURA DA CONCEICAO, S/N, JARDIM BELCITO, 04855-257","equipment_type":"CEU CEI","administrative_sphere":null,"included_in_metrics":true,"exclusion_reason":null,"override_reason":null}},{"type":"Feature","geometry":{"type":"Point","coordinates":[-46.74431756,-23.64628464]},"properties":{"id":"sp_geosampa_educacao_ceu:equipamento_educacao_ceu.52566","source_id":"sp_geosampa_educacao_ceu","name":"CEU EMEF CASA BLANCA","category":"school","subcategory":"ceu","geometry_type":"Point","address":"JOAO DAMASCENO, 85, VILA DAS BELEZAS, 05841-160","equipment_type":"CEU EMEF","administrative_sphere":null,"included_in_metrics":true,"exclusion_reason":null,"override_reason":null}},{"type":"Feature","geometry":{"type":"Point","coordinates":[-46.74431756,-23.64628464]},"properties":{"id":"sp_geosampa_educacao_ceu:equipamento_educacao_ceu.52567","source_id":"sp_geosampa_educacao_ceu","name":"CEU EMEI CASA BLANCA","category":"school","subcategory":"ceu","geometry_type":"Point","address":"JOAO DAMASCENO, 85, VILA DAS BELEZAS, 05841-160","equipment_type":"CEU EMEI","administrative_sphere":null,"included_in_metrics":true,"exclusion_reason":null,"override_reason":null}},{"type":"Feature","geometry":{"type":"Point","coordinates":[-46.74431756,-23.64628464]},"properties":{"id":"sp_geosampa_educacao_ceu:equipamento_educacao_ceu.52568","source_id":"sp_geosampa_educacao_ceu","name":"CEU CEI CASA BLANCA","category":"school","subcategory":"ceu","geometry_type":"Point","address":"JOAO DAMASCENO, 85, VILA DAS BELEZAS, 05841-160","equipment_type":"CEU CEI","administrative_sphere":null,"included_in_metrics":true,"exclusion_reason":null,"override_reason":null}},{"type":"Feature","geometry":{"type":"Point","coordinates":[-46.78046952,-23.63790867]},"properties":{"id":"sp_geosampa_educacao_ceu:equipamento_educacao_ceu.52569","source_id":"sp_geosampa_educacao_ceu","name":"CEU EMEF HERMES FERREIRA DE SOUZA","category":"school","subcategory":"ceu","geometry_type":"Point","address":"CARLOS LACERDA, 678, PIRAJUSSARA, 05789-000","equipment_type":"CEU EMEF","administrative_sphere":null,"included_in_metrics":true,"exclusion_reason":null,"override_reason":null}},{"type":"Feature","geometry":{"type":"Point","coordinates":[-46.78046952,-23.63790867]},"properties":{"id":"sp_geosampa_educacao_ceu:equipamento_educacao_ceu.52571","source_id":"sp_geosampa_educacao_ceu","name":"CEU EMEI LUIZA HELENA FERREIRA PROFA","category":"school","subcategory":"ceu","geometry_type":"Point","address":"CARLOS LACERDA, 678, PIRAJUSSARA, 05789-000","equipment_type":"CEU EMEI","administrative_sphere":null,"included_in_metrics":true,"exclusion_reason":null,"override_reason":null}},{"type":"Feature","geometry":{"type":"Point","coordinates":[-46.78046952,-23.63790867]},"properties":{"id":"sp_geosampa_educacao_ceu:equipamento_educacao_ceu.52572","source_id":"sp_geosampa_educacao_ceu","name":"CEU CEI CAMPO LIMPO","category":"school","subcategory":"ceu","geometry_type":"Point","address":"CARLOS LACERDA, 678, PIRAJUSSARA, 05789-000","equipment_type":"CEU CEI","administrative_sphere":null,"included_in_metrics":true,"exclusion_reason":null,"override_reason":null}},{"type":"Feature","geometry":{"type":"Point","coordinates":[-46.68890575,-23.44799584]},"properties":{"id":"sp_geosampa_educacao_ceu:equipamento_educacao_ceu.52573","source_id":"sp_geosampa_educacao_ceu","name":"CEU EMEI PAZ","category":"school","subcategory":"ceu","geometry_type":"Point","address":"DANIEL CERRI, 1549, JARDIM PARANA, 02876-170","equipment_type":"CEU EMEI","administrative_sphere":null,"included_in_metrics":true,"exclusion_reason":null,"override_reason":null}},{"type":"Feature","geometry":{"type":"Point","coordinates":[-46.68881992,-23.44802537]},"properties":{"id":"sp_geosampa_educacao_ceu:equipamento_educacao_ceu.52574","source_id":"sp_geosampa_educacao_ceu","name":"CEU CEI PAZ","category":"school","subcategory":"ceu","geometry_type":"Point","address":"DANIEL CERRI, 1549, JARDIM PARANA, 02876-170","equipment_type":"CEU CEI","administrative_sphere":null,"included_in_metrics":true,"exclusion_reason":null,"override_reason":null}},{"type":"Feature","geometry":{"type":"Point","coordinates":[-46.45642868,-23.62034305]},"properties":{"id":"sp_geosampa_educacao_ceu:equipamento_educacao_ceu.52619","source_id":"sp_geosampa_educacao_ceu","name":"CEU EMEF CANDIDA DORA PINO PRETINI PROFA","category":"school","subcategory":"ceu","geometry_type":"Point","address":"CINIRA POLONIO, 100, CONJUNTO PROMORAR RIO CLARO, 08395-320","equipment_type":"CEU EMEF","administrative_sphere":null,"included_in_metrics":true,"exclusion_reason":null,"override_reason":null}},{"type":"Feature","geometry":{"type":"Point","coordinates":[-46.45642868,-23.62034305]},"properties":{"id":"sp_geosampa_educacao_ceu:equipamento_educacao_ceu.52620","source_id":"sp_geosampa_educacao_ceu","name":"CEU CEI SAO RAFAEL","category":"school","subcategory":"ceu","geometry_type":"Point","address":"CINIRA POLONIO, 100, CONJUNTO PROMORAR RIO CLARO, 08395-320","equipment_type":"CEU CEI","administrative_sphere":null,"included_in_metrics":true,"exclusion_reason":null,"override_reason":null}},{"type":"Feature","geometry":{"type":"Point","coordinates":[-46.47380596,-23.50999074]},"properties":{"id":"sp_geosampa_educacao_ceu:equipamento_educacao_ceu.52628","source_id":"sp_geosampa_educacao_ceu","name":"CEU EMEI CARLOS OLIVALDO DE SOUZA LOPES MUNIZ DR","category":"school","subcategory":"ceu","geometry_type":"Point","address":"CLAREAR, 141, JARDIM SAO CARLOS ZONA LESTE, 08062-590","equipment_type":"CEU EMEI","administrative_sphere":null,"included_in_metrics":true,"exclusion_reason":null,"override_reason":null}},{"type":"Feature","geometry":{"type":"Point","coordinates":[-46.58462297,-23.62133273]},"properties":{"id":"sp_geosampa_educacao_ceu:equipamento_educacao_ceu.52737","source_id":"sp_geosampa_educacao_ceu","name":"CEU EMEI BENNO HUBERT STOLLENWERK PE","category":"school","subcategory":"ceu","geometry_type":"Point","address":"BARBINOS, 111, SAO JOAO CLIMACO, 04240-110","equipment_type":"CEU EMEI","administrative_sphere":null,"included_in_metrics":true,"exclusion_reason":null,"override_reason":null}},{"type":"Feature","geometry":{"type":"Point","coordinates":[-46.68884825,-23.44787397]},"properties":{"id":"sp_geosampa_educacao_ceu:equipamento_educacao_ceu.52744","source_id":"sp_geosampa_educacao_ceu","name":"CEU EMEF TEOTONIO VILELA SEN","category":"school","subcategory":"ceu","geometry_type":"Point","address":"DANIEL CERRI, 1549, JARDIM PARANA, 02876-170","equipment_type":"CEU EMEF","administrative_sphere":null,"included_in_metrics":true,"exclusion_reason":null,"override_reason":null}},{"type":"Feature","geometry":{"type":"Point","coordinates":[-46.50189258,-23.62290017]},"properties":{"id":"sp_geosampa_educacao_ceu:equipamento_educacao_ceu.52827","source_id":"sp_geosampa_educacao_ceu","name":"CEU EMEF DOMINGOS RUBINO PROF","category":"school","subcategory":"ceu","geometry_type":"Point","address":"CLARA PETRELA, 113, JARDIM SAO ROBERTO, 03978-520","equipment_type":"CEU EMEF","administrative_sphere":null,"included_in_metrics":true,"exclusion_reason":null,"override_reason":null}},{"type":"Feature","geometry":{"type":"Point","coordinates":[-46.39979692,-23.54339467]},"properties":{"id":"sp_geosampa_educacao_ceu:equipamento_educacao_ceu.53197","source_id":"sp_geosampa_educacao_ceu","name":"CEU CEI SILVANA APARECIDA TOBIAS PROFA","category":"school","subcategory":"ceu","geometry_type":"Point","address":"MANUEL DA MOTA COUTINHO, 293, LAJEADO, 08451-420","equipment_type":"CEU CEI","administrative_sphere":null,"included_in_metrics":true,"exclusion_reason":null,"override_reason":null}},{"type":"Feature","geometry":{"type":"Point","coordinates":[-46.39979692,-23.54339467]},"properties":{"id":"sp_geosampa_educacao_ceu:equipamento_educacao_ceu.53203","source_id":"sp_geosampa_educacao_ceu","name":"CEU EMEI EDNA ALVES DE SOUSA PROFA","category":"school","subcategory":"ceu","geometry_type":"Point","address":"MANUEL DA MOTA COUTINHO, 293, LAJEADO, 08451-420","equipment_type":"CEU EMEI","administrative_sphere":null,"included_in_metrics":true,"exclusion_reason":null,"override_reason":null}},{"type":"Feature","geometry":{"type":"Point","coordinates":[-46.7262118,-23.82741699]},"properties":{"id":"sp_geosampa_educacao_ceu:equipamento_educacao_ceu.54620","source_id":"sp_geosampa_educacao_ceu","name":"CEU EMEF MANOEL VIEIRA DE QUEIROZ FILHO","category":"school","subcategory":"ceu","geometry_type":"Point","address":"JOSE PEDRO DE BORBA, 20, JARDIM NOVO PARELHEIROS, 04890-090","equipment_type":"CEU EMEF","administrative_sphere":null,"included_in_metrics":true,"exclusion_reason":null,"override_reason":null}},{"type":"Feature","geometry":{"type":"Point","coordinates":[-46.75194353,-23.40643956]},"properties":{"id":"sp_geosampa_educacao_ceu:equipamento_educacao_ceu.54622","source_id":"sp_geosampa_educacao_ceu","name":"CEU EMEI JORGE AMADO","category":"school","subcategory":"ceu","geometry_type":"Point","address":"BERNARDO JOSE DE LORENA, S/N, VILA FANTON, 05203-200","equipment_type":"CEU EMEI","administrative_sphere":null,"included_in_metrics":true,"exclusion_reason":null,"override_reason":null}},{"type":"Feature","geometry":{"type":"Point","coordinates":[-46.45626219,-23.62044029]},"properties":{"id":"sp_geosampa_educacao_ceu:equipamento_educacao_ceu.54624","source_id":"sp_geosampa_educacao_ceu","name":"CEU EMEI ROQUE SPENCER MACIEL DE BARROS PROF","category":"school","subcategory":"ceu","geometry_type":"Point","address":"CINIRA POLONIO, 80, CONJUNTO PROMORAR RIO CLARO, 08395-320","equipment_type":"CEU EMEI","administrative_sphere":null,"included_in_metrics":true,"exclusion_reason":null,"override_reason":null}},{"type":"Feature","geometry":{"type":"Point","coordinates":[-46.79011693,-23.60113023]},"properties":{"id":"sp_geosampa_educacao_ceu:equipamento_educacao_ceu.54642","source_id":"sp_geosampa_educacao_ceu","name":"CEU EMEF CESAR ARRUDA CASTANHO DEP","category":"school","subcategory":"ceu","geometry_type":"Point","address":"NAZIR MIGUEL, 849, JARDIM PAULO VI, 05570-030","equipment_type":"CEU EMEF","administrative_sphere":null,"included_in_metrics":true,"exclusion_reason":null,"override_reason":null}},{"type":"Feature","geometry":{"type":"Point","coordinates":[-46.66017893,-23.74382675]},"properties":{"id":"sp_geosampa_educacao_ceu:equipamento_educacao_ceu.54656","source_id":"sp_geosampa_educacao_ceu","name":"CEU EMEF JARDIM ELIANA","category":"school","subcategory":"ceu","geometry_type":"Point","address":"MARIA MOASSAB BARBOUR, S/N, CANTINHO DO CEU, 04849-503","equipment_type":"CEU EMEF","administrative_sphere":null,"included_in_metrics":true,"exclusion_reason":null,"override_reason":null}},{"type":"Feature","geometry":{"type":"Point","coordinates":[-46.44953796,-23.60248705]},"properties":{"id":"sp_geosampa_educacao_ceu:equipamento_educacao_ceu.54658","source_id":"sp_geosampa_educacao_ceu","name":"CEU EMEF MARIA LISBOA DA SILVA PROFA","category":"school","subcategory":"ceu","geometry_type":"Point","address":"CURUMATIM, 201, PARQUE BOA ESPERANCA, 08341-240","equipment_type":"CEU EMEF","administrative_sphere":null,"included_in_metrics":true,"exclusion_reason":null,"override_reason":null}},{"type":"Feature","geometry":{"type":"Point","coordinates":[-46.70455502,-23.71088168]},"properties":{"id":"sp_geosampa_educacao_ceu:equipamento_educacao_ceu.54776","source_id":"sp_geosampa_educacao_ceu","name":"CEU EMEI MILTON SANTOS PROF","category":"school","subcategory":"ceu","geometry_type":"Point","address":"INTERLAGOS, 7350, CIDADE DUTRA, 04777-000","equipment_type":"CEU EMEI","administrative_sphere":null,"included_in_metrics":true,"exclusion_reason":null,"override_reason":null}},{"type":"Feature","geometry":{"type":"Point","coordinates":[-46.45738086,-23.52210484]},"properties":{"id":"sp_geosampa_educacao_ceu:equipamento_educacao_ceu.54792","source_id":"sp_geosampa_educacao_ceu","name":"CEU EMEI JARDIM VILA NOVA","category":"school","subcategory":"ceu","geometry_type":"Point","address":"ERNESTO SOUZA CRUZ, 2171, CIDADE ANTONIO ESTEVAO DE CARVALHO, 08225-380","equipment_type":"CEU EMEI","administrative_sphere":null,"included_in_metrics":true,"exclusion_reason":null,"override_reason":null}},{"type":"Feature","geometry":{"type":"Point","coordinates":[-46.45738086,-23.52210484]},"properties":{"id":"sp_geosampa_educacao_ceu:equipamento_educacao_ceu.54793","source_id":"sp_geosampa_educacao_ceu","name":"CEU EMEF CONCEICAO APARECIDA DE JESUS PROFA","category":"school","subcategory":"ceu","geometry_type":"Point","address":"ERNESTO SOUZA CRUZ, 2171, CIDADE ANTONIO ESTEVAO DE CARVALHO, 08225-380","equipment_type":"CEU EMEF","administrative_sphere":null,"included_in_metrics":true,"exclusion_reason":null,"override_reason":null}},{"type":"Feature","geometry":{"type":"Point","coordinates":[-46.38977398,-23.51327898]},"properties":{"id":"sp_geosampa_educacao_ceu:equipamento_educacao_ceu.54798","source_id":"sp_geosampa_educacao_ceu","name":"CEU EMEF MARIA CLARA MACHADO","category":"school","subcategory":"ceu","geometry_type":"Point","address":"DANIEL MULLER, 347, CHACARA DONA OLIVIA, 08141-290","equipment_type":"CEU EMEF","administrative_sphere":null,"included_in_metrics":true,"exclusion_reason":null,"override_reason":null}},{"type":"Feature","geometry":{"type":"Point","coordinates":[-46.55385066,-23.5173844]},"properties":{"id":"sp_geosampa_educacao_ceu:equipamento_educacao_ceu.54811","source_id":"sp_geosampa_educacao_ceu","name":"CEU EMEI PAULO FREIRE PROF","category":"school","subcategory":"ceu","geometry_type":"Point","address":"CONDESSA ELISABETH DE ROBIANO, S/N, VILA MOREIRA, 03074-000","equipment_type":"CEU EMEI","administrative_sphere":null,"included_in_metrics":true,"exclusion_reason":null,"override_reason":null}},{"type":"Feature","geometry":{"type":"Point","coordinates":[-46.55358626,-23.51684294]},"properties":{"id":"sp_geosampa_educacao_ceu:equipamento_educacao_ceu.54831","source_id":"sp_geosampa_educacao_ceu","name":"CEU CEI WALTER DE ANDRADE PROF","category":"school","subcategory":"ceu","geometry_type":"Point","address":"CONDESSA ELISABETH DE ROBIANO, S/N, VILA MOREIRA, 03074-000","equipment_type":"CEU CEI","administrative_sphere":null,"included_in_metrics":true,"exclusion_reason":null,"override_reason":null}},{"type":"Feature","geometry":{"type":"Point","coordinates":[-46.40728168,-23.59204331]},"properties":{"id":"sp_geosampa_educacao_ceu:equipamento_educacao_ceu.55013","source_id":"sp_geosampa_educacao_ceu","name":"CEU EMEF NAZARE NERI LIMA PROFA","category":"school","subcategory":"ceu","geometry_type":"Point","address":"DOS METALURGICOS, 1300, CIDADE TIRADENTES, 08471-000","equipment_type":"CEU EMEF","administrative_sphere":null,"included_in_metrics":true,"exclusion_reason":null,"override_reason":null}},{"type":"Feature","geometry":{"type":"Point","coordinates":[-46.40647777,-23.59394511]},"properties":{"id":"sp_geosampa_educacao_ceu:equipamento_educacao_ceu.55014","source_id":"sp_geosampa_educacao_ceu","name":"CEU EMEI IRENE MANKE MARQUES PROFA","category":"school","subcategory":"ceu","geometry_type":"Point","address":"DOS METALURGICOS, 1262, CIDADE TIRADENTES, 08471-000","equipment_type":"CEU EMEI","administrative_sphere":null,"included_in_metrics":true,"exclusion_reason":null,"override_reason":null}},{"type":"Feature","geometry":{"type":"Point","coordinates":[-46.40647777,-23.59394511]},"properties":{"id":"sp_geosampa_educacao_ceu:equipamento_educacao_ceu.55015","source_id":"sp_geosampa_educacao_ceu","name":"CEU CEI AGUA AZUL","category":"school","subcategory":"ceu","geometry_type":"Point","address":"DOS METALURGICOS, 1262, CIDADE TIRADENTES, 08471-000","equipment_type":"CEU CEI","administrative_sphere":null,"included_in_metrics":true,"exclusion_reason":null,"override_reason":null}},{"type":"Feature","geometry":{"type":"Point","coordinates":[-46.45738086,-23.52210484]},"properties":{"id":"sp_geosampa_educacao_ceu:equipamento_educacao_ceu.55016","source_id":"sp_geosampa_educacao_ceu","name":"CEU CEI AZUL DA COR DO MAR","category":"school","subcategory":"ceu","geometry_type":"Point","address":"ERNESTO SOUZA CRUZ, 2171, CIDADE ANTONIO ESTEVAO DE CARVALHO, 08225-380","equipment_type":"CEU CEI","administrative_sphere":null,"included_in_metrics":true,"exclusion_reason":null,"override_reason":null}},{"type":"Feature","geometry":{"type":"Point","coordinates":[-46.79462735,-23.68621436]},"properties":{"id":"sp_geosampa_educacao_ceu:equipamento_educacao_ceu.55017","source_id":"sp_geosampa_educacao_ceu","name":"CEU EMEF FEITICO DA VILA","category":"school","subcategory":"ceu","geometry_type":"Point","address":"FEITICO DA VILA, 399, CHACARA SANTA MARIA, 05879-000","equipment_type":"CEU EMEF","administrative_sphere":null,"included_in_metrics":true,"exclusion_reason":null,"override_reason":null}},{"type":"Feature","geometry":{"type":"Point","coordinates":[-46.79462735,-23.68621436]},"properties":{"id":"sp_geosampa_educacao_ceu:equipamento_educacao_ceu.55018","source_id":"sp_geosampa_educacao_ceu","name":"CEU EMEI FEITICO DA VILA","category":"school","subcategory":"ceu","geometry_type":"Point","address":"FEITICO DA VILA, 399, CHACARA SANTA MARIA, 05879-000","equipment_type":"CEU EMEI","administrative_sphere":null,"included_in_metrics":true,"exclusion_reason":null,"override_reason":null}},{"type":"Feature","geometry":{"type":"Point","coordinates":[-46.79462735,-23.68621436]},"properties":{"id":"sp_geosampa_educacao_ceu:equipamento_educacao_ceu.55019","source_id":"sp_geosampa_educacao_ceu","name":"CEU CEI YOLANDA DE SOUZA SANTALUCIA PROFA","category":"school","subcategory":"ceu","geometry_type":"Point","address":"FEITICO DA VILA, 399, CHACARA SANTA MARIA, 05879-000","equipment_type":"CEU CEI","administrative_sphere":null,"included_in_metrics":true,"exclusion_reason":null,"override_reason":null}},{"type":"Feature","geometry":{"type":"Point","coordinates":[-46.58379743,-23.45707747]},"properties":{"id":"sp_geosampa_educacao_ceu:equipamento_educacao_ceu.55020","source_id":"sp_geosampa_educacao_ceu","name":"CEU EMEF JACANA","category":"school","subcategory":"ceu","geometry_type":"Point","address":"FRANCISCA ESPOSITO TONETTI, S/N, GUAPIRA, 02276-010","equipment_type":"CEU EMEF","administrative_sphere":null,"included_in_metrics":true,"exclusion_reason":null,"override_reason":null}},{"type":"Feature","geometry":{"type":"Point","coordinates":[-46.5833597,-23.45740619]},"properties":{"id":"sp_geosampa_educacao_ceu:equipamento_educacao_ceu.55021","source_id":"sp_geosampa_educacao_ceu","name":"CEU EMEI JACANA","category":"school","subcategory":"ceu","geometry_type":"Point","address":"FRANCISCA ESPOSITO TONETTI, 105, GUAPIRA, 02276-010","equipment_type":"CEU EMEI","administrative_sphere":null,"included_in_metrics":true,"exclusion_reason":null,"override_reason":null}},{"type":"Feature","geometry":{"type":"Point","coordinates":[-46.58393691,-23.45711684]},"properties":{"id":"sp_geosampa_educacao_ceu:equipamento_educacao_ceu.55022","source_id":"sp_geosampa_educacao_ceu","name":"CEU CEI JACANA","category":"school","subcategory":"ceu","geometry_type":"Point","address":"FRANCISCA ESPOSITO TONETTI, S/N, GUAPIRA, 02276-010","equipment_type":"CEU CEI","administrative_sphere":null,"included_in_metrics":true,"exclusion_reason":null,"override_reason":null}},{"type":"Feature","geometry":{"type":"Point","coordinates":[-46.69809561,-23.72802766]},"properties":{"id":"sp_geosampa_educacao_ceu:equipamento_educacao_ceu.55023","source_id":"sp_geosampa_educacao_ceu","name":"CEU EMEF VILA RUBI","category":"school","subcategory":"ceu","geometry_type":"Point","address":"DOMINGOS TARROSO, 101, VILA RUBI, 04823-090","equipment_type":"CEU EMEF","administrative_sphere":null,"included_in_metrics":true,"exclusion_reason":null,"override_reason":null}},{"type":"Feature","geometry":{"type":"Point","coordinates":[-46.69809561,-23.72802766]},"properties":{"id":"sp_geosampa_educacao_ceu:equipamento_educacao_ceu.55024","source_id":"sp_geosampa_educacao_ceu","name":"CEU EMEI MARIA APARECIDA COELHO ALVES TEIXEIRA PROFA","category":"school","subcategory":"ceu","geometry_type":"Point","address":"DOMINGOS TARROSO, 101, VILA RUBI, 04823-090","equipment_type":"CEU EMEI","administrative_sphere":null,"included_in_metrics":true,"exclusion_reason":null,"override_reason":null}},{"type":"Feature","geometry":{"type":"Point","coordinates":[-46.69809561,-23.72802766]},"properties":{"id":"sp_geosampa_educacao_ceu:equipamento_educacao_ceu.55025","source_id":"sp_geosampa_educacao_ceu","name":"CEU CEI VILA RUBI","category":"school","subcategory":"ceu","geometry_type":"Point","address":"DOMINGOS TARROSO, 101, VILA RUBI, 04823-090","equipment_type":"CEU CEI","administrative_sphere":null,"included_in_metrics":true,"exclusion_reason":null,"override_reason":null}},{"type":"Feature","geometry":{"type":"Point","coordinates":[-46.78057412,-23.73790694]},"properties":{"id":"sp_geosampa_educacao_ceu:equipamento_educacao_ceu.55219","source_id":"sp_geosampa_educacao_ceu","name":"CEU CEI VILA DO SOL","category":"school","subcategory":"ceu","geometry_type":"Point","address":"DOS FUNCIONARIOS PUBLICOS, 369, VILA DO SOL, 04962-000","equipment_type":"CEU CEI","administrative_sphere":null,"included_in_metrics":true,"exclusion_reason":null,"override_reason":null}},{"type":"Feature","geometry":{"type":"Point","coordinates":[-46.78057412,-23.73790694]},"properties":{"id":"sp_geosampa_educacao_ceu:equipamento_educacao_ceu.55220","source_id":"sp_geosampa_educacao_ceu","name":"CEU EMEI VILA DO SOL","category":"school","subcategory":"ceu","geometry_type":"Point","address":"DOS FUNCIONARIOS PUBLICOS, 369, VILA DO SOL, 04962-000","equipment_type":"CEU EMEI","administrative_sphere":null,"included_in_metrics":true,"exclusion_reason":null,"override_reason":null}},{"type":"Feature","geometry":{"type":"Point","coordinates":[-46.78057412,-23.73790694]},"properties":{"id":"sp_geosampa_educacao_ceu:equipamento_educacao_ceu.55221","source_id":"sp_geosampa_educacao_ceu","name":"CEU EMEF VILA DO SOL","category":"school","subcategory":"ceu","geometry_type":"Point","address":"DOS FUNCIONARIOS PUBLICOS, 369, VILA DO SOL, 04962-000","equipment_type":"CEU EMEF","administrative_sphere":null,"included_in_metrics":true,"exclusion_reason":null,"override_reason":null}},{"type":"Feature","geometry":{"type":"Point","coordinates":[-46.78040659,-23.64708924]},"properties":{"id":"sp_geosampa_educacao_ceu:equipamento_educacao_ceu.55222","source_id":"sp_geosampa_educacao_ceu","name":"CEU CEI CANTOS DO AMANHECER","category":"school","subcategory":"ceu","geometry_type":"Point","address":"CANTOS DO AMANHECER, S/N, JARDIM ELEDY, 05856-020","equipment_type":"CEU CEI","administrative_sphere":null,"included_in_metrics":true,"exclusion_reason":null,"override_reason":null}},{"type":"Feature","geometry":{"type":"Point","coordinates":[-46.78542941,-23.64931065]},"properties":{"id":"sp_geosampa_educacao_ceu:equipamento_educacao_ceu.55223","source_id":"sp_geosampa_educacao_ceu","name":"CEU EMEI CANTOS DO AMANHECER","category":"school","subcategory":"ceu","geometry_type":"Point","address":"CANTOS DO AMANHECER, S/N, JARDIM ELEDY, 05856-020","equipment_type":"CEU EMEI","administrative_sphere":null,"included_in_metrics":true,"exclusion_reason":null,"override_reason":null}},{"type":"Feature","geometry":{"type":"Point","coordinates":[-46.78530264,-23.64967606]},"properties":{"id":"sp_geosampa_educacao_ceu:equipamento_educacao_ceu.55224","source_id":"sp_geosampa_educacao_ceu","name":"CEU EMEF CANTOS DO AMANHECER","category":"school","subcategory":"ceu","geometry_type":"Point","address":"CANTOS DO AMANHECER, S/N, JARDIM ELEDY, 05856-020","equipment_type":"CEU EMEF","administrative_sphere":null,"included_in_metrics":true,"exclusion_reason":null,"override_reason":null}},{"type":"Feature","geometry":{"type":"Point","coordinates":[-46.76897126,-23.69875972]},"properties":{"id":"sp_geosampa_educacao_ceu:equipamento_educacao_ceu.55225","source_id":"sp_geosampa_educacao_ceu","name":"CEU CEI GUARAPIRANGA","category":"school","subcategory":"ceu","geometry_type":"Point","address":"DA BARONESA, 1120, PARQUE BOLOGNE, 04941-175","equipment_type":"CEU CEI","administrative_sphere":null,"included_in_metrics":true,"exclusion_reason":null,"override_reason":null}},{"type":"Feature","geometry":{"type":"Point","coordinates":[-46.76897126,-23.69875972]},"properties":{"id":"sp_geosampa_educacao_ceu:equipamento_educacao_ceu.55226","source_id":"sp_geosampa_educacao_ceu","name":"CEU EMEI GUARAPIRANGA","category":"school","subcategory":"ceu","geometry_type":"Point","address":"DA BARONESA, 1120, PARQUE BOLOGNE, 04941-175","equipment_type":"CEU EMEI","administrative_sphere":null,"included_in_metrics":true,"exclusion_reason":null,"override_reason":null}},{"type":"Feature","geometry":{"type":"Point","coordinates":[-46.76897126,-23.69875972]},"properties":{"id":"sp_geosampa_educacao_ceu:equipamento_educacao_ceu.55227","source_id":"sp_geosampa_educacao_ceu","name":"CEU EMEF MARIO FITTIPALDI","category":"school","subcategory":"ceu","geometry_type":"Point","address":"DA BARONESA, 1120, PARQUE BOLOGNE, 04941-175","equipment_type":"CEU EMEF","administrative_sphere":null,"included_in_metrics":true,"exclusion_reason":null,"override_reason":null}},{"type":"Feature","geometry":{"type":"Point","coordinates":[-46.71177392,-23.46189853]},"properties":{"id":"sp_geosampa_educacao_ceu:equipamento_educacao_ceu.55228","source_id":"sp_geosampa_educacao_ceu","name":"CEU CEI JARDIM PAULISTANO","category":"school","subcategory":"ceu","geometry_type":"Point","address":"APARECIDA DO TABOADO, S/N, JARDIM PAULISTANO ZONA NORTE, 02814-000","equipment_type":"CEU CEI","administrative_sphere":null,"included_in_metrics":true,"exclusion_reason":null,"override_reason":null}},{"type":"Feature","geometry":{"type":"Point","coordinates":[-46.71164517,-23.46194773]},"properties":{"id":"sp_geosampa_educacao_ceu:equipamento_educacao_ceu.55229","source_id":"sp_geosampa_educacao_ceu","name":"CEU EMEI JARDIM PAULISTANO","category":"school","subcategory":"ceu","geometry_type":"Point","address":"APARECIDA DO TABOADO, S/N, JARDIM PAULISTANO ZONA NORTE, 02814-000","equipment_type":"CEU EMEI","administrative_sphere":null,"included_in_metrics":true,"exclusion_reason":null,"override_reason":null}},{"type":"Feature","geometry":{"type":"Point","coordinates":[-46.71175246,-23.46189853]},"properties":{"id":"sp_geosampa_educacao_ceu:equipamento_educacao_ceu.55230","source_id":"sp_geosampa_educacao_ceu","name":"CEU EMEF JARDIM PAULISTANO","category":"school","subcategory":"ceu","geometry_type":"Point","address":"APARECIDA DO TABOADO, S/N, JARDIM PAULISTANO ZONA NORTE, 02814-000","equipment_type":"CEU EMEF","administrative_sphere":null,"included_in_metrics":true,"exclusion_reason":null,"override_reason":null}},{"type":"Feature","geometry":{"type":"Point","coordinates":[-46.39979692,-23.54339467]},"properties":{"id":"sp_geosampa_educacao_ceu:equipamento_educacao_ceu.55231","source_id":"sp_geosampa_educacao_ceu","name":"CEU EMEF LAJEADO","category":"school","subcategory":"ceu","geometry_type":"Point","address":"MANUEL DA MOTA COUTINHO, 293, LAJEADO, 08451-420","equipment_type":"CEU EMEF","administrative_sphere":null,"included_in_metrics":true,"exclusion_reason":null,"override_reason":null}},{"type":"Feature","geometry":{"type":"Point","coordinates":[-46.49653091,-23.4985251]},"properties":{"id":"sp_geosampa_educacao_ceu:equipamento_educacao_ceu.55232","source_id":"sp_geosampa_educacao_ceu","name":"CEU CEI QUINTA DO SOL","category":"school","subcategory":"ceu","geometry_type":"Point","address":"LUIZ IMPARATO, 564, PARQUE CISPER, 03819-160","equipment_type":"CEU CEI","administrative_sphere":null,"included_in_metrics":true,"exclusion_reason":null,"override_reason":null}},{"type":"Feature","geometry":{"type":"Point","coordinates":[-46.49653091,-23.4985251]},"properties":{"id":"sp_geosampa_educacao_ceu:equipamento_educacao_ceu.55233","source_id":"sp_geosampa_educacao_ceu","name":"CEU EMEI BRAZ JAIME ROMANO","category":"school","subcategory":"ceu","geometry_type":"Point","address":"LUIZ IMPARATO, 564, PARQUE CISPER, 03819-160","equipment_type":"CEU EMEI","administrative_sphere":null,"included_in_metrics":true,"exclusion_reason":null,"override_reason":null}},{"type":"Feature","geometry":{"type":"Point","coordinates":[-46.49653091,-23.4985251]},"properties":{"id":"sp_geosampa_educacao_ceu:equipamento_educacao_ceu.55234","source_id":"sp_geosampa_educacao_ceu","name":"CEU EMEF ROSANGELA RODRIGUES VIEIRA PROFA","category":"school","subcategory":"ceu","geometry_type":"Point","address":"LUIZ IMPARATO, 564, PARQUE CISPER, 03819-160","equipment_type":"CEU EMEF","administrative_sphere":null,"included_in_metrics":true,"exclusion_reason":null,"override_reason":null}},{"type":"Feature","geometry":{"type":"Point","coordinates":[-46.49409795,-23.60984063]},"properties":{"id":"sp_geosampa_educacao_ceu:equipamento_educacao_ceu.55235","source_id":"sp_geosampa_educacao_ceu","name":"CEU CEI RUBEM ALVES","category":"school","subcategory":"ceu","geometry_type":"Point","address":"MANUEL QUIRINO DE MATTOS, S/N, JARDIM SAPOPEMBA, 03969-000","equipment_type":"CEU CEI","administrative_sphere":null,"included_in_metrics":true,"exclusion_reason":null,"override_reason":null}},{"type":"Feature","geometry":{"type":"Point","coordinates":[-46.49365412,-23.60891359]},"properties":{"id":"sp_geosampa_educacao_ceu:equipamento_educacao_ceu.55236","source_id":"sp_geosampa_educacao_ceu","name":"CEU EMEI ERIKA DE SOUZA BRITO MATOS PROFA","category":"school","subcategory":"ceu","geometry_type":"Point","address":"MANUEL QUIRINO DE MATTOS, S/N, JARDIM SAPOPEMBA, 03969-000","equipment_type":"CEU EMEI","administrative_sphere":null,"included_in_metrics":true,"exclusion_reason":null,"override_reason":null}},{"type":"Feature","geometry":{"type":"Point","coordinates":[-46.49397993,-23.60984063]},"properties":{"id":"sp_geosampa_educacao_ceu:equipamento_educacao_ceu.55237","source_id":"sp_geosampa_educacao_ceu","name":"CEU EMEF TATIANA BELINKY","category":"school","subcategory":"ceu","geometry_type":"Point","address":"MANUEL QUIRINO DE MATTOS, S/N, JARDIM SAPOPEMBA, 03969-000","equipment_type":"CEU EMEF","administrative_sphere":null,"included_in_metrics":true,"exclusion_reason":null,"override_reason":null}},{"type":"Feature","geometry":{"type":"Point","coordinates":[-46.38204308,-23.47837086]},"properties":{"id":"sp_geosampa_educacao_ceu:equipamento_educacao_ceu.55238","source_id":"sp_geosampa_educacao_ceu","name":"CEU CEI TRES PONTES","category":"school","subcategory":"ceu","geometry_type":"Point","address":"CAPACHOS, 400, JARDIM CELIA, 08191-330","equipment_type":"CEU CEI","administrative_sphere":null,"included_in_metrics":true,"exclusion_reason":null,"override_reason":null}},{"type":"Feature","geometry":{"type":"Point","coordinates":[-46.38204308,-23.47837086]},"properties":{"id":"sp_geosampa_educacao_ceu:equipamento_educacao_ceu.55239","source_id":"sp_geosampa_educacao_ceu","name":"CEU EMEI TRES PONTES","category":"school","subcategory":"ceu","geometry_type":"Point","address":"CAPACHOS, 400, JARDIM CELIA, 08191-330","equipment_type":"CEU EMEI","administrative_sphere":null,"included_in_metrics":true,"exclusion_reason":null,"override_reason":null}},{"type":"Feature","geometry":{"type":"Point","coordinates":[-46.38204308,-23.47837086]},"properties":{"id":"sp_geosampa_educacao_ceu:equipamento_educacao_ceu.55240","source_id":"sp_geosampa_educacao_ceu","name":"CEU EMEF TRES PONTES","category":"school","subcategory":"ceu","geometry_type":"Point","address":"CAPACHOS, 400, JARDIM CELIA, 08191-330","equipment_type":"CEU EMEF","administrative_sphere":null,"included_in_metrics":true,"exclusion_reason":null,"override_reason":null}},{"type":"Feature","geometry":{"type":"Point","coordinates":[-46.63640156,-23.66704275]},"properties":{"id":"sp_geosampa_educacao_ceu:equipamento_educacao_ceu.55281","source_id":"sp_geosampa_educacao_ceu","name":"CEU CEI CAMINHO DO MAR","category":"school","subcategory":"ceu","geometry_type":"Point","address":"ENGENHEIRO ARMANDO DE ARRUDA PEREIRA, 5241, VILA DO ENCONTRO, 04325-001","equipment_type":"CEU CEI","administrative_sphere":null,"included_in_metrics":true,"exclusion_reason":null,"override_reason":null}},{"type":"Feature","geometry":{"type":"Point","coordinates":[-46.63640156,-23.66704275]},"properties":{"id":"sp_geosampa_educacao_ceu:equipamento_educacao_ceu.55282","source_id":"sp_geosampa_educacao_ceu","name":"CEU EMEI CAMINHO DO MAR","category":"school","subcategory":"ceu","geometry_type":"Point","address":"ENGENHEIRO ARMANDO DE ARRUDA PEREIRA, 5241, VILA DO ENCONTRO, 04325-001","equipment_type":"CEU EMEI","administrative_sphere":null,"included_in_metrics":true,"exclusion_reason":null,"override_reason":null}},{"type":"Feature","geometry":{"type":"Point","coordinates":[-46.63640156,-23.66704275]},"properties":{"id":"sp_geosampa_educacao_ceu:equipamento_educacao_ceu.55283","source_id":"sp_geosampa_educacao_ceu","name":"CEU EMEF JOSE REZENDE PROF","category":"school","subcategory":"ceu","geometry_type":"Point","address":"ENGENHEIRO ARMANDO DE ARRUDA PEREIRA, 5241, VILA DO ENCONTRO, 04325-001","equipment_type":"CEU EMEF","administrative_sphere":null,"included_in_metrics":true,"exclusion_reason":null,"override_reason":null}},{"type":"Feature","geometry":{"type":"Point","coordinates":[-46.55349421,-23.51707325]},"properties":{"id":"sp_geosampa_educacao_ceu:equipamento_educacao_ceu.55326","source_id":"sp_geosampa_educacao_ceu","name":"CEU EMEF ANTONIO CARLOS ROCHA PROF","category":"school","subcategory":"ceu","geometry_type":"Point","address":"CONDESSA ELISABETH DE ROBIANO, S/N, VILA MOREIRA, 03074-000","equipment_type":"CEU EMEF","administrative_sphere":null,"included_in_metrics":true,"exclusion_reason":null,"override_reason":null}},{"type":"Feature","geometry":{"type":"Point","coordinates":[-46.60856944,-23.64368869]},"properties":{"id":"sp_geosampa_educacao_ceu:equipamento_educacao_ceu.55333","source_id":"sp_geosampa_educacao_ceu","name":"CEU CEI PARQUE BRISTOL","category":"school","subcategory":"ceu","geometry_type":"Point","address":"PROFESSOR ARTUR PRIMAVESI, S/N, PARQUE BRISTOL, 04177-070","equipment_type":"CEU CEI","administrative_sphere":null,"included_in_metrics":true,"exclusion_reason":null,"override_reason":null}},{"type":"Feature","geometry":{"type":"Point","coordinates":[-46.60902089,-23.64415724]},"properties":{"id":"sp_geosampa_educacao_ceu:equipamento_educacao_ceu.55334","source_id":"sp_geosampa_educacao_ceu","name":"CEU EMEI LUCIANA AZEVEDO POMPERMAYER PROFA","category":"school","subcategory":"ceu","geometry_type":"Point","address":"PROFESSOR ARTUR PRIMAVESI, S/N, PARQUE BRISTOL, 04177-070","equipment_type":"CEU EMEI","administrative_sphere":null,"included_in_metrics":true,"exclusion_reason":null,"override_reason":null}},{"type":"Feature","geometry":{"type":"Point","coordinates":[-46.60873223,-23.64345014]},"properties":{"id":"sp_geosampa_educacao_ceu:equipamento_educacao_ceu.55335","source_id":"sp_geosampa_educacao_ceu","name":"CEU EMEF MARA CRISTINA TARTAGLIA SENA PROFA","category":"school","subcategory":"ceu","geometry_type":"Point","address":"PROFESSOR ARTUR PRIMAVESI, S/N, PARQUE BRISTOL, 04177-070","equipment_type":"CEU EMEF","administrative_sphere":null,"included_in_metrics":true,"exclusion_reason":null,"override_reason":null}},{"type":"Feature","geometry":{"type":"Point","coordinates":[-46.52559853,-23.58110523]},"properties":{"id":"sp_geosampa_educacao_ceu:equipamento_educacao_ceu.55336","source_id":"sp_geosampa_educacao_ceu","name":"CEU CEI ADELAIDE TERESA LOPES CIMONARI PROFA","category":"school","subcategory":"ceu","geometry_type":"Point","address":"SARGENTO CLAUDINER EVARISTO DIAS, 10, PARQUE SANTO ANTONIO, 03385-150","equipment_type":"CEU CEI","administrative_sphere":null,"included_in_metrics":true,"exclusion_reason":null,"override_reason":null}},{"type":"Feature","geometry":{"type":"Point","coordinates":[-46.52559853,-23.58110523]},"properties":{"id":"sp_geosampa_educacao_ceu:equipamento_educacao_ceu.55337","source_id":"sp_geosampa_educacao_ceu","name":"CEU EMEI FORMOSA","category":"school","subcategory":"ceu","geometry_type":"Point","address":"SARGENTO CLAUDINER EVARISTO DIAS, 10, PARQUE SANTO ANTONIO, 03385-150","equipment_type":"CEU EMEI","administrative_sphere":null,"included_in_metrics":true,"exclusion_reason":null,"override_reason":null}},{"type":"Feature","geometry":{"type":"Point","coordinates":[-46.52559853,-23.58110523]},"properties":{"id":"sp_geosampa_educacao_ceu:equipamento_educacao_ceu.55338","source_id":"sp_geosampa_educacao_ceu","name":"CEU EMEF MARIA APARECIDA DE SOUZA CAMPOS PROFA","category":"school","subcategory":"ceu","geometry_type":"Point","address":"SARGENTO CLAUDINER EVARISTO DIAS, 10, PARQUE SANTO ANTONIO, 03385-150","equipment_type":"CEU EMEF","administrative_sphere":null,"included_in_metrics":true,"exclusion_reason":null,"override_reason":null}},{"type":"Feature","geometry":{"type":"Point","coordinates":[-46.78728057,-23.44061127]},"properties":{"id":"sp_geosampa_educacao_ceu:equipamento_educacao_ceu.55339","source_id":"sp_geosampa_educacao_ceu","name":"CEU CEI PARQUE ANHANGUERA","category":"school","subcategory":"ceu","geometry_type":"Point","address":"PEDRO JOSE DE LIMA, 1020, JARDIM ANHANGUERA, 05267-174","equipment_type":"CEU CEI","administrative_sphere":null,"included_in_metrics":true,"exclusion_reason":null,"override_reason":null}},{"type":"Feature","geometry":{"type":"Point","coordinates":[-46.78728057,-23.44061127]},"properties":{"id":"sp_geosampa_educacao_ceu:equipamento_educacao_ceu.55340","source_id":"sp_geosampa_educacao_ceu","name":"CEU EMEI PARQUE ANHANGUERA","category":"school","subcategory":"ceu","geometry_type":"Point","address":"PEDRO JOSE DE LIMA, 1020, JARDIM ANHANGUERA, 05267-174","equipment_type":"CEU EMEI","administrative_sphere":null,"included_in_metrics":true,"exclusion_reason":null,"override_reason":null}},{"type":"Feature","geometry":{"type":"Point","coordinates":[-46.78728057,-23.44061127]},"properties":{"id":"sp_geosampa_educacao_ceu:equipamento_educacao_ceu.55341","source_id":"sp_geosampa_educacao_ceu","name":"CEU EMEF VALTER PAULINO ESTEVAM PROF DR","category":"school","subcategory":"ceu","geometry_type":"Point","address":"PEDRO JOSE DE LIMA, 1020, JARDIM ANHANGUERA, 05267-174","equipment_type":"CEU EMEF","administrative_sphere":null,"included_in_metrics":true,"exclusion_reason":null,"override_reason":null}},{"type":"Feature","geometry":{"type":"Point","coordinates":[-46.74249144,-23.55020112]},"properties":{"id":"sp_geosampa_educacao_ceu:equipamento_educacao_ceu.55342","source_id":"sp_geosampa_educacao_ceu","name":"CEU CEI JAGUARE","category":"school","subcategory":"ceu","geometry_type":"Point","address":"KENKITI SHIMOMOTO, 80, JAGUARE, 05347-010","equipment_type":"CEU CEI","administrative_sphere":null,"included_in_metrics":true,"exclusion_reason":null,"override_reason":null}},{"type":"Feature","geometry":{"type":"Point","coordinates":[-46.74249144,-23.55020112]},"properties":{"id":"sp_geosampa_educacao_ceu:equipamento_educacao_ceu.55343","source_id":"sp_geosampa_educacao_ceu","name":"CEU EMEI JAGUARE","category":"school","subcategory":"ceu","geometry_type":"Point","address":"KENKITI SHIMOMOTO, 80, JAGUARE, 05347-010","equipment_type":"CEU EMEI","administrative_sphere":null,"included_in_metrics":true,"exclusion_reason":null,"override_reason":null}},{"type":"Feature","geometry":{"type":"Point","coordinates":[-46.74249144,-23.55020112]},"properties":{"id":"sp_geosampa_educacao_ceu:equipamento_educacao_ceu.55344","source_id":"sp_geosampa_educacao_ceu","name":"CEU EMEF JAGUARE","category":"school","subcategory":"ceu","geometry_type":"Point","address":"KENKITI SHIMOMOTO, 80, JAGUARE, 05347-010","equipment_type":"CEU EMEF","administrative_sphere":null,"included_in_metrics":true,"exclusion_reason":null,"override_reason":null}},{"type":"Feature","geometry":{"type":"Point","coordinates":[-46.42694919,-23.60997977]},"properties":{"id":"sp_geosampa_educacao_ceu:equipamento_educacao_ceu.55345","source_id":"sp_geosampa_educacao_ceu","name":"CEU CEI ALTO ALEGRE","category":"school","subcategory":"ceu","geometry_type":"Point","address":"BENTO GUELFI, 1802, JARDIM DA LARANJEIRA ZONA LESTE, 08381-001","equipment_type":"CEU CEI","administrative_sphere":null,"included_in_metrics":true,"exclusion_reason":null,"override_reason":null}},{"type":"Feature","geometry":{"type":"Point","coordinates":[-46.42680149,-23.60910619]},"properties":{"id":"sp_geosampa_educacao_ceu:equipamento_educacao_ceu.55346","source_id":"sp_geosampa_educacao_ceu","name":"CEU EMEI ALTO ALEGRE","category":"school","subcategory":"ceu","geometry_type":"Point","address":"BENTO GUELFI, S/N, JARDIM DA LARANJEIRA ZONA LESTE, 08381-001","equipment_type":"CEU EMEI","administrative_sphere":null,"included_in_metrics":true,"exclusion_reason":null,"override_reason":null}},{"type":"Feature","geometry":{"type":"Point","coordinates":[-46.42694096,-23.60901772]},"properties":{"id":"sp_geosampa_educacao_ceu:equipamento_educacao_ceu.55347","source_id":"sp_geosampa_educacao_ceu","name":"CEU EMEF ALTO ALEGRE","category":"school","subcategory":"ceu","geometry_type":"Point","address":"BENTO GUELFI, S/N, JARDIM DA LARANJEIRA ZONA LESTE, 08381-001","equipment_type":"CEU EMEF","administrative_sphere":null,"included_in_metrics":true,"exclusion_reason":null,"override_reason":null}},{"type":"Feature","geometry":{"type":"Point","coordinates":[-46.79011693,-23.60113023]},"properties":{"id":"sp_geosampa_educacao_ceu:equipamento_educacao_ceu.55349","source_id":"sp_geosampa_educacao_ceu","name":"CEU CEI UIRAPURU","category":"school","subcategory":"ceu","geometry_type":"Point","address":"NAZIR MIGUEL, 849, JARDIM PAULO VI, 05570-030","equipment_type":"CEU CEI","administrative_sphere":null,"included_in_metrics":true,"exclusion_reason":null,"override_reason":null}},{"type":"Feature","geometry":{"type":"Point","coordinates":[-46.79011693,-23.60113023]},"properties":{"id":"sp_geosampa_educacao_ceu:equipamento_educacao_ceu.55350","source_id":"sp_geosampa_educacao_ceu","name":"CEU EMEI UIRAPURU","category":"school","subcategory":"ceu","geometry_type":"Point","address":"NAZIR MIGUEL, 849, JARDIM PAULO VI, 05570-030","equipment_type":"CEU EMEI","administrative_sphere":null,"included_in_metrics":true,"exclusion_reason":null,"override_reason":null}},{"type":"Feature","geometry":{"type":"Point","coordinates":[-46.77148917,-23.67406472]},"properties":{"id":"sp_geosampa_educacao_ceu:equipamento_educacao_ceu.55351","source_id":"sp_geosampa_educacao_ceu","name":"CEU CEI ELON MACENA","category":"school","subcategory":"ceu","geometry_type":"Point","address":"DANIEL GRAN, S/N, JARDIM MODELO, 05867-380","equipment_type":"CEU CEI","administrative_sphere":null,"included_in_metrics":true,"exclusion_reason":null,"override_reason":null}},{"type":"Feature","geometry":{"type":"Point","coordinates":[-46.77081223,-23.67390767]},"properties":{"id":"sp_geosampa_educacao_ceu:equipamento_educacao_ceu.55352","source_id":"sp_geosampa_educacao_ceu","name":"CEU EMEI LOREANE LALLO PROFA","category":"school","subcategory":"ceu","geometry_type":"Point","address":"DANIEL GRAN, S/N, JARDIM MODELO, 05867-380","equipment_type":"CEU EMEI","administrative_sphere":null,"included_in_metrics":true,"exclusion_reason":null,"override_reason":null}},{"type":"Feature","geometry":{"type":"Point","coordinates":[-46.77141975,-23.67392188]},"properties":{"id":"sp_geosampa_educacao_ceu:equipamento_educacao_ceu.55353","source_id":"sp_geosampa_educacao_ceu","name":"CEU EMEF JOSE SARAMAGO","category":"school","subcategory":"ceu","geometry_type":"Point","address":"DANIEL GRAN, S/N, JARDIM MODELO, 05867-380","equipment_type":"CEU EMEF","administrative_sphere":null,"included_in_metrics":true,"exclusion_reason":null,"override_reason":null}},{"type":"Feature","geometry":{"type":"Point","coordinates":[-46.72734127,-23.62222141]},"properties":{"id":"sp_geosampa_educacao_ceu:equipamento_educacao_ceu.55396","source_id":"sp_geosampa_educacao_ceu","name":"CEU CEI PARAISOPOLIS","category":"school","subcategory":"ceu","geometry_type":"Point","address":"DOUTOR JOSE AUGUSTO DE SOUZA E SILVA, S/N, JARDIM PARQUE MORUMBI, 05712-040","equipment_type":"CEU CEI","administrative_sphere":null,"included_in_metrics":true,"exclusion_reason":null,"override_reason":null}},{"type":"Feature","geometry":{"type":"Point","coordinates":[-46.72728563,-23.62222643]},"properties":{"id":"sp_geosampa_educacao_ceu:equipamento_educacao_ceu.55397","source_id":"sp_geosampa_educacao_ceu","name":"CEU EMEI PARAISOPOLIS","category":"school","subcategory":"ceu","geometry_type":"Point","address":"DOUTOR JOSE AUGUSTO DE SOUZA E SILVA, S/N, JARDIM PARQUE MORUMBI, 05712-040","equipment_type":"CEU EMEI","administrative_sphere":null,"included_in_metrics":true,"exclusion_reason":null,"override_reason":null}},{"type":"Feature","geometry":{"type":"Point","coordinates":[-46.72724272,-23.62193154]},"properties":{"id":"sp_geosampa_educacao_ceu:equipamento_educacao_ceu.55398","source_id":"sp_geosampa_educacao_ceu","name":"CEU EMEF PARAISOPOLIS","category":"school","subcategory":"ceu","geometry_type":"Point","address":"DOUTOR JOSE AUGUSTO DE SOUZA E SILVA, S/N, JARDIM PARQUE MORUMBI, 05712-040","equipment_type":"CEU EMEF","administrative_sphere":null,"included_in_metrics":true,"exclusion_reason":null,"override_reason":null}},{"type":"Feature","geometry":{"type":"Point","coordinates":[-46.7262118,-23.82741699]},"properties":{"id":"sp_geosampa_educacao_ceu:equipamento_educacao_ceu.55418","source_id":"sp_geosampa_educacao_ceu","name":"CEU CEI PARELHEIROS","category":"school","subcategory":"ceu","geometry_type":"Point","address":"JOSE PEDRO DE BORBA, 20, JARDIM NOVO PARELHEIROS, 04890-090","equipment_type":"CEU CEI","administrative_sphere":null,"included_in_metrics":true,"exclusion_reason":null,"override_reason":null}},{"type":"Feature","geometry":{"type":"Point","coordinates":[-46.7262118,-23.82741699]},"properties":{"id":"sp_geosampa_educacao_ceu:equipamento_educacao_ceu.55419","source_id":"sp_geosampa_educacao_ceu","name":"CEU EMEI MAGDA FERREIRA DA SILVA CARVALHO PROFA","category":"school","subcategory":"ceu","geometry_type":"Point","address":"JOSE PEDRO DE BORBA, 20, JARDIM NOVO PARELHEIROS, 04890-090","equipment_type":"CEU EMEI","administrative_sphere":null,"included_in_metrics":true,"exclusion_reason":null,"override_reason":null}}]}
