{"type":"FeatureCollection","features":[{"type":"Feature","geometry":{"type":"Point","coordinates":[-46.4615401,-23.66826623]},"properties":{"id":"sp_geosampa_estacao_trem:estacao_trem.3001","source_id":"sp_geosampa_estacao_trem","name":"MAUÁ","category":"metro_train","subcategory":"train","geometry_type":"Point","address":null,"equipment_type":"TURQUESA","administrative_sphere":null,"included_in_metrics":true,"exclusion_reason":null,"override_reason":null}},{"type":"Feature","geometry":{"type":"Point","coordinates":[-46.1979789,-23.52177258]},"properties":{"id":"sp_geosampa_estacao_trem:estacao_trem.3002","source_id":"sp_geosampa_estacao_trem","name":"MOGI DAS CRUZES","category":"metro_train","subcategory":"train","geometry_type":"Point","address":null,"equipment_type":"CORAL","administrative_sphere":null,"included_in_metrics":true,"exclusion_reason":null,"override_reason":null}},{"type":"Feature","geometry":{"type":"Point","coordinates":[-46.75375301,-23.40477392]},"properties":{"id":"sp_geosampa_estacao_trem:estacao_trem.3003","source_id":"sp_geosampa_estacao_trem","name":"PERUS","category":"metro_train","subcategory":"train","geometry_type":"Point","address":null,"equipment_type":"RUBI","administrative_sphere":null,"included_in_metrics":true,"exclusion_reason":null,"override_reason":null}},{"type":"Feature","geometry":{"type":"Point","coordinates":[-46.71486632,-23.50289273]},"properties":{"id":"sp_geosampa_estacao_trem:estacao_trem.3004","source_id":"sp_geosampa_estacao_trem","name":"PIQUERI","category":"metro_train","subcategory":"train","geometry_type":"Point","address":null,"equipment_type":"RUBI","administrative_sphere":null,"included_in_metrics":true,"exclusion_reason":null,"override_reason":null}},{"type":"Feature","geometry":{"type":"Point","coordinates":[-46.72602904,-23.48852012]},"properties":{"id":"sp_geosampa_estacao_trem:estacao_trem.3005","source_id":"sp_geosampa_estacao_trem","name":"PIRITUBA","category":"metro_train","subcategory":"train","geometry_type":"Point","address":null,"equipment_type":"RUBI","administrative_sphere":null,"included_in_metrics":true,"exclusion_reason":null,"override_reason":null}},{"type":"Feature","geometry":{"type":"Point","coordinates":[-46.34363028,-23.52541476]},"properties":{"id":"sp_geosampa_estacao_trem:estacao_trem.3006","source_id":"sp_geosampa_estacao_trem","name":"POÁ","category":"metro_train","subcategory":"train","geometry_type":"Point","address":null,"equipment_type":"CORAL","administrative_sphere":null,"included_in_metrics":true,"exclusion_reason":null,"override_reason":null}},{"type":"Feature","geometry":{"type":"Point","coordinates":[-46.53693889,-23.63781218]},"properties":{"id":"sp_geosampa_estacao_trem:estacao_trem.3007","source_id":"sp_geosampa_estacao_trem","name":"PREFEITO SALADINO","category":"metro_train","subcategory":"train","geometry_type":"Point","address":null,"equipment_type":"TURQUESA","administrative_sphere":null,"included_in_metrics":true,"exclusion_reason":null,"override_reason":null}},{"type":"Feature","geometry":{"type":"Point","coordinates":[-46.41454143,-23.71382717]},"properties":{"id":"sp_geosampa_estacao_trem:estacao_trem.3008","source_id":"sp_geosampa_estacao_trem","name":"RIBEIRÃO PIRES","category":"metro_train","subcategory":"train","geometry_type":"Point","address":null,"equipment_type":"TURQUESA","administrative_sphere":null,"included_in_metrics":true,"exclusion_reason":null,"override_reason":null}},{"type":"Feature","geometry":{"type":"Point","coordinates":[-46.39159717,-23.7435042]},"properties":{"id":"sp_geosampa_estacao_trem:estacao_trem.3009","source_id":"sp_geosampa_estacao_trem","name":"RIO GRANDE DA SERRA","category":"metro_train","subcategory":"train","geometry_type":"Point","address":null,"equipment_type":"TURQUESA","administrative_sphere":null,"included_in_metrics":true,"exclusion_reason":null,"override_reason":null}},{"type":"Feature","geometry":{"type":"Point","coordinates":[-46.57005812,-23.60984477]},"properties":{"id":"sp_geosampa_estacao_trem:estacao_trem.3010","source_id":"sp_geosampa_estacao_trem","name":"SÃO CAETANO","category":"metro_train","subcategory":"train","geometry_type":"Point","address":null,"equipment_type":"TURQUESA","administrative_sphere":null,"included_in_metrics":true,"exclusion_reason":null,"override_reason":null}},{"type":"Feature","geometry":{"type":"Point","coordinates":[-46.44372315,-23.49053002]},"properties":{"id":"sp_geosampa_estacao_trem:estacao_trem.3011","source_id":"sp_geosampa_estacao_trem","name":"SÃO MIGUEL PAULISTA","category":"metro_train","subcategory":"train","geometry_type":"Point","address":null,"equipment_type":"SAFIRA","administrative_sphere":null,"included_in_metrics":true,"exclusion_reason":null,"override_reason":null}},{"type":"Feature","geometry":{"type":"Point","coordinates":[-46.30803402,-23.53397512]},"properties":{"id":"sp_geosampa_estacao_trem:estacao_trem.3012","source_id":"sp_geosampa_estacao_trem","name":"SUZANO","category":"metro_train","subcategory":"train","geometry_type":"Point","address":null,"equipment_type":"CORAL","administrative_sphere":null,"included_in_metrics":true,"exclusion_reason":null,"override_reason":null}},{"type":"Feature","geometry":{"type":"Point","coordinates":[-46.58941639,-23.59275369]},"properties":{"id":"sp_geosampa_estacao_trem:estacao_trem.3013","source_id":"sp_geosampa_estacao_trem","name":"TAMANDUATEÍ","category":"metro_train","subcategory":"train","geometry_type":"Point","address":null,"equipment_type":"TURQUESA","administrative_sphere":null,"included_in_metrics":true,"exclusion_reason":null,"override_reason":null}},{"type":"Feature","geometry":{"type":"Point","coordinates":[-46.54417235,-23.6262548]},"properties":{"id":"sp_geosampa_estacao_trem:estacao_trem.3014","source_id":"sp_geosampa_estacao_trem","name":"UTINGA","category":"metro_train","subcategory":"train","geometry_type":"Point","address":null,"equipment_type":"TURQUESA","administrative_sphere":null,"included_in_metrics":true,"exclusion_reason":null,"override_reason":null}},{"type":"Feature","geometry":{"type":"Point","coordinates":[-46.82909056,-23.20898749]},"properties":{"id":"sp_geosampa_estacao_trem:estacao_trem.3015","source_id":"sp_geosampa_estacao_trem","name":"VÁRZEA PAULISTA","category":"metro_train","subcategory":"train","geometry_type":"Point","address":null,"equipment_type":"RUBI","administrative_sphere":null,"included_in_metrics":true,"exclusion_reason":null,"override_reason":null}},{"type":"Feature","geometry":{"type":"Point","coordinates":[-46.74416396,-23.46990297]},"properties":{"id":"sp_geosampa_estacao_trem:estacao_trem.3016","source_id":"sp_geosampa_estacao_trem","name":"VILA CLARICE","category":"metro_train","subcategory":"train","geometry_type":"Point","address":null,"equipment_type":"RUBI","administrative_sphere":null,"included_in_metrics":true,"exclusion_reason":null,"override_reason":null}},{"type":"Feature","geometry":{"type":"Point","coordinates":[-46.74737093,-23.43745297]},"properties":{"id":"sp_geosampa_estacao_trem:estacao_trem.3017","source_id":"sp_geosampa_estacao_trem","name":"VILA AURORA","category":"metro_train","subcategory":"train","geometry_type":"Point","address":null,"equipment_type":"RUBI","administrative_sphere":null,"included_in_metrics":true,"exclusion_reason":null,"override_reason":null}},{"type":"Feature","geometry":{"type":"Point","coordinates":[-46.4936932,-23.44744138]},"properties":{"id":"sp_geosampa_estacao_trem:estacao_trem.3018","source_id":"sp_geosampa_estacao_trem","name":"GUARULHOS CECAP","category":"metro_train","subcategory":"train","geometry_type":"Point","address":null,"equipment_type":"JADE","administrative_sphere":null,"included_in_metrics":true,"exclusion_reason":null,"override_reason":null}},{"type":"Feature","geometry":{"type":"Point","coordinates":[-46.92857911,-23.53523328]},"properties":{"id":"sp_geosampa_estacao_trem:estacao_trem.3019","source_id":"sp_geosampa_estacao_trem","name":"ENGENHEIRO CARDOSO","category":"metro_train","subcategory":"train","geometry_type":"Point","address":null,"equipment_type":"DIAMANTE","administrative_sphere":null,"included_in_metrics":true,"exclusion_reason":null,"override_reason":null}},{"type":"Feature","geometry":{"type":"Point","coordinates":[-46.72384263,-23.64021304]},"properties":{"id":"sp_geosampa_estacao_trem:estacao_trem.3020","source_id":"sp_geosampa_estacao_trem","name":"JOÃO DIAS","category":"metro_train","subcategory":"train","geometry_type":"Point","address":null,"equipment_type":"ESMERALDA","administrative_sphere":null,"included_in_metrics":true,"exclusion_reason":null,"override_reason":null}},{"type":"Feature","geometry":{"type":"Point","coordinates":[-46.59665083,-23.58249454]},"properties":{"id":"sp_geosampa_estacao_trem:estacao_trem.3021","source_id":"sp_geosampa_estacao_trem","name":"IPIRANGA","category":"metro_train","subcategory":"train","geometry_type":"Point","address":null,"equipment_type":"TURQUESA","administrative_sphere":null,"included_in_metrics":true,"exclusion_reason":null,"override_reason":null}},{"type":"Feature","geometry":{"type":"Point","coordinates":[-46.40199703,-23.49385375]},"properties":{"id":"sp_geosampa_estacao_trem:estacao_trem.3022","source_id":"sp_geosampa_estacao_trem","name":"ITAIM PAULISTA","category":"metro_train","subcategory":"train","geometry_type":"Point","address":null,"equipment_type":"SAFIRA","administrative_sphere":null,"included_in_metrics":true,"exclusion_reason":null,"override_reason":null}},{"type":"Feature","geometry":{"type":"Point","coordinates":[-46.34788308,-23.48613614]},"properties":{"id":"sp_geosampa_estacao_trem:estacao_trem.3023","source_id":"sp_geosampa_estacao_trem","name":"ITAQUAQUECETUBA","category":"metro_train","subcategory":"train","geometry_type":"Point","address":null,"equipment_type":"SAFIRA","administrative_sphere":null,"included_in_metrics":true,"exclusion_reason":null,"override_reason":null}},{"type":"Feature","geometry":{"type":"Point","coordinates":[-46.49381303,-23.43305694]},"properties":{"id":"sp_geosampa_estacao_trem:estacao_trem.3024","source_id":"sp_geosampa_estacao_trem","name":"AEROPORTO GUARULHOS","category":"metro_train","subcategory":"train","geometry_type":"Point","address":null,"equipment_type":"JADE","administrative_sphere":null,"included_in_metrics":true,"exclusion_reason":null,"override_reason":null}},{"type":"Feature","geometry":{"type":"Point","coordinates":[-46.33238875,-23.52568267]},"properties":{"id":"sp_geosampa_estacao_trem:estacao_trem.3025","source_id":"sp_geosampa_estacao_trem","name":"CALMON VIANA","category":"metro_train","subcategory":"train","geometry_type":"Point","address":null,"equipment_type":"CORAL","administrative_sphere":null,"included_in_metrics":true,"exclusion_reason":null,"override_reason":null}},{"type":"Feature","geometry":{"type":"Point","coordinates":[-46.33238875,-23.52568267]},"properties":{"id":"sp_geosampa_estacao_trem:estacao_trem.3026","source_id":"sp_geosampa_estacao_trem","name":"CALMON VIANA","category":"metro_train","subcategory":"train","geometry_type":"Point","address":null,"equipment_type":"SAFIRA","administrative_sphere":null,"included_in_metrics":true,"exclusion_reason":null,"override_reason":null}},{"type":"Feature","geometry":{"type":"Point","coordinates":[-46.87228371,-23.19517472]},"properties":{"id":"sp_geosampa_estacao_trem:estacao_trem.3027","source_id":"sp_geosampa_estacao_trem","name":"JUNDIAÍ","category":"metro_train","subcategory":"train","geometry_type":"Point","address":null,"equipment_type":"RUBI","administrative_sphere":null,"included_in_metrics":true,"exclusion_reason":null,"override_reason":null}},{"type":"Feature","geometry":{"type":"Point","coordinates":[-46.52829456,-23.65207999]},"properties":{"id":"sp_geosampa_estacao_trem:estacao_trem.3028","source_id":"sp_geosampa_estacao_trem","name":"PREFEITO CELSO DANIEL - SANTO ANDRÉ","category":"metro_train","subcategory":"train","geometry_type":"Point","address":null,"equipment_type":"TURQUESA","administrative_sphere":null,"included_in_metrics":true,"exclusion_reason":null,"override_reason":null}},{"type":"Feature","geometry":{"type":"Point","coordinates":[-46.47114374,-23.54206029]},"properties":{"id":"sp_geosampa_estacao_trem:estacao_trem.3029","source_id":"sp_geosampa_estacao_trem","name":"CORINTHIANS - ITAQUERA","category":"metro_train","subcategory":"train","geometry_type":"Point","address":null,"equipment_type":"CORAL","administrative_sphere":null,"included_in_metrics":true,"exclusion_reason":null,"override_reason":null}},{"type":"Feature","geometry":{"type":"Point","coordinates":[-46.44812918,-23.54179825]},"properties":{"id":"sp_geosampa_estacao_trem:estacao_trem.3030","source_id":"sp_geosampa_estacao_trem","name":"DOM BOSCO","category":"metro_train","subcategory":"train","geometry_type":"Point","address":null,"equipment_type":"CORAL","administrative_sphere":null,"included_in_metrics":true,"exclusion_reason":null,"override_reason":null}},{"type":"Feature","geometry":{"type":"Point","coordinates":[-46.43150677,-23.53906059]},"properties":{"id":"sp_geosampa_estacao_trem:estacao_trem.3031","source_id":"sp_geosampa_estacao_trem","name":"JOSÉ BONIFÁCIO","category":"metro_train","subcategory":"train","geometry_type":"Point","address":null,"equipment_type":"CORAL","administrative_sphere":null,"included_in_metrics":true,"exclusion_reason":null,"override_reason":null}},{"type":"Feature","geometry":{"type":"Point","coordinates":[-46.42093234,-23.49270416]},"properties":{"id":"sp_geosampa_estacao_trem:estacao_trem.3032","source_id":"sp_geosampa_estacao_trem","name":"JARDIM HELENA - VILA MARA","category":"metro_train","subcategory":"train","geometry_type":"Point","address":null,"equipment_type":"SAFIRA","administrative_sphere":null,"included_in_metrics":true,"exclusion_reason":null,"override_reason":null}},{"type":"Feature","geometry":{"type":"Point","coordinates":[-46.38539132,-23.48482253]},"properties":{"id":"sp_geosampa_estacao_trem:estacao_trem.3033","source_id":"sp_geosampa_estacao_trem","name":"JARDIM ROMANO","category":"metro_train","subcategory":"train","geometry_type":"Point","address":null,"equipment_type":"SAFIRA","administrative_sphere":null,"included_in_metrics":true,"exclusion_reason":null,"override_reason":null}},{"type":"Feature","geometry":{"type":"Point","coordinates":[-46.68904493,-23.52143537]},"properties":{"id":"sp_geosampa_estacao_trem:estacao_trem.3034","source_id":"sp_geosampa_estacao_trem","name":"ÁGUA BRANCA","category":"metro_train","subcategory":"train","geometry_type":"Point","address":null,"equipment_type":"RUBI","administrative_sphere":null,"included_in_metrics":true,"exclusion_reason":null,"override_reason":null}},{"type":"Feature","geometry":{"type":"Point","coordinates":[-46.38367,-23.55434942]},"properties":{"id":"sp_geosampa_estacao_trem:estacao_trem.3035","source_id":"sp_geosampa_estacao_trem","name":"ANTONIO GIANETTI NETO","category":"metro_train","subcategory":"train","geometry_type":"Point","address":null,"equipment_type":"CORAL","administrative_sphere":null,"included_in_metrics":true,"exclusion_reason":null,"override_reason":null}},{"type":"Feature","geometry":{"type":"Point","coordinates":[-46.33908484,-23.49973943]},"properties":{"id":"sp_geosampa_estacao_trem:estacao_trem.3036","source_id":"sp_geosampa_estacao_trem","name":"ARACARÉ","category":"metro_train","subcategory":"train","geometry_type":"Point","address":null,"equipment_type":"SAFIRA","administrative_sphere":null,"included_in_metrics":true,"exclusion_reason":null,"override_reason":null}},{"type":"Feature","geometry":{"type":"Point","coordinates":[-46.7236195,-23.30989164]},"properties":{"id":"sp_geosampa_estacao_trem:estacao_trem.3037","source_id":"sp_geosampa_estacao_trem","name":"BALTAZAR FIDELIS","category":"metro_train","subcategory":"train","geometry_type":"Point","address":null,"equipment_type":"RUBI","administrative_sphere":null,"included_in_metrics":true,"exclusion_reason":null,"override_reason":null}},{"type":"Feature","geometry":{"type":"Point","coordinates":[-46.76773481,-23.23582646]},"properties":{"id":"sp_geosampa_estacao_trem:estacao_trem.3038","source_id":"sp_geosampa_estacao_trem","name":"BOTUJURU","category":"metro_train","subcategory":"train","geometry_type":"Point","address":null,"equipment_type":"RUBI","administrative_sphere":null,"included_in_metrics":true,"exclusion_reason":null,"override_reason":null}},{"type":"Feature","geometry":{"type":"Point","coordinates":[-46.2255304,-23.53630064]},"properties":{"id":"sp_geosampa_estacao_trem:estacao_trem.3039","source_id":"sp_geosampa_estacao_trem","name":"BRÁS CUBAS","category":"metro_train","subcategory":"train","geometry_type":"Point","address":null,"equipment_type":"CORAL","administrative_sphere":null,"included_in_metrics":true,"exclusion_reason":null,"override_reason":null}},{"type":"Feature","geometry":{"type":"Point","coordinates":[-46.75163561,-23.36627628]},"properties":{"id":"sp_geosampa_estacao_trem:estacao_trem.3040","source_id":"sp_geosampa_estacao_trem","name":"CAIEIRAS","category":"metro_train","subcategory":"train","geometry_type":"Point","address":null,"equipment_type":"RUBI","administrative_sphere":null,"included_in_metrics":true,"exclusion_reason":null,"override_reason":null}},{"type":"Feature","geometry":{"type":"Point","coordinates":[-46.77588391,-23.52774745]},"properties":{"id":"sp_geosampa_estacao_trem:estacao_trem.3041","source_id":"sp_geosampa_estacao_trem","name":"OSASCO","category":"metro_train","subcategory":"train","geometry_type":"Point","address":null,"equipment_type":"DIAMANTE","administrative_sphere":null,"included_in_metrics":true,"exclusion_reason":null,"override_reason":null}},{"type":"Feature","geometry":{"type":"Point","coordinates":[-46.77588391,-23.52774745]},"properties":{"id":"sp_geosampa_estacao_trem:estacao_trem.3042","source_id":"sp_geosampa_estacao_trem","name":"OSASCO","category":"metro_train","subcategory":"train","geometry_type":"Point","address":null,"equipment_type":"ESMERALDA","administrative_sphere":null,"included_in_metrics":true,"exclusion_reason":null,"override_reason":null}},{"type":"Feature","geometry":{"type":"Point","coordinates":[-46.7852914,-23.20668881]},"properties":{"id":"sp_geosampa_estacao_trem:estacao_trem.3043","source_id":"sp_geosampa_estacao_trem","name":"CAMPO LIMPO PAULISTA","category":"metro_train","subcategory":"train","geometry_type":"Point","address":null,"equipment_type":"RUBI","administrative_sphere":null,"included_in_metrics":true,"exclusion_reason":null,"override_reason":null}},{"type":"Feature","geometry":{"type":"Point","coordinates":[-46.49010919,-23.6583494]},"properties":{"id":"sp_geosampa_estacao_trem:estacao_trem.3044","source_id":"sp_geosampa_estacao_trem","name":"CAPUAVA","category":"metro_train","subcategory":"train","geometry_type":"Point","address":null,"equipment_type":"TURQUESA","administrative_sphere":null,"included_in_metrics":true,"exclusion_reason":null,"override_reason":null}},{"type":"Feature","geometry":{"type":"Point","coordinates":[-46.36838043,-23.47936573]},"properties":{"id":"sp_geosampa_estacao_trem:estacao_trem.3045","source_id":"sp_geosampa_estacao_trem","name":"ENGENHEIRO MANOEL FEIO","category":"metro_train","subcategory":"train","geometry_type":"Point","address":null,"equipment_type":"SAFIRA","administrative_sphere":null,"included_in_metrics":true,"exclusion_reason":null,"override_reason":null}},{"type":"Feature","geometry":{"type":"Point","coordinates":[-46.18486317,-23.51565434]},"properties":{"id":"sp_geosampa_estacao_trem:estacao_trem.3046","source_id":"sp_geosampa_estacao_trem","name":"ESTUDANTES","category":"metro_train","subcategory":"train","geometry_type":"Point","address":null,"equipment_type":"CORAL","administrative_sphere":null,"included_in_metrics":true,"exclusion_reason":null,"override_reason":null}},{"type":"Feature","geometry":{"type":"Point","coordinates":[-46.36826942,-23.54075053]},"properties":{"id":"sp_geosampa_estacao_trem:estacao_trem.3047","source_id":"sp_geosampa_estacao_trem","name":"FERRAZ DE VASCONCELOS","category":"metro_train","subcategory":"train","geometry_type":"Point","address":null,"equipment_type":"CORAL","administrative_sphere":null,"included_in_metrics":true,"exclusion_reason":null,"override_reason":null}},{"type":"Feature","geometry":{"type":"Point","coordinates":[-46.74254436,-23.28168485]},"properties":{"id":"sp_geosampa_estacao_trem:estacao_trem.3048","source_id":"sp_geosampa_estacao_trem","name":"FRANCISCO MORATO","category":"metro_train","subcategory":"train","geometry_type":"Point","address":null,"equipment_type":"RUBI","administrative_sphere":null,"included_in_metrics":true,"exclusion_reason":null,"override_reason":null}},{"type":"Feature","geometry":{"type":"Point","coordinates":[-46.72629396,-23.32963717]},"properties":{"id":"sp_geosampa_estacao_trem:estacao_trem.3049","source_id":"sp_geosampa_estacao_trem","name":"FRANCO DA ROCHA","category":"metro_train","subcategory":"train","geometry_type":"Point","address":null,"equipment_type":"RUBI","administrative_sphere":null,"included_in_metrics":true,"exclusion_reason":null,"override_reason":null}},{"type":"Feature","geometry":{"type":"Point","coordinates":[-46.44884866,-23.69203107]},"properties":{"id":"sp_geosampa_estacao_trem:estacao_trem.3050","source_id":"sp_geosampa_estacao_trem","name":"GUAPITUBA","category":"metro_train","subcategory":"train","geometry_type":"Point","address":null,"equipment_type":"TURQUESA","administrative_sphere":null,"included_in_metrics":true,"exclusion_reason":null,"override_reason":null}},{"type":"Feature","geometry":{"type":"Point","coordinates":[-46.73759245,-23.52375404]},"properties":{"id":"sp_geosampa_estacao_trem:estacao_trem.3051","source_id":"sp_geosampa_estacao_trem","name":"IMPERATRIZ LEOPOLDINA","category":"metro_train","subcategory":"train","geometry_type":"Point","address":null,"equipment_type":"DIAMANTE","administrative_sphere":null,"included_in_metrics":true,"exclusion_reason":null,"override_reason":null}},{"type":"Feature","geometry":{"type":"Point","coordinates":[-46.90237949,-23.5277065]},"properties":{"id":"sp_geosampa_estacao_trem:estacao_trem.3052","source_id":"sp_geosampa_estacao_trem","name":"JANDIRA","category":"metro_train","subcategory":"train","geometry_type":"Point","address":null,"equipment_type":"DIAMANTE","administrative_sphere":null,"included_in_metrics":true,"exclusion_reason":null,"override_reason":null}},{"type":"Feature","geometry":{"type":"Point","coordinates":[-46.88928088,-23.51399261]},"properties":{"id":"sp_geosampa_estacao_trem:estacao_trem.3053","source_id":"sp_geosampa_estacao_trem","name":"JARDIM BELVAL","category":"metro_train","subcategory":"train","geometry_type":"Point","address":null,"equipment_type":"DIAMANTE","administrative_sphere":null,"included_in_metrics":true,"exclusion_reason":null,"override_reason":null}},{"type":"Feature","geometry":{"type":"Point","coordinates":[-46.89359674,-23.52384923]},"properties":{"id":"sp_geosampa_estacao_trem:estacao_trem.3054","source_id":"sp_geosampa_estacao_trem","name":"JARDIM SILVEIRA","category":"metro_train","subcategory":"train","geometry_type":"Point","address":null,"equipment_type":"DIAMANTE","administrative_sphere":null,"included_in_metrics":true,"exclusion_reason":null,"override_reason":null}},{"type":"Feature","geometry":{"type":"Point","coordinates":[-46.64098402,-23.53259702]},"properties":{"id":"sp_geosampa_estacao_trem:estacao_trem.3055","source_id":"sp_geosampa_estacao_trem","name":"JÚLIO PRESTES","category":"metro_train","subcategory":"train","geometry_type":"Point","address":null,"equipment_type":"DIAMANTE","administrative_sphere":null,"included_in_metrics":true,"exclusion_reason":null,"override_reason":null}},{"type":"Feature","geometry":{"type":"Point","coordinates":[-46.69900484,-23.52016377]},"properties":{"id":"sp_geosampa_estacao_trem:estacao_trem.3056","source_id":"sp_geosampa_estacao_trem","name":"LAPA (LINHA 8)","category":"metro_train","subcategory":"train","geometry_type":"Point","address":null,"equipment_type":"DIAMANTE","administrative_sphere":null,"included_in_metrics":true,"exclusion_reason":null,"override_reason":null}},{"type":"Feature","geometry":{"type":"Point","coordinates":[-46.71918384,-23.6562083]},"properties":{"id":"sp_geosampa_estacao_trem:estacao_trem.3057","source_id":"sp_geosampa_estacao_trem","name":"SANTO AMARO (LINHA 9)","category":"metro_train","subcategory":"train","geometry_type":"Point","address":null,"equipment_type":"ESMERALDA","administrative_sphere":null,"included_in_metrics":true,"exclusion_reason":null,"override_reason":null}},{"type":"Feature","geometry":{"type":"Point","coordinates":[-46.80676555,-23.52282274]},"properties":{"id":"sp_geosampa_estacao_trem:estacao_trem.3058","source_id":"sp_geosampa_estacao_trem","name":"QUITAÚNA","category":"metro_train","subcategory":"train","geometry_type":"Point","address":null,"equipment_type":"DIAMANTE","administrative_sphere":null,"included_in_metrics":true,"exclusion_reason":null,"override_reason":null}},{"type":"Feature","geometry":{"type":"Point","coordinates":[-46.91713104,-23.52914341]},"properties":{"id":"sp_geosampa_estacao_trem:estacao_trem.3059","source_id":"sp_geosampa_estacao_trem","name":"SAGRADO CORAÇÃO","category":"metro_train","subcategory":"train","geometry_type":"Point","address":null,"equipment_type":"DIAMANTE","administrative_sphere":null,"included_in_metrics":true,"exclusion_reason":null,"override_reason":null}},{"type":"Feature","geometry":{"type":"Point","coordinates":[-46.8479496,-23.51657855]},"properties":{"id":"sp_geosampa_estacao_trem:estacao_trem.3060","source_id":"sp_geosampa_estacao_trem","name":"SANTA TEREZINHA","category":"metro_train","subcategory":"train","geometry_type":"Point","address":null,"equipment_type":"DIAMANTE","administrative_sphere":null,"included_in_metrics":true,"exclusion_reason":null,"override_reason":null}},{"type":"Feature","geometry":{"type":"Point","coordinates":[-46.73281686,-23.54602003]},"properties":{"id":"sp_geosampa_estacao_trem:estacao_trem.3061","source_id":"sp_geosampa_estacao_trem","name":"VILLA-LOBOS - JAGUARÉ","category":"metro_train","subcategory":"train","geometry_type":"Point","address":null,"equipment_type":"ESMERALDA","administrative_sphere":null,"included_in_metrics":true,"exclusion_reason":null,"override_reason":null}},{"type":"Feature","geometry":{"type":"Point","coordinates":[-46.93568932,-23.54613587]},"properties":{"id":"sp_geosampa_estacao_trem:estacao_trem.3062","source_id":"sp_geosampa_estacao_trem","name":"ITAPEVI","category":"metro_train","subcategory":"train","geometry_type":"Point","address":null,"equipment_type":"DIAMANTE","administrative_sphere":null,"included_in_metrics":true,"exclusion_reason":null,"override_reason":null}},{"type":"Feature","geometry":{"type":"Point","coordinates":[-46.70212791,-23.67743624]},"properties":{"id":"sp_geosampa_estacao_trem:estacao_trem.3063","source_id":"sp_geosampa_estacao_trem","name":"JURUBATUBA","category":"metro_train","subcategory":"train","geometry_type":"Point","address":null,"equipment_type":"ESMERALDA","administrative_sphere":null,"included_in_metrics":true,"exclusion_reason":null,"override_reason":null}},{"type":"Feature","geometry":{"type":"Point","coordinates":[-46.69697598,-23.60527752]},"properties":{"id":"sp_geosampa_estacao_trem:estacao_trem.3064","source_id":"sp_geosampa_estacao_trem","name":"BERRINI","category":"metro_train","subcategory":"train","geometry_type":"Point","address":null,"equipment_type":"ESMERALDA","administrative_sphere":null,"included_in_metrics":true,"exclusion_reason":null,"override_reason":null}},{"type":"Feature","geometry":{"type":"Point","coordinates":[-46.68844701,-23.70655696]},"properties":{"id":"sp_geosampa_estacao_trem:estacao_trem.3065","source_id":"sp_geosampa_estacao_trem","name":"AUTÓDROMO","category":"metro_train","subcategory":"train","geometry_type":"Point","address":null,"equipment_type":"ESMERALDA","administrative_sphere":null,"included_in_metrics":true,"exclusion_reason":null,"override_reason":null}},{"type":"Feature","geometry":{"type":"Point","coordinates":[-46.70304439,-23.56646758]},"properties":{"id":"sp_geosampa_estacao_trem:estacao_trem.3066","source_id":"sp_geosampa_estacao_trem","name":"PINHEIROS","category":"metro_train","subcategory":"train","geometry_type":"Point","address":null,"equipment_type":"ESMERALDA","administrative_sphere":null,"included_in_metrics":true,"exclusion_reason":null,"override_reason":null}},{"type":"Feature","geometry":{"type":"Point","coordinates":[-46.81569543,-23.52342317]},"properties":{"id":"sp_geosampa_estacao_trem:estacao_trem.3067","source_id":"sp_geosampa_estacao_trem","name":"GENERAL MIGUEL COSTA","category":"metro_train","subcategory":"train","geometry_type":"Point","address":null,"equipment_type":"DIAMANTE","administrative_sphere":null,"included_in_metrics":true,"exclusion_reason":null,"override_reason":null}},{"type":"Feature","geometry":{"type":"Point","coordinates":[-46.69175883,-23.72271225]},"properties":{"id":"sp_geosampa_estacao_trem:estacao_trem.3068","source_id":"sp_geosampa_estacao_trem","name":"PRIMAVERA - INTERLAGOS","category":"metro_train","subcategory":"train","geometry_type":"Point","address":null,"equipment_type":"ESMERALDA","administrative_sphere":null,"included_in_metrics":true,"exclusion_reason":null,"override_reason":null}},{"type":"Feature","geometry":{"type":"Point","coordinates":[-46.69701514,-23.73644873]},"properties":{"id":"sp_geosampa_estacao_trem:estacao_trem.3069","source_id":"sp_geosampa_estacao_trem","name":"GRAJAÚ","category":"metro_train","subcategory":"train","geometry_type":"Point","address":null,"equipment_type":"ESMERALDA","administrative_sphere":null,"included_in_metrics":true,"exclusion_reason":null,"override_reason":null}},{"type":"Feature","geometry":{"type":"Point","coordinates":[-46.69879245,-23.57361179]},"properties":{"id":"sp_geosampa_estacao_trem:estacao_trem.3070","source_id":"sp_geosampa_estacao_trem","name":"HEBRAICA - REBOUÇAS","category":"metro_train","subcategory":"train","geometry_type":"Point","address":null,"equipment_type":"ESMERALDA","administrative_sphere":null,"included_in_metrics":true,"exclusion_reason":null,"override_reason":null}},{"type":"Feature","geometry":{"type":"Point","coordinates":[-46.69116272,-23.5855236]},"properties":{"id":"sp_geosampa_estacao_trem:estacao_trem.3071","source_id":"sp_geosampa_estacao_trem","name":"CIDADE JARDIM","category":"metro_train","subcategory":"train","geometry_type":"Point","address":null,"equipment_type":"ESMERALDA","administrative_sphere":null,"included_in_metrics":true,"exclusion_reason":null,"override_reason":null}},{"type":"Feature","geometry":{"type":"Point","coordinates":[-46.69285463,-23.59345389]},"properties":{"id":"sp_geosampa_estacao_trem:estacao_trem.3072","source_id":"sp_geosampa_estacao_trem","name":"VILA OLÍMPIA","category":"metro_train","subcategory":"train","geometry_type":"Point","address":null,"equipment_type":"ESMERALDA","administrative_sphere":null,"included_in_metrics":true,"exclusion_reason":null,"override_reason":null}},{"type":"Feature","geometry":{"type":"Point","coordinates":[-46.70182209,-23.62184508]},"properties":{"id":"sp_geosampa_estacao_trem:estacao_trem.3073","source_id":"sp_geosampa_estacao_trem","name":"MORUMBI","category":"metro_train","subcategory":"train","geometry_type":"Point","address":null,"equipment_type":"ESMERALDA","administrative_sphere":null,"included_in_metrics":true,"exclusion_reason":null,"override_reason":null}},{"type":"Feature","geometry":{"type":"Point","coordinates":[-46.71228827,-23.62791607]},"properties":{"id":"sp_geosampa_estacao_trem:estacao_trem.3074","source_id":"sp_geosampa_estacao_trem","name":"GRANJA JULIETA","category":"metro_train","subcategory":"train","geometry_type":"Point","address":null,"equipment_type":"ESMERALDA","administrative_sphere":null,"included_in_metrics":true,"exclusion_reason":null,"override_reason":null}},{"type":"Feature","geometry":{"type":"Point","coordinates":[-46.71090866,-23.66347262]},"properties":{"id":"sp_geosampa_estacao_trem:estacao_trem.3075","source_id":"sp_geosampa_estacao_trem","name":"SOCORRO","category":"metro_train","subcategory":"train","geometry_type":"Point","address":null,"equipment_type":"ESMERALDA","administrative_sphere":null,"included_in_metrics":true,"exclusion_reason":null,"override_reason":null}},{"type":"Feature","geometry":{"type":"Point","coordinates":[-46.85890198,-23.51683124]},"properties":{"id":"sp_geosampa_estacao_trem:estacao_trem.3076","source_id":"sp_geosampa_estacao_trem","name":"ANTÔNIO JOÃO","category":"metro_train","subcategory":"train","geometry_type":"Point","address":null,"equipment_type":"DIAMANTE","administrative_sphere":null,"included_in_metrics":true,"exclusion_reason":null,"override_reason":null}},{"type":"Feature","geometry":{"type":"Point","coordinates":[-46.87517168,-23.512558]},"properties":{"id":"sp_geosampa_estacao_trem:estacao_trem.3077","source_id":"sp_geosampa_estacao_trem","name":"BARUERI","category":"metro_train","subcategory":"train","geometry_type":"Point","address":null,"equipment_type":"DIAMANTE","administrative_sphere":null,"included_in_metrics":true,"exclusion_reason":null,"override_reason":null}},{"type":"Feature","geometry":{"type":"Point","coordinates":[-46.83541742,-23.51853649]},"properties":{"id":"sp_geosampa_estacao_trem:estacao_trem.3078","source_id":"sp_geosampa_estacao_trem","name":"CARAPICUÍBA","category":"metro_train","subcategory":"train","geometry_type":"Point","address":null,"equipment_type":"DIAMANTE","administrative_sphere":null,"included_in_metrics":true,"exclusion_reason":null,"override_reason":null}},{"type":"Feature","geometry":{"type":"Point","coordinates":[-46.74261075,-23.53741915]},"properties":{"id":"sp_geosampa_estacao_trem:estacao_trem.3079","source_id":"sp_geosampa_estacao_trem","name":"CEASA","category":"metro_train","subcategory":"train","geometry_type":"Point","address":null,"equipment_type":"ESMERALDA","administrative_sphere":null,"included_in_metrics":true,"exclusion_reason":null,"override_reason":null}},{"type":"Feature","geometry":{"type":"Point","coordinates":[-46.71177722,-23.55764263]},"properties":{"id":"sp_geosampa_estacao_trem:estacao_trem.3080","source_id":"sp_geosampa_estacao_trem","name":"CIDADE UNIVERSITÁRIA","category":"metro_train","subcategory":"train","geometry_type":"Point","address":null,"equipment_type":"ESMERALDA","administrative_sphere":null,"included_in_metrics":true,"exclusion_reason":null,"override_reason":null}},{"type":"Feature","geometry":{"type":"Point","coordinates":[-46.79586924,-23.52570546]},"properties":{"id":"sp_geosampa_estacao_trem:estacao_trem.3081","source_id":"sp_geosampa_estacao_trem","name":"COMANDANTE SAMPAIO","category":"metro_train","subcategory":"train","geometry_type":"Point","address":null,"equipment_type":"DIAMANTE","administrative_sphere":null,"included_in_metrics":true,"exclusion_reason":null,"override_reason":null}},{"type":"Feature","geometry":{"type":"Point","coordinates":[-46.72148463,-23.51892954]},"properties":{"id":"sp_geosampa_estacao_trem:estacao_trem.3082","source_id":"sp_geosampa_estacao_trem","name":"DOMINGOS DE MORAIS","category":"metro_train","subcategory":"train","geometry_type":"Point","address":null,"equipment_type":"DIAMANTE","administrative_sphere":null,"included_in_metrics":true,"exclusion_reason":null,"override_reason":null}},{"type":"Feature","geometry":{"type":"Point","coordinates":[-46.25813048,-23.54279887]},"properties":{"id":"sp_geosampa_estacao_trem:estacao_trem.3083","source_id":"sp_geosampa_estacao_trem","name":"JUNDIAPEBA","category":"metro_train","subcategory":"train","geometry_type":"Point","address":null,"equipment_type":"CORAL","administrative_sphere":null,"included_in_metrics":true,"exclusion_reason":null,"override_reason":null}},{"type":"Feature","geometry":{"type":"Point","coordinates":[-46.70365872,-23.51773416]},"properties":{"id":"sp_geosampa_estacao_trem:estacao_trem.3084","source_id":"sp_geosampa_estacao_trem","name":"LAPA (LINHA 7)","category":"metro_train","subcategory":"train","geometry_type":"Point","address":null,"equipment_type":"RUBI","administrative_sphere":null,"included_in_metrics":true,"exclusion_reason":null,"override_reason":null}},{"type":"Feature","geometry":{"type":"Point","coordinates":[-46.94751672,-23.54497465]},"properties":{"id":"sp_geosampa_estacao_trem:estacao_trem.3085","source_id":"sp_geosampa_estacao_trem","name":"SANTA RITA","category":"metro_train","subcategory":"train","geometry_type":"Point","address":null,"equipment_type":"DIAMANTE","administrative_sphere":null,"included_in_metrics":true,"exclusion_reason":null,"override_reason":null}},{"type":"Feature","geometry":{"type":"Point","coordinates":[-46.73841665,-23.45544968]},"properties":{"id":"sp_geosampa_estacao_trem:estacao_trem.3086","source_id":"sp_geosampa_estacao_trem","name":"JARAGUÁ","category":"metro_train","subcategory":"train","geometry_type":"Point","address":null,"equipment_type":"RUBI","administrative_sphere":null,"included_in_metrics":true,"exclusion_reason":null,"override_reason":null}},{"type":"Feature","geometry":{"type":"Point","coordinates":[-46.63511522,-23.53496082]},"properties":{"id":"sp_geosampa_estacao_trem:estacao_trem.3087","source_id":"sp_geosampa_estacao_trem","name":"LUZ","category":"metro_train","subcategory":"train","geometry_type":"Point","address":null,"equipment_type":"TURQUESA","administrative_sphere":null,"included_in_metrics":true,"exclusion_reason":null,"override_reason":null}},{"type":"Feature","geometry":{"type":"Point","coordinates":[-46.63511522,-23.53496082]},"properties":{"id":"sp_geosampa_estacao_trem:estacao_trem.3088","source_id":"sp_geosampa_estacao_trem","name":"LUZ","category":"metro_train","subcategory":"train","geometry_type":"Point","address":null,"equipment_type":"CORAL","administrative_sphere":null,"included_in_metrics":true,"exclusion_reason":null,"override_reason":null}},{"type":"Feature","geometry":{"type":"Point","coordinates":[-46.60835232,-23.55806639]},"properties":{"id":"sp_geosampa_estacao_trem:estacao_trem.3089","source_id":"sp_geosampa_estacao_trem","name":"MOOCA","category":"metro_train","subcategory":"train","geometry_type":"Point","address":null,"equipment_type":"TURQUESA","administrative_sphere":null,"included_in_metrics":true,"exclusion_reason":null,"override_reason":null}},{"type":"Feature","geometry":{"type":"Point","coordinates":[-46.76177312,-23.5312244]},"properties":{"id":"sp_geosampa_estacao_trem:estacao_trem.3090","source_id":"sp_geosampa_estacao_trem","name":"PRESIDENTE ALTINO","category":"metro_train","subcategory":"train","geometry_type":"Point","address":null,"equipment_type":"DIAMANTE","administrative_sphere":null,"included_in_metrics":true,"exclusion_reason":null,"override_reason":null}},{"type":"Feature","geometry":{"type":"Point","coordinates":[-46.76177312,-23.5312244]},"properties":{"id":"sp_geosampa_estacao_trem:estacao_trem.3091","source_id":"sp_geosampa_estacao_trem","name":"PRESIDENTE ALTINO","category":"metro_train","subcategory":"train","geometry_type":"Point","address":null,"equipment_type":"ESMERALDA","administrative_sphere":null,"included_in_metrics":true,"exclusion_reason":null,"override_reason":null}},{"type":"Feature","geometry":{"type":"Point","coordinates":[-46.61687708,-23.54402144]},"properties":{"id":"sp_geosampa_estacao_trem:estacao_trem.3092","source_id":"sp_geosampa_estacao_trem","name":"BRÁS","category":"metro_train","subcategory":"train","geometry_type":"Point","address":null,"equipment_type":"TURQUESA","administrative_sphere":null,"included_in_metrics":true,"exclusion_reason":null,"override_reason":null}},{"type":"Feature","geometry":{"type":"Point","coordinates":[-46.61687708,-23.54402144]},"properties":{"id":"sp_geosampa_estacao_trem:estacao_trem.3093","source_id":"sp_geosampa_estacao_trem","name":"BRÁS","category":"metro_train","subcategory":"train","geometry_type":"Point","address":null,"equipment_type":"CORAL","administrative_sphere":null,"included_in_metrics":true,"exclusion_reason":null,"override_reason":null}},{"type":"Feature","geometry":{"type":"Point","coordinates":[-46.61687708,-23.54402144]},"properties":{"id":"sp_geosampa_estacao_trem:estacao_trem.3094","source_id":"sp_geosampa_estacao_trem","name":"BRÁS","category":"metro_train","subcategory":"train","geometry_type":"Point","address":null,"equipment_type":"SAFIRA","administrative_sphere":null,"included_in_metrics":true,"exclusion_reason":null,"override_reason":null}},{"type":"Feature","geometry":{"type":"Point","coordinates":[-46.57645699,-23.5402277]},"properties":{"id":"sp_geosampa_estacao_trem:estacao_trem.3095","source_id":"sp_geosampa_estacao_trem","name":"TATUAPÉ","category":"metro_train","subcategory":"train","geometry_type":"Point","address":null,"equipment_type":"CORAL","administrative_sphere":null,"included_in_metrics":true,"exclusion_reason":null,"override_reason":null}},{"type":"Feature","geometry":{"type":"Point","coordinates":[-46.57645699,-23.5402277]},"properties":{"id":"sp_geosampa_estacao_trem:estacao_trem.3096","source_id":"sp_geosampa_estacao_trem","name":"TATUAPÉ","category":"metro_train","subcategory":"train","geometry_type":"Point","address":null,"equipment_type":"SAFIRA","administrative_sphere":null,"included_in_metrics":true,"exclusion_reason":null,"override_reason":null}},{"type":"Feature","geometry":{"type":"Point","coordinates":[-46.9837556,-23.53050823]},"properties":{"id":"sp_geosampa_estacao_trem:estacao_trem.3097","source_id":"sp_geosampa_estacao_trem","name":"AMADOR BUENO","category":"metro_train","subcategory":"train","geometry_type":"Point","address":null,"equipment_type":"DIAMANTE","administrative_sphere":null,"included_in_metrics":true,"exclusion_reason":null,"override_reason":null}},{"type":"Feature","geometry":{"type":"Point","coordinates":[-46.41561175,-23.54231842]},"properties":{"id":"sp_geosampa_estacao_trem:estacao_trem.3098","source_id":"sp_geosampa_estacao_trem","name":"GUAIANASES","category":"metro_train","subcategory":"train","geometry_type":"Point","address":null,"equipment_type":"CORAL","administrative_sphere":null,"included_in_metrics":true,"exclusion_reason":null,"override_reason":null}},{"type":"Feature","geometry":{"type":"Point","coordinates":[-46.50071067,-23.48547967]},"properties":{"id":"sp_geosampa_estacao_trem:estacao_trem.3099","source_id":"sp_geosampa_estacao_trem","name":"USP LESTE","category":"metro_train","subcategory":"train","geometry_type":"Point","address":null,"equipment_type":"SAFIRA","administrative_sphere":null,"included_in_metrics":true,"exclusion_reason":null,"override_reason":null}},{"type":"Feature","geometry":{"type":"Point","coordinates":[-46.66751601,-23.5255841]},"properties":{"id":"sp_geosampa_estacao_trem:estacao_trem.3100","source_id":"sp_geosampa_estacao_trem","name":"PALMEIRAS - BARRA FUNDA","category":"metro_train","subcategory":"train","geometry_type":"Point","address":null,"equipment_type":"RUBI","administrative_sphere":null,"included_in_metrics":true,"exclusion_reason":null,"override_reason":null}},{"type":"Feature","geometry":{"type":"Point","coordinates":[-46.66751601,-23.5255841]},"properties":{"id":"sp_geosampa_estacao_trem:estacao_trem.3101","source_id":"sp_geosampa_estacao_trem","name":"PALMEIRAS - BARRA FUNDA","category":"metro_train","subcategory":"train","geometry_type":"Point","address":null,"equipment_type":"DIAMANTE","administrative_sphere":null,"included_in_metrics":true,"exclusion_reason":null,"override_reason":null}},{"type":"Feature","geometry":{"type":"Point","coordinates":[-46.66751601,-23.5255841]},"properties":{"id":"sp_geosampa_estacao_trem:estacao_trem.3102","source_id":"sp_geosampa_estacao_trem","name":"PALMEIRAS - BARRA FUNDA","category":"metro_train","subcategory":"train","geometry_type":"Point","address":null,"equipment_type":"TURQUESA","administrative_sphere":null,"included_in_metrics":true,"exclusion_reason":null,"override_reason":null}},{"type":"Feature","geometry":{"type":"Point","coordinates":[-46.66751601,-23.5255841]},"properties":{"id":"sp_geosampa_estacao_trem:estacao_trem.3103","source_id":"sp_geosampa_estacao_trem","name":"PALMEIRAS - BARRA FUNDA","category":"metro_train","subcategory":"train","geometry_type":"Point","address":null,"equipment_type":"CORAL","administrative_sphere":null,"included_in_metrics":true,"exclusion_reason":null,"override_reason":null}},{"type":"Feature","geometry":{"type":"Point","coordinates":[-46.4824092,-23.48514207]},"properties":{"id":"sp_geosampa_estacao_trem:estacao_trem.3104","source_id":"sp_geosampa_estacao_trem","name":"COMENDADOR ERMELINO","category":"metro_train","subcategory":"train","geometry_type":"Point","address":null,"equipment_type":"SAFIRA","administrative_sphere":null,"included_in_metrics":true,"exclusion_reason":null,"override_reason":null}},{"type":"Feature","geometry":{"type":"Point","coordinates":[-46.52010212,-23.49810114]},"properties":{"id":"sp_geosampa_estacao_trem:estacao_trem.3105","source_id":"sp_geosampa_estacao_trem","name":"ENGENHEIRO GOULART","category":"metro_train","subcategory":"train","geometry_type":"Point","address":null,"equipment_type":"SAFIRA","administrative_sphere":null,"included_in_metrics":true,"exclusion_reason":null,"override_reason":null}},{"type":"Feature","geometry":{"type":"Point","coordinates":[-46.52010212,-23.49810114]},"properties":{"id":"sp_geosampa_estacao_trem:estacao_trem.3106","source_id":"sp_geosampa_estacao_trem","name":"ENGENHEIRO GOULART","category":"metro_train","subcategory":"train","geometry_type":"Point","address":null,"equipment_type":"JADE","administrative_sphere":null,"included_in_metrics":true,"exclusion_reason":null,"override_reason":null}},{"type":"Feature","geometry":{"type":"Point","coordinates":[-46.70927922,-23.75429067]},"properties":{"id":"sp_geosampa_estacao_trem:estacao_trem.3107","source_id":"sp_geosampa_estacao_trem","name":"MENDES / BRUNO COVAS","category":"metro_train","subcategory":"train","geometry_type":"Point","address":null,"equipment_type":"ESMERALDA","administrative_sphere":null,"included_in_metrics":true,"exclusion_reason":null,"override_reason":null}},{"type":"Feature","geometry":{"type":"Point","coordinates":[-46.71190053,-23.77000136]},"properties":{"id":"sp_geosampa_estacao_trem:estacao_trem.3108","source_id":"sp_geosampa_estacao_trem","name":"VARGINHA","category":"metro_train","subcategory":"train","geometry_type":"Point","address":null,"equipment_type":"ESMERALDA","administrative_sphere":null,"included_in_metrics":true,"exclusion_reason":null,"override_reason":null}},{"type":"Feature","geometry":{"type":"Point","coordinates":[-46.97270475,-23.53016804]},"properties":{"id":"sp_geosampa_estacao_trem:estacao_trem.3109","source_id":"sp_geosampa_estacao_trem","name":"AMBUITÁ","category":"metro_train","subcategory":"train","geometry_type":"Point","address":null,"equipment_type":"DIAMANTE","administrative_sphere":null,"included_in_metrics":true,"exclusion_reason":null,"override_reason":null}}]}
